{"version": 0.6, "generator": "Overpass API 0.7.57.1 74a55df1", "osm3s": {"timestamp_osm_base": "2021-12-08T18:09:52Z", "copyright": "The data included in this document is from www.openstreetmap.org. The data is made available under ODbL."}, "elements": [{"type": "node", "id": 1398287223, "lat": 9.3413854, "lon": -83.6731028, "tags": {"addr:city": "Daniel Flores", "alt_name": "Banco Popular", "alt_name:en": "Popular Bank", "alt_name:es": "Banco Popular", "amenity": "bank", "atm": "yes", "brand": "Popular", "brand:en": "Popular", "brand:es": "Popular", "brand:wikidata": "Q7229656", "brand:wikipedia": "en:Popular, Inc.", "name": "Popular", "name:en": "Popular", "name:es": "Popular", "official_name": "Banco Popular de Puerto Rico", "official_name:es": "Banco Popular de Puerto Rico", "short_name": "BPPR"}}, {"type": "node", "id": 1398287238, "lat": 9.3409815, "lon": -83.6740865, "tags": {"addr:city": "Daniel Flores", "amenity": "bank", "atm": "yes", "name": "Scotiabank"}}, {"type": "node", "id": 1411501482, "lat": 9.4229366, "lon": -83.6579146, "tags": {"addr:city": "Rivas", "amenity": "bank", "atm": "yes", "name": "Coopealianza"}}, {"type": "node", "id": 1858199607, "lat": 9.37636, "lon": -83.70459, "tags": {"amenity": "bank", "name": "Coopealianza San Isidro"}}, {"type": "node", "id": 1858234652, "lat": 9.3704587, "lon": -83.7050474, "tags": {"amenity": "bank", "name": "Banco Popular"}}, {"type": "node", "id": 2678751256, "lat": 9.3720609, "lon": -83.7049679, "tags": {"addr:city": "San Isidro de El General", "amenity": "bank", "atm": "yes", "name": "Credecoop R.L.", "phone": "506 27850239", "source": "KG Ground Survey 2015", "website": "https://www.credecoop.fi.cr/"}}, {"type": "node", "id": 3831537579, "lat": 9.1721102, "lon": -83.7392486}, {"type": "node", "id": 3831537580, "lat": 9.1722495, "lon": -83.7391511}, {"type": "node", "id": 3831537581, "lat": 9.1721532, "lon": -83.7390114}, {"type": "node", "id": 3831537582, "lat": 9.1720175, "lon": -83.7390977}, {"type": "node", "id": 3831765044, "lat": 9.172336, "lon": -83.7390623}, {"type": "node", "id": 3831765045, "lat": 9.1722568, "lon": -83.7389349}, {"type": "node", "id": 3940226577, "lat": 9.3764415, "lon": -83.7045762, "tags": {"source": "KG Ground Survey 2015"}}, {"type": "node", "id": 3940226578, "lat": 9.3763719, "lon": -83.7046047, "tags": {"source": "KG Ground Survey 2015"}}, {"type": "node", "id": 3940226579, "lat": 9.3763635, "lon": -83.7045837, "tags": {"source": "KG Ground Survey 2015"}}, {"type": "node", "id": 3940226580, "lat": 9.3762966, "lon": -83.7046112, "tags": {"source": "KG Ground Survey 2015"}}, {"type": "node", "id": 3940226581, "lat": 9.3764223, "lon": -83.7049285, "tags": {"source": "KG Ground Survey 2015"}}, {"type": "node", "id": 3940226582, "lat": 9.3765597, "lon": -83.7048721, "tags": {"source": "KG Ground Survey 2015"}}, {"type": "node", "id": 3940226583, "lat": 9.3763095, "lon": -83.704643, "tags": {"source": "KG Ground Survey 2015"}}, {"type": "node", "id": 3940226586, "lat": 9.3763781, "lon": -83.7048172, "tags": {"source": "KG Ground Survey 2015"}}, {"type": "node", "id": 3940736465, "lat": 9.3738432, "lon": -83.705763, "tags": {"source": "KG Ground Survey 2015"}}, {"type": "node", "id": 3940736466, "lat": 9.3737051, "lon": -83.7058252, "tags": {"source": "KG Ground Survey 2015"}}, {"type": "node", "id": 3940736467, "lat": 9.3735951, "lon": -83.7055744, "tags": {"source": "KG Ground Survey 2015"}}, {"type": "node", "id": 3940736468, "lat": 9.3737333, "lon": -83.7055122, "tags": {"source": "KG Ground Survey 2015"}}, {"type": "node", "id": 3940736469, "lat": 9.3733958, "lon": -83.7053486, "tags": {"source": "KG Ground Survey 2015"}}, {"type": "node", "id": 3940736470, "lat": 9.3732188, "lon": -83.7054244, "tags": {"source": "KG Ground Survey 2015"}}, {"type": "node", "id": 3940736471, "lat": 9.3731733, "lon": -83.7052942, "tags": {"source": "KG Ground Survey 2015"}}, {"type": "node", "id": 3940736472, "lat": 9.3733256, "lon": -83.7052269, "tags": {"source": "KG Ground Survey 2015"}}, {"type": "node", "id": 3946397580, "lat": 9.3743145, "lon": -83.7024042, "tags": {"source": "KG Ground Survey 2015"}}, {"type": "node", "id": 3946874444, "lat": 9.3700298, "lon": -83.7054661}, {"type": "node", "id": 3946874452, "lat": 9.3699658, "lon": -83.7053108}, {"type": "node", "id": 3946874453, "lat": 9.3698209, "lon": -83.7053721}, {"type": "node", "id": 3946874454, "lat": 9.3699378, "lon": -83.7056557}, {"type": "node", "id": 3946874455, "lat": 9.3700826, "lon": -83.7055944}, {"type": "node", "id": 3949021949, "lat": 9.3732745, "lon": -83.7093259, "tags": {"source": "KG Ground Survey 2015"}}, {"type": "node", "id": 3949021950, "lat": 9.3732144, "lon": -83.7093756, "tags": {"source": "KG Ground Survey 2015"}}, {"type": "node", "id": 3949021951, "lat": 9.3731457, "lon": -83.7092903, "tags": {"source": "KG Ground Survey 2015"}}, {"type": "node", "id": 3949021952, "lat": 9.3732058, "lon": -83.7092406, "tags": {"source": "KG Ground Survey 2015"}}, {"type": "node", "id": 3949036283, "lat": 9.373746, "lon": -83.7043696, "tags": {"addr:city": "San Isidro de El General", "addr:street": "Avenida 2", "amenity": "bank", "name": "Western Union", "source": "KG Ground Survey 2015"}}, {"type": "node", "id": 3949122337, "lat": 9.3734053, "lon": -83.703282, "tags": {"addr:city": "San Isidro de El General", "addr:street": "Avenida 2", "amenity": "bank", "name": "Coopealianza", "source": "KG Ground Survey 2015"}}, {"type": "node", "id": 3956010684, "lat": 9.3768866, "lon": -83.7042593, "tags": {"source": "KG Ground Survey 2015"}}, {"type": "node", "id": 3956010685, "lat": 9.3768355, "lon": -83.704117, "tags": {"source": "KG Ground Survey 2015"}}, {"type": "node", "id": 3956010686, "lat": 9.3767477, "lon": -83.7043053, "tags": {"source": "KG Ground Survey 2015"}}, {"type": "node", "id": 3956010687, "lat": 9.3767021, "lon": -83.7042604, "tags": {"source": "KG Ground Survey 2015"}}, {"type": "node", "id": 3956010688, "lat": 9.3766708, "lon": -83.7041819, "tags": {"source": "KG Ground Survey 2015"}}, {"type": "node", "id": 3957122984, "lat": 9.3734984, "lon": -83.7052049, "tags": {"source": "KG Ground Survey 2015"}}, {"type": "node", "id": 3957394546, "lat": 9.3731647, "lon": -83.7044637, "tags": {"source": "KG Ground Survey 2015"}}, {"type": "node", "id": 3957394547, "lat": 9.3730902, "lon": -83.7042881, "tags": {"source": "KG Ground Survey 2015"}}, {"type": "node", "id": 3957394548, "lat": 9.3731341, "lon": -83.7041766, "tags": {"source": "KG Ground Survey 2015"}}, {"type": "node", "id": 3957394549, "lat": 9.3733454, "lon": -83.7040898, "tags": {"source": "KG Ground Survey 2015"}}, {"type": "node", "id": 3957394550, "lat": 9.3734438, "lon": -83.7043423, "tags": {"source": "KG Ground Survey 2015"}}, {"type": "node", "id": 3958508685, "lat": 9.3722582, "lon": -83.7033499, "tags": {"source": "KG Ground Survey 2015"}}, {"type": "node", "id": 3958508686, "lat": 9.3723349, "lon": -83.7033182, "tags": {"source": "KG Ground Survey 2015"}}, {"type": "node", "id": 3958508687, "lat": 9.3723808, "lon": -83.7034323, "tags": {"source": "KG Ground Survey 2015"}}, {"type": "node", "id": 3958508688, "lat": 9.3723041, "lon": -83.703464, "tags": {"source": "KG Ground Survey 2015"}}, {"type": "node", "id": 3960363857, "lat": 9.3735356, "lon": -83.705302, "tags": {"source": "KG Ground Survey 2015"}}, {"type": "node", "id": 3960363858, "lat": 9.3736005, "lon": -83.7052706, "tags": {"source": "KG Ground Survey 2015"}}, {"type": "node", "id": 3960363859, "lat": 9.3735579, "lon": -83.7051772, "tags": {"source": "KG Ground Survey 2015"}}, {"type": "node", "id": 3960363860, "lat": 9.3737354, "lon": -83.7052098, "tags": {"source": "KG Ground Survey 2015"}}, {"type": "node", "id": 3960363861, "lat": 9.3736868, "lon": -83.7050893, "tags": {"source": "KG Ground Survey 2015"}}, {"type": "node", "id": 3971821850, "lat": 9.3419164, "lon": -83.6722631}, {"type": "node", "id": 3971821851, "lat": 9.3419569, "lon": -83.6721529}, {"type": "node", "id": 3971821852, "lat": 9.3421966, "lon": -83.6722436}, {"type": "node", "id": 3971821853, "lat": 9.342156, "lon": -83.6723538}, {"type": "node", "id": 3972215261, "lat": 9.3585639, "lon": -83.6856068}, {"type": "node", "id": 3972215262, "lat": 9.3584895, "lon": -83.6854972}, {"type": "node", "id": 3972215263, "lat": 9.3585882, "lon": -83.6854284}, {"type": "node", "id": 3972215264, "lat": 9.3586626, "lon": -83.685538}, {"type": "node", "id": 3988485743, "lat": 9.3717085, "lon": -83.7059514, "tags": {"amenity": "bank", "name": "Coopemap", "source": "KG Ground Survey 2016"}}, {"type": "node", "id": 3988734658, "lat": 9.3753353, "lon": -83.7040129}, {"type": "node", "id": 3988734659, "lat": 9.3752473, "lon": -83.704046}, {"type": "node", "id": 3988734660, "lat": 9.3752098, "lon": -83.7039436}, {"type": "node", "id": 3988734661, "lat": 9.3752978, "lon": -83.7039105}, {"type": "node", "id": 3988829467, "lat": 9.371355, "lon": -83.7049298}, {"type": "node", "id": 3988829468, "lat": 9.3712731, "lon": -83.7049631}, {"type": "node", "id": 3988829469, "lat": 9.3712543, "lon": -83.7049157}, {"type": "node", "id": 3988829470, "lat": 9.3713362, "lon": -83.7048823}, {"type": "node", "id": 4676543094, "lat": 9.3762768, "lon": -83.7051347, "tags": {"amenity": "bank", "name": "E&T Escrow Trust Solutions", "name:en": "E&T Escrow Trust Solutions", "name:es": "E&T Escrow Trust Solutions"}}, {"type": "node", "id": 5218723685, "lat": 9.1662343, "lon": -83.7365782, "tags": {"addr:city": "Bah\u00eda Ballena", "addr:street": "Carretera Pac\u00edfica Fern\u00e1ndez Oreamuno", "amenity": "bank", "name": "Banco Popular"}}, {"type": "node", "id": 6815754679, "lat": 9.3414032, "lon": -83.6738927, "tags": {"addr:city": "Daniel Flores", "amenity": "bank", "name": "Banco de Costa Rica"}}, {"type": "node", "id": 6841302232, "lat": 9.3720862, "lon": -83.7058107, "tags": {"addr:city": "San Isidro de El General", "addr:street": "Calle 2", "amenity": "bank", "name": "Banco BCT"}}, {"type": "node", "id": 8439607077, "lat": 9.1723501, "lon": -83.7390764}, {"type": "node", "id": 8439790942, "lat": 9.1653623, "lon": -83.7361999}, {"type": "node", "id": 8439790943, "lat": 9.1653111, "lon": -83.7363644}, {"type": "node", "id": 8498020309, "lat": 9.323026, "lon": -83.6662079}, {"type": "node", "id": 8498020310, "lat": 9.3227776, "lon": -83.6661165}, {"type": "node", "id": 8498020311, "lat": 9.322709, "lon": -83.6663081}, {"type": "node", "id": 8498020312, "lat": 9.3229509, "lon": -83.6663971}, {"type": "node", "id": 8498020313, "lat": 9.3229658, "lon": -83.6663557}, {"type": "node", "id": 8498020314, "lat": 9.323047, "lon": -83.6663856}, {"type": "node", "id": 8498020315, "lat": 9.3230661, "lon": -83.6663323}, {"type": "node", "id": 8498020316, "lat": 9.3229913, "lon": -83.6663048}, {"type": "node", "id": 8508619362, "lat": 9.3744004, "lon": -83.7023712}, {"type": "node", "id": 8508619363, "lat": 9.374216, "lon": -83.7024409}, {"type": "node", "id": 8508619364, "lat": 9.374294, "lon": -83.7026408}, {"type": "node", "id": 8508619365, "lat": 9.3743199, "lon": -83.7026354}, {"type": "node", "id": 8508619366, "lat": 9.3743384, "lon": -83.7026904}, {"type": "node", "id": 8508619367, "lat": 9.3745482, "lon": -83.7025995}, {"type": "node", "id": 8508619368, "lat": 9.3745015, "lon": -83.7024768}, {"type": "node", "id": 8508619369, "lat": 9.3744475, "lon": -83.7024976}, {"type": "node", "id": 8508619372, "lat": 9.374335, "lon": -83.7023963}, {"type": "node", "id": 8515499394, "lat": 9.3698071, "lon": -83.704781}, {"type": "node", "id": 8515499395, "lat": 9.3696893, "lon": -83.7045128}, {"type": "node", "id": 8515499396, "lat": 9.3697687, "lon": -83.7044806}, {"type": "node", "id": 8515499397, "lat": 9.3698905, "lon": -83.7047475}, {"type": "node", "id": 8515499398, "lat": 9.3699712, "lon": -83.7047153}, {"type": "node", "id": 8515499399, "lat": 9.3698521, "lon": -83.7044471}, {"type": "node", "id": 8515499400, "lat": 9.3696364, "lon": -83.7048575}, {"type": "node", "id": 8515499401, "lat": 9.3697211, "lon": -83.7048199}, {"type": "node", "id": 8515499402, "lat": 9.3696007, "lon": -83.704553}, {"type": "node", "id": 8515499403, "lat": 9.369512, "lon": -83.7045866}, {"type": "node", "id": 8641792558, "lat": 9.3735884, "lon": -83.7051324}, {"type": "node", "id": 8641792559, "lat": 9.3736012, "lon": -83.7051625}, {"type": "node", "id": 8734979508, "lat": 9.1654593, "lon": -83.7364135}, {"type": "node", "id": 9016238686, "lat": 9.3733496, "lon": -83.7052847}, {"type": "node", "id": 9016238687, "lat": 9.3733639, "lon": -83.7052794}, {"type": "node", "id": 9021481920, "lat": 9.1655132, "lon": -83.7362453}, {"type": "way", "id": 379809885, "nodes": [3831537579, 3831537580, 3831537581, 3831537582, 3831537579], "tags": {"addr:city": "Bah\u00eda Ballena", "addr:street": "Carretera Pac\u00edfica Fern\u00e1ndez Oreamuno", "amenity": "bank", "atm": "yes", "brand": "BCR", "brand:wikidata": "Q6951632", "brand:wikipedia": "es:Banco de Costa Rica", "building": "yes", "name": "BCR", "official_name": "Banco de Costa Rica", "source": "KG Ground Survey 2015"}}, {"type": "way", "id": 379833785, "nodes": [3831537580, 8439607077, 3831765044, 3831765045, 3831537581, 3831537580], "tags": {"amenity": "bank", "building": "yes", "name": "Coopealianza", "source": "KG Ground Survey 2015"}}, {"type": "way", "id": 390874192, "nodes": [3940226577, 3940226578, 3940226579, 3940226580, 3940226583, 3940226586, 3940226581, 3940226582, 3940226577], "tags": {"addr:city": "San Isidro de El General", "addr:street": "Calle 4", "amenity": "bank", "building": "yes", "name": "Coopenae", "source": "KG Ground Survey 2015"}}, {"type": "way", "id": 390919404, "nodes": [3940736465, 3940736466, 3940736467, 3940736468, 3940736465], "tags": {"addr:city": "San Isidro de El General", "addr:street": "Calle 4", "amenity": "bank", "building": "yes", "name": "Comercial Alianza", "source": "KG Ground Survey 2015"}}, {"type": "way", "id": 390919405, "nodes": [3940736469, 3940736470, 3940736471, 3940736472, 9016238686, 9016238687, 3940736469], "tags": {"addr:city": "San Isidro de El General", "addr:street": "Avenida 4", "amenity": "bank", "building": "yes", "name": "Coopealianza", "source": "KG Ground Survey 2015"}}, {"type": "way", "id": 391473702, "nodes": [3946874452, 3946874453, 3946874454, 3946874455, 3946874444, 3946874452], "tags": {"amenity": "bank", "building": "yes", "name": "Banco Davivienda", "source": "KG Ground Survey 2015"}}, {"type": "way", "id": 391674644, "nodes": [3949021949, 3949021950, 3949021951, 3949021952, 3949021949], "tags": {"addr:street": "Calle 10", "amenity": "bank", "building": "yes", "name": "Servicoop R.L.", "source": "KG Ground Survey 2015"}}, {"type": "way", "id": 392374396, "nodes": [3956010684, 3956010686, 3956010687, 3956010688, 3956010685, 3956010684], "tags": {"addr:city": "San Isidro de El General", "amenity": "bank", "building": "yes", "name": "Coope Ande", "source": "KG Ground Survey 2015"}}, {"type": "way", "id": 392522598, "nodes": [3957394546, 3957394547, 3957394548, 3957394549, 3957394550, 3957394546], "tags": {"addr:city": "San Isidro de El General", "amenity": "bank", "atm": "yes", "brand": "BCR", "brand:wikidata": "Q6951632", "brand:wikipedia": "es:Banco de Costa Rica", "building": "yes", "name": "BCR", "official_name": "Banco de Costa Rica", "source": "KG Ground Survey 2015"}}, {"type": "way", "id": 392658664, "nodes": [3958508685, 3958508686, 3958508687, 3958508688, 3958508685], "tags": {"addr:city": "San Isidro de El General", "addr:street": "Calle 1", "amenity": "bank", "building": "yes", "name": "Grupo Mutual", "source": "KG Ground Survey 2015"}}, {"type": "way", "id": 392841848, "nodes": [3960363857, 3960363858, 3960363859, 3957122984, 3960363857], "tags": {"addr:city": "San Isidro de El General", "addr:street": "Calle 2A", "amenity": "bank", "building": "yes", "name": "Coopealianza", "source": "KG Ground Survey 2015"}}, {"type": "way", "id": 392841853, "nodes": [3960363858, 3960363860, 3960363861, 8641792558, 8641792559, 3960363859, 3960363858], "tags": {"addr:city": "San Isidro de El General", "addr:street": "Calle 2A", "amenity": "bank", "atm": "yes", "building": "yes", "name": "Banco Nacional", "source": "KG Ground Survey 2015"}}, {"type": "way", "id": 394165982, "nodes": [3971821850, 3971821851, 3971821852, 3971821853, 3971821850], "tags": {"amenity": "bank", "building": "yes", "name": "Coopealianza", "source": "KG Ground Survey 2015"}}, {"type": "way", "id": 394211004, "nodes": [3972215261, 3972215262, 3972215263, 3972215264, 3972215261], "tags": {"amenity": "bank", "building": "yes", "name": "Coopealianza", "source": "KG Ground Survey 2015"}}, {"type": "way", "id": 396075880, "nodes": [3988734658, 3988734659, 3988734660, 3988734661, 3988734658], "tags": {"addr:street": "Calle 2", "amenity": "bank", "building": "yes", "name": "Grupo Mutual", "source": "KG Ground Survey 2016"}}, {"type": "way", "id": 396084899, "nodes": [3988829467, 3988829468, 3988829469, 3988829470, 3988829467], "tags": {"addr:city": "San Isidro de El General", "addr:street": "Avenida 8", "amenity": "bank", "atm": "yes", "building": "yes", "name": "Banco Improsa", "source": "KG Ground Survey 2016"}}, {"type": "way", "id": 908958899, "nodes": [9021481920, 8439790942, 8439790943, 8734979508, 9021481920], "tags": {"amenity": "bank", "atm": "yes", "brand": "Banco Nacional de Costa Rica", "brand:wikidata": "Q2917708", "brand:wikipedia": "es:Banco Nacional de Costa Rica", "building": "yes", "name": "Banco Nacional", "official_name": "Banco Nacional de Costa Rica", "short_name": "BNCR"}}, {"type": "way", "id": 914825034, "nodes": [8498020309, 8498020310, 8498020311, 8498020312, 8498020313, 8498020314, 8498020315, 8498020316, 8498020309], "tags": {"addr:city": "Daniel Flores", "addr:street": "Carretera Interamericana Sur", "amenity": "bank", "brand": "Banco Nacional de Costa Rica", "brand:en": "National Bank of Costa Rica", "brand:es": "Banco Nacional de Costa Rica", "brand:wikidata": "Q2917708", "brand:wikipedia": "es:Banco Nacional de Costa Rica", "building": "yes", "name": "Banco Nacional", "name:en": "National Bank", "name:es": "Banco Nacional", "name:it": "Banca Nazionale", "official_name": "Banco Nacional de Costa Rica", "official_name:en": "National Bank of Costa Rica", "official_name:es": "Banco Nacional de Costa Rica", "short_name": "BNCR"}}, {"type": "way", "id": 916054136, "nodes": [8508619362, 8508619372, 3946397580, 8508619363, 8508619364, 8508619365, 8508619366, 8508619367, 8508619368, 8508619369, 8508619362], "tags": {"amenity": "bank", "brand": "Banco Nacional de Costa Rica", "brand:en": "National Bank of Costa Rica", "brand:es": "Banco Nacional de Costa Rica", "brand:wikidata": "Q2917708", "brand:wikipedia": "es:Banco Nacional de Costa Rica", "building": "yes", "name": "Banco Nacional P\u00e9rez Zeled\u00f3n", "name:en": "National Bank", "name:es": "Banco Nacional", "name:it": "Banca Nazionale P\u00e9rez Zeled\u00f3n", "official_name": "Banco Nacional de Costa Rica", "official_name:en": "National Bank of Costa Rica", "official_name:es": "Banco Nacional de Costa Rica", "short_name": "BNCR"}}, {"type": "way", "id": 916843838, "nodes": [8515499394, 8515499395, 8515499396, 8515499397, 8515499394], "tags": {"amenity": "bank", "brand": "Scotiabank", "brand:wikidata": "Q451476", "brand:wikipedia": "en:Scotiabank", "building": "yes", "drive_through": "no", "name": "Scotiabank P\u00e9rez Zeled\u00f3n", "name:it": "Scotiabank P\u00e9rez Zeled\u00f3n"}}, {"type": "way", "id": 916843839, "nodes": [8515499397, 8515499398, 8515499399, 8515499396, 8515499397], "tags": {"amenity": "bank", "brand": "BAC Credomatic", "brand:wikidata": "Q5715556", "brand:wikipedia": "en:BAC Credomatic", "building": "yes", "name": "BAC Credomatic P\u00e9rez Zeled\u00f3n", "name:it": "BAC Credomatic P\u00e9rez Zeled\u00f3n"}}, {"type": "way", "id": 916843840, "nodes": [8515499400, 8515499401, 8515499402, 8515499403, 8515499400], "tags": {"amenity": "bank", "brand": "BCR", "brand:wikidata": "Q6951632", "brand:wikipedia": "es:Banco de Costa Rica", "building": "yes", "name": "Banca Kristal P\u00e9rez Zeled\u00f3n", "name:it": "Banca Kristal P\u00e9rez Zeled\u00f3n", "official_name": "Banco de Costa Rica", "official_name:en": "Bank of Costa Rica", "official_name:es": "Banco de Costa Rica"}}]}