{"version": 0.6, "generator": "Overpass API 0.7.57.1 74a55df1", "osm3s": {"timestamp_osm_base": "2021-12-08T17:51:39Z", "copyright": "The data included in this document is from www.openstreetmap.org. The data is made available under ODbL."}, "elements": [{"type": "node", "id": 875143298, "lat": 10.074315, "lon": -84.48199, "tags": {"addr:city": "Santiago", "addr:street": "Carretera Interamericana Norte", "amenity": "bank", "atm": "yes", "name": "Banco Nacional"}}, {"type": "node", "id": 1390217209, "lat": 10.3531606, "lon": -84.2745976, "tags": {"addr:city": "Venecia", "amenity": "bank", "atm": "yes", "brand": "Banco Nacional de Costa Rica", "brand:en": "National Bank of Costa Rica", "brand:es": "Banco Nacional de Costa Rica", "brand:wikidata": "Q2917708", "brand:wikipedia": "es:Banco Nacional de Costa Rica", "name": "Banco Nacional", "name:en": "National Bank", "name:es": "Banco Nacional", "official_name": "Banco Nacional de Costa Rica", "official_name:en": "National Bank of Costa Rica", "official_name:es": "Banco Nacional de Costa Rica", "short_name": "BNCR"}}, {"type": "node", "id": 1440002370, "lat": 10.3404247, "lon": -84.4326704}, {"type": "node", "id": 1440002372, "lat": 10.3405531, "lon": -84.4326931}, {"type": "node", "id": 1440002374, "lat": 10.3404825, "lon": -84.4324052}, {"type": "node", "id": 1440002379, "lat": 10.3406055, "lon": -84.4324297}, {"type": "node", "id": 1838816565, "lat": 10.3240429, "lon": -84.4302917}, {"type": "node", "id": 2505443453, "lat": 10.0969299, "lon": -84.3801531}, {"type": "node", "id": 2505443454, "lat": 10.0967113, "lon": -84.3801805}, {"type": "node", "id": 2505443455, "lat": 10.096737, "lon": -84.3803919}, {"type": "node", "id": 2505443456, "lat": 10.0968701, "lon": -84.3803245}, {"type": "node", "id": 2505443457, "lat": 10.0969495, "lon": -84.3803145}, {"type": "node", "id": 3738298783, "lat": 9.9799145, "lon": -84.3801939}, {"type": "node", "id": 3738298784, "lat": 9.979662, "lon": -84.3801936}, {"type": "node", "id": 3738298785, "lat": 9.9796651, "lon": -84.379807}, {"type": "node", "id": 3738298786, "lat": 9.9800729, "lon": -84.379806}, {"type": "node", "id": 3738298787, "lat": 9.9800728, "lon": -84.3798819}, {"type": "node", "id": 3738298788, "lat": 9.9799149, "lon": -84.3798817}, {"type": "node", "id": 3972724340, "lat": 10.3604616, "lon": -84.4782533, "tags": {"addr:city": "Florencia", "amenity": "bank", "atm": "yes", "name": "Banco Nacional"}}, {"type": "node", "id": 3982491793, "lat": 9.9906755, "lon": -84.666376}, {"type": "node", "id": 3982491794, "lat": 9.9904761, "lon": -84.6664597}, {"type": "node", "id": 3982491795, "lat": 9.9903959, "lon": -84.6662625}, {"type": "node", "id": 3982491796, "lat": 9.9905953, "lon": -84.6661788}, {"type": "node", "id": 4570994777, "lat": 9.9592998, "lon": -84.3178802}, {"type": "node", "id": 4570994778, "lat": 9.9592409, "lon": -84.3175194}, {"type": "node", "id": 4570994779, "lat": 9.9590384, "lon": -84.3175446}, {"type": "node", "id": 4570994780, "lat": 9.959052, "lon": -84.3179097}, {"type": "node", "id": 4792636846, "lat": 9.9797984, "lon": -84.379806}, {"type": "node", "id": 4936403044, "lat": 10.3240488, "lon": -84.4300996}, {"type": "node", "id": 4936403420, "lat": 10.324085, "lon": -84.4302933}, {"type": "node", "id": 6837944084, "lat": 10.0968762, "lon": -84.3803744}, {"type": "node", "id": 8699815873, "lat": 10.0856582, "lon": -84.469529}, {"type": "node", "id": 8699815874, "lat": 10.0856823, "lon": -84.4697191}, {"type": "node", "id": 8699815875, "lat": 10.0857373, "lon": -84.469714}, {"type": "node", "id": 8699815876, "lat": 10.0857453, "lon": -84.4697831}, {"type": "node", "id": 8699815877, "lat": 10.0856883, "lon": -84.4697902}, {"type": "node", "id": 8699815878, "lat": 10.0856943, "lon": -84.4698471}, {"type": "node", "id": 8699815879, "lat": 10.0853891, "lon": -84.4698807}, {"type": "node", "id": 8699815880, "lat": 10.085354, "lon": -84.4695686}, {"type": "node", "id": 8722681476, "lat": 10.3242904, "lon": -84.4303031}, {"type": "node", "id": 8722681477, "lat": 10.3240544, "lon": -84.4299183}, {"type": "node", "id": 8722681478, "lat": 10.3239874, "lon": -84.429914}, {"type": "node", "id": 8722681479, "lat": 10.3239905, "lon": -84.4297405}, {"type": "node", "id": 8722681480, "lat": 10.3241167, "lon": -84.4297474}, {"type": "node", "id": 8722681481, "lat": 10.3241141, "lon": -84.4300417}, {"type": "node", "id": 8722681482, "lat": 10.3243015, "lon": -84.4300449}, {"type": "node", "id": 8999733614, "lat": 10.1855552, "lon": -84.3923171}, {"type": "node", "id": 8999733615, "lat": 10.1853897, "lon": -84.3923357}, {"type": "node", "id": 8999733616, "lat": 10.1853689, "lon": -84.3921245}, {"type": "node", "id": 8999733617, "lat": 10.1853548, "lon": -84.3921262}, {"type": "node", "id": 8999733618, "lat": 10.1853515, "lon": -84.392089}, {"type": "node", "id": 8999733619, "lat": 10.1855344, "lon": -84.3920789}, {"type": "node", "id": 8999733620, "lat": 10.1855316, "lon": -84.3921036}, {"type": "node", "id": 8999733621, "lat": 10.1855361, "lon": -84.3921029}, {"type": "node", "id": 9270948657, "lat": 10.0734299, "lon": -84.3124133}, {"type": "node", "id": 9270948658, "lat": 10.0733872, "lon": -84.3126832}, {"type": "node", "id": 9270948659, "lat": 10.0732182, "lon": -84.3126469}, {"type": "node", "id": 9270948660, "lat": 10.0732374, "lon": -84.3125168}, {"type": "node", "id": 9270948661, "lat": 10.0731964, "lon": -84.3125071}, {"type": "node", "id": 9270948662, "lat": 10.0732191, "lon": -84.3123832}, {"type": "node", "id": 9270948663, "lat": 10.0733724, "lon": -84.3124221}, {"type": "node", "id": 9270948664, "lat": 10.073375, "lon": -84.3124018}, {"type": "node", "id": 9270948665, "lat": 10.0733928, "lon": -84.3126002}, {"type": "node", "id": 9270948666, "lat": 10.0734075, "lon": -84.3126047}, {"type": "way", "id": 130819537, "nodes": [1440002372, 1440002379, 1440002374, 1440002370, 1440002372], "tags": {"addr:city": "Ciudad Quesada", "amenity": "bank", "atm": "yes", "building": "yes", "name": "Banco Nacional"}}, {"type": "way", "id": 243112142, "nodes": [2505443453, 2505443454, 2505443455, 6837944084, 2505443456, 2505443457, 2505443453], "tags": {"addr:city": "Naranjo", "addr:street": "Calle 2", "amenity": "bank", "atm": "yes", "building": "yes", "name": "Banco Nacional", "name:en": "National Bank"}}, {"type": "way", "id": 370108553, "nodes": [3738298783, 3738298784, 3738298785, 4792636846, 3738298786, 3738298787, 3738298788, 3738298783], "tags": {"addr:city": "Atenas", "addr:street": "Avenida 1", "amenity": "bank", "atm": "yes", "brand": "Banco Nacional de Costa Rica", "brand:en": "National Bank of Costa Rica", "brand:es": "Banco Nacional de Costa Rica", "brand:wikidata": "Q2917708", "brand:wikipedia": "es:Banco Nacional de Costa Rica", "building": "yes", "name": "Banco Nacional", "name:en": "National Bank", "name:es": "Banco Nacional", "official_name": "Banco Nacional de Costa Rica", "official_name:en": "National Bank of Costa Rica", "official_name:es": "Banco Nacional de Costa Rica", "opening_hours": "Mo-Fr 08:30-15:45", "short_name": "BNCR"}}, {"type": "way", "id": 395345025, "nodes": [3982491793, 3982491794, 3982491795, 3982491796, 3982491793], "tags": {"addr:city": "Esp\u00edritu Santo", "addr:street": "Calle Central", "amenity": "bank", "atm": "yes", "brand": "Banco Nacional de Costa Rica", "brand:en": "National Bank of Costa Rica", "brand:es": "Banco Nacional de Costa Rica", "brand:wikidata": "Q2917708", "brand:wikipedia": "es:Banco Nacional de Costa Rica", "building": "yes", "name": "Banco Nacional", "name:en": "National Bank", "name:es": "Banco Nacional", "official_name": "Banco Nacional de Costa Rica", "official_name:en": "National Bank of Costa Rica", "official_name:es": "Banco Nacional de Costa Rica", "short_name": "BNCR", "source": "KG Ground Survey 2015"}}, {"type": "way", "id": 461627903, "nodes": [4570994777, 4570994778, 4570994779, 4570994780, 4570994777], "tags": {"addr:city": "Turr\u00facares", "amenity": "bank", "atm": "yes", "building": "yes", "name": "Banco Nacional"}}, {"type": "way", "id": 939126055, "nodes": [8699815873, 8699815874, 8699815875, 8699815876, 8699815877, 8699815878, 8699815879, 8699815880, 8699815873], "tags": {"amenity": "bank", "brand": "Banco Nacional de Costa Rica", "brand:en": "National Bank of Costa Rica", "brand:es": "Banco Nacional de Costa Rica", "brand:wikidata": "Q2917708", "brand:wikipedia": "es:Banco Nacional de Costa Rica", "building": "yes", "name": "Banco Nacional", "name:en": "San Ram\u00f3n National Bank", "name:es": "Banco Nacional San Ram\u00f3n", "name:it": "Banca Nazionale San Ram\u00f3n", "official_name": "Banco Nacional de Costa Rica", "official_name:en": "National Bank of Costa Rica", "official_name:es": "Banco Nacional de Costa Rica", "short_name": "BNCR"}}, {"type": "way", "id": 941928642, "nodes": [8722681476, 4936403420, 1838816565, 4936403044, 8722681477, 8722681478, 8722681479, 8722681480, 8722681481, 8722681482, 8722681476], "tags": {"addr:city": "Quesada", "addr:street": "Calle Guillermo Quesada Rodr\u00edguez", "amenity": "bank", "atm": "yes", "brand": "Banco Nacional de Costa Rica", "brand:en": "National Bank of Costa Rica", "brand:es": "Banco Nacional de Costa Rica", "brand:wikidata": "Q2917708", "brand:wikipedia": "es:Banco Nacional de Costa Rica", "building": "yes", "drive_through": "yes", "layer": "1", "name": "Banco Nacional", "official_name": "Banco Nacional de Costa Rica", "official_name:en": "National Bank of Costa Rica", "official_name:es": "Banco Nacional de Costa Rica", "short_name": "BNCR"}}, {"type": "way", "id": 972387174, "nodes": [8999733614, 8999733615, 8999733616, 8999733617, 8999733618, 8999733619, 8999733621, 8999733620, 8999733614], "tags": {"amenity": "bank", "brand": "Banco Nacional de Costa Rica", "brand:wikidata": "Q2917708", "brand:wikipedia": "es:Banco Nacional de Costa Rica", "building": "yes", "name": "Banco Nacional", "official_name": "Banco Nacional de Costa Rica", "short_name": "BNCR"}}, {"type": "way", "id": 1004818744, "nodes": [9270948657, 9270948665, 9270948666, 9270948658, 9270948659, 9270948660, 9270948661, 9270948662, 9270948663, 9270948664, 9270948657], "tags": {"amenity": "bank", "brand": "Banco Nacional de Costa Rica", "brand:wikidata": "Q2917708", "brand:wikipedia": "es:Banco Nacional de Costa Rica", "building": "yes", "name": "Banco Nacional", "official_name": "Banco Nacional de Costa Rica", "short_name": "BNCR"}}]}