{"version": 0.6, "generator": "Overpass API 0.7.57.1 74a55df1", "osm3s": {"timestamp_osm_base": "2021-12-08T18:04:54Z", "copyright": "The data included in this document is from www.openstreetmap.org. The data is made available under ODbL."}, "elements": [{"type": "node", "id": 1218645185, "lat": 9.8205391, "lon": -84.9356561, "tags": {"addr:city": "Paquera", "addr:full": "50 metros Este de la Cl\u00ednica del Seguro Social.", "amenity": "bank", "atm": "yes", "name": "Banco Popular", "opening_hours": "Mo-Fr 08:45-16:30; Sa 08:15-11:30", "phone": "Plataforma de servicios 2641-0075 / Cr\u00e9dito y Cobro 2641-1160 / 2641-1170"}}, {"type": "node", "id": 2339112198, "lat": 9.910395, "lon": -84.7164368, "tags": {"amenity": "bank", "atm": "yes", "name": "Banco de Costa Rica"}}, {"type": "node", "id": 4131668791, "lat": 9.6872046, "lon": -85.1045913, "tags": {"addr:city": "C\u00f3bano", "addr:street": "V\u00eda 160", "amenity": "bank", "atm": "yes", "brand": "Banco Nacional de Costa Rica", "brand:en": "National Bank of Costa Rica", "brand:es": "Banco Nacional de Costa Rica", "brand:wikidata": "Q2917708", "brand:wikipedia": "es:Banco Nacional de Costa Rica", "name": "Banco Nacional", "name:en": "National Bank", "name:es": "Banco Nacional", "official_name": "Banco Nacional de Costa Rica", "official_name:en": "National Bank of Costa Rica", "official_name:es": "Banco Nacional de Costa Rica", "short_name": "BNCR"}}]}