{"version": 0.6, "generator": "Overpass API 0.7.57.1 74a55df1", "osm3s": {"timestamp_osm_base": "2021-12-08T18:13:54Z", "copyright": "The data included in this document is from www.openstreetmap.org. The data is made available under ODbL."}, "elements": [{"type": "node", "id": 701330853, "lat": 9.9922149, "lon": -83.030219, "tags": {"addr:city": "Lim\u00f3n", "addr:street": "Calle Telesforo Bonilla", "amenity": "bank", "atm": "yes", "name": "Banco de Costa Rica"}}, {"type": "node", "id": 701330907, "lat": 9.9930073, "lon": -83.0263455, "tags": {"addr:city": "Lim\u00f3n", "addr:full": "Costado noroeste del Parque Vargas", "addr:street": "Calle Tom\u00e1s Guardia", "amenity": "bank", "atm": "yes", "name": "Banco de Costa Rica", "opening_hours": "Mo-Fr 09:00-16:00", "phone": "2798-9003"}}, {"type": "node", "id": 1352131662, "lat": 10.0831774, "lon": -83.339931, "tags": {"addr:city": "Bat\u00e1n", "amenity": "bank", "atm": "yes", "name": "Banco de Costa Rica"}}, {"type": "node", "id": 1352131664, "lat": 10.0834, "lon": -83.3403531, "tags": {"addr:city": "Bat\u00e1n", "amenity": "bank", "atm": "yes", "brand": "Banco Nacional de Costa Rica", "brand:en": "National Bank of Costa Rica", "brand:es": "Banco Nacional de Costa Rica", "brand:wikidata": "Q2917708", "brand:wikipedia": "es:Banco Nacional de Costa Rica", "name": "Banco Nacional", "name:en": "National Bank", "name:es": "Banco Nacional", "official_name": "Banco Nacional de Costa Rica", "official_name:en": "National Bank of Costa Rica", "official_name:es": "Banco Nacional de Costa Rica", "short_name": "BNCR"}}, {"type": "node", "id": 2866169277, "lat": 9.9933188, "lon": -83.027559, "tags": {"addr:city": "Lim\u00f3n", "addr:street": "Avenida Jos\u00e9 Mar\u00eda Castro", "amenity": "bank", "atm": "yes", "drive_through": "no", "name": "BAC Credomatic"}}, {"type": "node", "id": 3971508466, "lat": 10.0261728, "lon": -83.2430746}, {"type": "node", "id": 3971508467, "lat": 10.0260306, "lon": -83.2430838}, {"type": "node", "id": 3971508468, "lat": 10.0260166, "lon": -83.2428609}, {"type": "node", "id": 3971508469, "lat": 10.0261589, "lon": -83.2428517}, {"type": "node", "id": 3971632427, "lat": 9.9916305, "lon": -83.0272283}, {"type": "node", "id": 3971632428, "lat": 9.991723, "lon": -83.0272579}, {"type": "node", "id": 3971632429, "lat": 9.991747, "lon": -83.0271807}, {"type": "node", "id": 3971632430, "lat": 9.9918047, "lon": -83.0271992}, {"type": "node", "id": 3971632431, "lat": 9.9918112, "lon": -83.0271783}, {"type": "node", "id": 3971632432, "lat": 9.9919238, "lon": -83.0272143}, {"type": "node", "id": 3971632433, "lat": 9.9919794, "lon": -83.027035}, {"type": "node", "id": 3971632434, "lat": 9.9920374, "lon": -83.0270536}, {"type": "node", "id": 3971632435, "lat": 9.9920518, "lon": -83.027007}, {"type": "node", "id": 3971632436, "lat": 9.9917311, "lon": -83.0269044}, {"type": "node", "id": 3976333971, "lat": 9.9928031, "lon": -83.0280023, "tags": {"addr:city": "Lim\u00f3n", "addr:street": "Calle Agust\u00edn Guti\u00e9rrez Iglesias", "amenity": "bank", "name": "Banco Cathay", "source": "KG Ground Survey 2015"}}, {"type": "node", "id": 3976385143, "lat": 9.9948753, "lon": -83.0300069}, {"type": "node", "id": 3976385144, "lat": 9.9949069, "lon": -83.0299}, {"type": "node", "id": 3976385145, "lat": 9.9950399, "lon": -83.0299412}, {"type": "node", "id": 3976385146, "lat": 9.9950059, "lon": -83.0300493}, {"type": "node", "id": 3976472850, "lat": 9.9915478, "lon": -83.0307251}, {"type": "node", "id": 3976472851, "lat": 9.99156, "lon": -83.0307498}, {"type": "node", "id": 3976472852, "lat": 9.9915792, "lon": -83.0307675}, {"type": "node", "id": 3976472853, "lat": 9.9917652, "lon": -83.0308176}, {"type": "node", "id": 3976472854, "lat": 9.9918146, "lon": -83.0306284}, {"type": "node", "id": 3976472855, "lat": 9.9915887, "lon": -83.0305677}, {"type": "node", "id": 3976505109, "lat": 9.9941825, "lon": -83.031282, "tags": {"addr:city": "Lim\u00f3n", "addr:street": "Avenida 5 - Dr. Benjam\u00edn de C\u00e9spedes", "amenity": "bank", "atm": "yes", "name": "Bancr\u00e9dito", "source": "KG Ground Survey 2015"}}, {"type": "node", "id": 3976549234, "lat": 9.995219, "lon": -83.0308885}, {"type": "node", "id": 3976549235, "lat": 9.9953641, "lon": -83.0309327}, {"type": "node", "id": 3976549236, "lat": 9.9954228, "lon": -83.0307268}, {"type": "node", "id": 3976549237, "lat": 9.9952803, "lon": -83.0306835}, {"type": "node", "id": 3976636845, "lat": 9.9936568, "lon": -83.0293536}, {"type": "node", "id": 3976636846, "lat": 9.9937153, "lon": -83.0291739}, {"type": "node", "id": 3976636847, "lat": 9.9936059, "lon": -83.0291372}, {"type": "node", "id": 3976636848, "lat": 9.9935405, "lon": -83.029338}, {"type": "node", "id": 3976653394, "lat": 9.9936043, "lon": -83.0273115}, {"type": "node", "id": 3976653395, "lat": 9.9936918, "lon": -83.0273364}, {"type": "node", "id": 3976653396, "lat": 9.99372, "lon": -83.0272343}, {"type": "node", "id": 3976653397, "lat": 9.9937626, "lon": -83.0272465}, {"type": "node", "id": 3976653398, "lat": 9.993788, "lon": -83.0271547}, {"type": "node", "id": 3976653399, "lat": 9.9936284, "lon": -83.0271092}, {"type": "node", "id": 3976653400, "lat": 9.9935878, "lon": -83.0272557}, {"type": "node", "id": 3976653401, "lat": 9.9935907, "lon": -83.0272873}, {"type": "node", "id": 3976913055, "lat": 9.9922103, "lon": -83.0280688}, {"type": "node", "id": 3976913056, "lat": 9.9921938, "lon": -83.0280289}, {"type": "node", "id": 3976918957, "lat": 9.9918016, "lon": -83.0279102}, {"type": "node", "id": 3976918958, "lat": 9.9916805, "lon": -83.0283216}, {"type": "node", "id": 3976918959, "lat": 9.9921029, "lon": -83.0284524}, {"type": "node", "id": 3977037185, "lat": 9.9966916, "lon": -83.0438191, "tags": {"addr:city": "Lim\u00f3n", "amenity": "bank", "name": "Banco Popular", "source": "KG Ground Survey 2015"}}, {"type": "node", "id": 4684678949, "lat": 9.9935759, "lon": -83.0293499}, {"type": "node", "id": 4684678950, "lat": 9.9935828, "lon": -83.0293287}, {"type": "node", "id": 6841846112, "lat": 9.9941155, "lon": -83.0282462, "tags": {"addr:city": "Lim\u00f3n", "addr:street": "Avenida Lucas Daniel Alvarado", "amenity": "bank", "atm": "yes", "name": "Banco Davivienda"}}, {"type": "node", "id": 6841990579, "lat": 9.9937864, "lon": -83.0256275, "tags": {"addr:city": "Lim\u00f3n", "addr:street": "Paseo Juan Santamar\u00eda", "amenity": "bank", "name": "Banco Improsa"}}, {"type": "way", "id": 394126746, "nodes": [3971508466, 3971508467, 3971508468, 3971508469, 3971508466], "tags": {"addr:city": "Carrand\u00ed", "addr:street": "Carretera Jos\u00e9 Joaqu\u00edn Trejos Fern\u00e1ndez", "amenity": "bank", "atm": "yes", "brand": "BCR", "brand:wikidata": "Q6951632", "brand:wikipedia": "es:Banco de Costa Rica", "building": "yes", "name": "Banco de Costa Rica", "official_name": "Banco de Costa Rica", "official_name:en": "Bank of Costa Rica", "official_name:es": "Banco de Costa Rica", "source": "KG Ground Survey 2015"}}, {"type": "way", "id": 394140778, "nodes": [3971632427, 3971632428, 3971632429, 3971632430, 3971632431, 3971632432, 3971632433, 3971632434, 3971632435, 3971632436, 3971632427], "tags": {"addr:city": "Lim\u00f3n", "addr:street": "Avenida 1", "amenity": "bank", "atm": "yes", "building": "yes", "name": "Banco Popular", "opening_hours": "Mo-Fr 08:45-16:30; Sa 08:15-11:30", "phone": "2798-0242 / 2798-1474 / 2798-0931", "source": "KG Ground Survey 2015"}}, {"type": "way", "id": 394668204, "nodes": [3976385143, 3976385144, 3976385145, 3976385146, 3976385143], "tags": {"addr:city": "Lim\u00f3n", "addr:street": "Calle 4 - Manuel Brenes", "amenity": "bank", "atm": "yes", "building": "yes", "name": "Coope Ande", "source": "KG Ground Survey 2015"}}, {"type": "way", "id": 394676509, "nodes": [3976472850, 3976472851, 3976472852, 3976472853, 3976472854, 3976472855, 3976472850], "tags": {"addr:city": "Lim\u00f3n", "amenity": "bank", "atm": "yes", "building": "yes", "name": "MUCAP", "source": "KG Ground Survey 2015"}}, {"type": "way", "id": 394688254, "nodes": [3976549234, 3976549235, 3976549236, 3976549237, 3976549234], "tags": {"addr:city": "Lim\u00f3n", "addr:street": "Calle 5", "amenity": "bank", "building": "yes", "name": "Coopemep", "source": "KG Ground Survey 2015"}}, {"type": "way", "id": 394696783, "nodes": [3976636845, 3976636846, 3976636847, 3976636848, 4684678949, 4684678950, 3976636845], "tags": {"addr:city": "Lim\u00f3n", "addr:street": "Calle 4 - Manuel Brenes", "amenity": "bank", "atm": "yes", "building": "yes", "name": "Grupo Mutual"}}, {"type": "way", "id": 394699366, "nodes": [3976653394, 3976653395, 3976653396, 3976653397, 3976653398, 3976653399, 3976653400, 3976653401, 3976653394], "tags": {"addr:city": "Lim\u00f3n", "addr:street": "Avenida 3", "amenity": "bank", "area": "yes", "atm": "yes", "building": "yes", "name": "Scotiabank", "source": "KG Ground Survey 2015"}}, {"type": "way", "id": 394723463, "nodes": [3976913055, 3976913056, 3976918957, 3976918958, 3976918959, 3976913055], "tags": {"addr:city": "Lim\u00f3n", "addr:full": "Frente al Mercado Municipal de Lim\u00f3n", "addr:street": "Avenida \u00c1ngel Miguel Vel\u00e1zquez", "alt_name": "Banco Nacional de Costa Rica, Lim\u00f3n", "amenity": "bank", "atm": "yes", "brand": "Banco Nacional de Costa Rica", "brand:wikidata": "Q2917708", "brand:wikipedia": "es:Banco Nacional de Costa Rica", "building": "yes", "name": "Banco Nacional", "official_name": "Banco Nacional de Costa Rica", "opening_hours": "Mo-Fr 08:30-15:45; Sa 09:00-13:00", "phone": "2758-0094", "short_name": "BNCR", "source": "sitio web del banco"}}]}