{"version": 0.6, "generator": "Overpass API 0.7.57.1 74a55df1", "osm3s": {"timestamp_osm_base": "2021-12-08T18:04:54Z", "copyright": "The data included in this document is from www.openstreetmap.org. The data is made available under ODbL."}, "elements": [{"type": "node", "id": 1245017903, "lat": 11.0321135, "lon": -84.7164152, "tags": {"addr:city": "Los Chiles", "addr:street": "Avenida 1", "amenity": "bank", "atm": "yes", "brand": "Banco Nacional de Costa Rica", "brand:en": "National Bank of Costa Rica", "brand:es": "Banco Nacional de Costa Rica", "brand:wikidata": "Q2917708", "brand:wikipedia": "es:Banco Nacional de Costa Rica", "name": "Banco Nacional", "name:en": "National Bank", "name:es": "Banco Nacional", "official_name": "Banco Nacional de Costa Rica", "official_name:en": "National Bank of Costa Rica", "official_name:es": "Banco Nacional de Costa Rica", "short_name": "BNCR"}}, {"type": "node", "id": 1257710672, "lat": 10.8965599, "lon": -85.0167429, "tags": {"addr:city": "Upala", "addr:full": "Frente a las oficinas del I.C.E.", "addr:street": "Avenida 2", "amenity": "bank", "atm": "yes", "name": "Banco Popular", "opening_hours": "Mo-Fr 08:45-16:30; Sa 08:15-11:30", "phone": "2470-0132 / 2470-2351"}}, {"type": "node", "id": 1257740454, "lat": 10.8980443, "lon": -85.0170672, "tags": {"addr:city": "Upala", "addr:street": "Avenida 1", "amenity": "bank", "atm": "yes", "brand": "BCR", "brand:wikidata": "Q6951632", "brand:wikipedia": "es:Banco de Costa Rica", "name": "Banco de Costa Rica", "official_name": "Banco de Costa Rica"}}, {"type": "node", "id": 1257743065, "lat": 10.898225, "lon": -85.0168636, "tags": {"addr:city": "Upala", "amenity": "bank", "atm": "yes", "name": "Coopealianza"}}, {"type": "node", "id": 1257752122, "lat": 10.8972866, "lon": -85.0117238, "tags": {"addr:city": "Upala", "addr:street": "Avenida Francisco J. Orlich", "amenity": "bank", "atm": "yes", "brand": "Banco Nacional de Costa Rica", "brand:wikidata": "Q2917708", "brand:wikipedia": "es:Banco Nacional de Costa Rica", "name": "Banco Nacional", "official_name": "Banco Nacional de Costa Rica", "short_name": "BNCR"}}, {"type": "node", "id": 2371339514, "lat": 11.1228479, "lon": -84.7775333, "tags": {"amenity": "bank", "atm": "no", "name": "Banpro"}}, {"type": "node", "id": 3874159019, "lat": 10.8978867, "lon": -85.0152373, "tags": {"amenity": "bank", "name": "Western Union - Prides Casa Del Audio", "phone": "+506-25285904"}}, {"type": "node", "id": 3874159020, "lat": 10.8988263, "lon": -85.0156436, "tags": {"amenity": "bank", "name": "Western Union - Diistribuidora Tu y Yo", "phone": "+506-24700693"}}, {"type": "node", "id": 4690435189, "lat": 11.1223277, "lon": -84.7779554, "tags": {"addr:city": "San Carlos", "addr:street": "1a Calle Sur", "amenity": "bank", "name": "Banco Lafise"}}, {"type": "node", "id": 4830026622, "lat": 11.1262666, "lon": -84.7775659, "tags": {"amenity": "bank", "name": "BANPRO", "opening_hours": "Mo-Fr 08:30-16:30; Sa 08:00-12:00", "phone": "22559595", "website": "https://banpro.com.ni/"}}, {"type": "node", "id": 6043100417, "lat": 11.1267478, "lon": -84.7776006, "tags": {"amenity": "bank", "name": "Banpro"}}, {"type": "node", "id": 6217134369, "lat": 11.0319954, "lon": -84.7164861}, {"type": "node", "id": 6217134370, "lat": 11.032135, "lon": -84.7165733}, {"type": "node", "id": 6217134371, "lat": 11.0322519, "lon": -84.7163792}, {"type": "node", "id": 6217134372, "lat": 11.0322151, "lon": -84.7163561}, {"type": "node", "id": 6217134373, "lat": 11.032231, "lon": -84.7163297}, {"type": "node", "id": 6217134374, "lat": 11.0321333, "lon": -84.7162686}, {"type": "node", "id": 6217134375, "lat": 11.0321152, "lon": -84.7162986}, {"type": "node", "id": 6217134376, "lat": 11.0320875, "lon": -84.7162813}, {"type": "node", "id": 6217134377, "lat": 11.0320224, "lon": -84.7163894}, {"type": "node", "id": 6217134378, "lat": 11.0320451, "lon": -84.7164036}, {"type": "way", "id": 664237784, "nodes": [6217134369, 6217134370, 6217134371, 6217134372, 6217134373, 6217134374, 6217134375, 6217134376, 6217134377, 6217134378, 6217134369], "tags": {"amenity": "bank", "building": "yes"}}]}