{"version": 0.6, "generator": "Overpass API 0.7.57.1 74a55df1", "osm3s": {"timestamp_osm_base": "2021-12-08T18:07:54Z", "copyright": "The data included in this document is from www.openstreetmap.org. The data is made available under ODbL."}, "elements": [{"type": "node", "id": 272786295, "lat": 9.9012404, "lon": -83.9978345}, {"type": "node", "id": 272786296, "lat": 9.9010658, "lon": -83.9978258}, {"type": "node", "id": 272786297, "lat": 9.9010614, "lon": -83.9977429}, {"type": "node", "id": 281866308, "lat": 9.9178426, "lon": -84.0720726}, {"type": "node", "id": 344933160, "lat": 9.9352518, "lon": -84.0897118, "tags": {"addr:city": "San Jos\u00e9", "addr:street": "Paseo Col\u00f3n", "amenity": "bank", "atm": "yes", "branch": "Torre", "brand": "Scotiabank", "brand:wikidata": "Q451476", "brand:wikipedia": "en:Scotiabank", "name": "Scotiabank", "opening_hours": "Mo-Fr 09:00-18:00", "operator": "Scotiabank", "phone": "2287-8700"}}, {"type": "node", "id": 351959726, "lat": 9.9298688, "lon": -84.0797024}, {"type": "node", "id": 351959729, "lat": 9.9300542, "lon": -84.0796917}, {"type": "node", "id": 351959731, "lat": 9.9300427, "lon": -84.0794804}, {"type": "node", "id": 351959732, "lat": 9.9298514, "lon": -84.0795109}, {"type": "node", "id": 355079636, "lat": 9.932984, "lon": -84.0782445}, {"type": "node", "id": 355079640, "lat": 9.9329448, "lon": -84.0779138}, {"type": "node", "id": 355079641, "lat": 9.9322322, "lon": -84.0779957}, {"type": "node", "id": 355079644, "lat": 9.9322643, "lon": -84.078318}, {"type": "node", "id": 495486632, "lat": 9.9395878, "lon": -84.0556722}, {"type": "node", "id": 495486635, "lat": 9.9393671, "lon": -84.0556722}, {"type": "node", "id": 495486639, "lat": 9.9390918, "lon": -84.0556126}, {"type": "node", "id": 495486641, "lat": 9.9394845, "lon": -84.0552262}, {"type": "node", "id": 495486642, "lat": 9.9394663, "lon": -84.0552755}, {"type": "node", "id": 663124712, "lat": 9.9088428, "lon": -84.0069417, "tags": {"addr:city": "San Juan", "addr:street": "V\u00eda 251", "amenity": "bank", "atm": "yes", "name": "Banco Nacional", "source": "KG Ground Survey 2015"}}, {"type": "node", "id": 666608155, "lat": 9.9215647, "lon": -84.0434382, "tags": {"amenity": "bank", "name": "BNCR"}}, {"type": "node", "id": 666608156, "lat": 9.9216376, "lon": -84.0438678, "tags": {"amenity": "bank", "name": "BCR", "source": "KG Ground Survey 2015"}}, {"type": "node", "id": 666608165, "lat": 9.9181617, "lon": -84.0485666, "tags": {"addr:city": "Zapote", "addr:full": "Frente al Registro", "amenity": "bank", "name": "Promerica", "opening_hours": "Mo-Fr 08:00-18:00; Sa 10:00-17:00"}}, {"type": "node", "id": 666608181, "lat": 9.8952801, "lon": -84.0642811, "tags": {"amenity": "bank", "name": "Banco de Costa Rica", "operator": "Banco de Costa Rica", "source": "KG Ground Survey 2015"}}, {"type": "node", "id": 685692168, "lat": 9.8458125, "lon": -83.9372007, "tags": {"addr:city": "El Tejar", "addr:street": "Calle 36", "amenity": "bank", "atm": "yes", "brand": "Banco Nacional de Costa Rica", "brand:en": "National Bank of Costa Rica", "brand:es": "Banco Nacional de Costa Rica", "brand:wikidata": "Q2917708", "brand:wikipedia": "es:Banco Nacional de Costa Rica", "is_in": "El Tejar, El Guarco, Cartago, Costa Rica", "name": "Banco Nacional", "name:en": "National Bank", "name:es": "Banco Nacional", "official_name": "Banco Nacional de Costa Rica", "official_name:en": "National Bank of Costa Rica", "official_name:es": "Banco Nacional de Costa Rica", "short_name": "BNCR"}}, {"type": "node", "id": 698380732, "lat": 9.9095187, "lon": -84.0562586}, {"type": "node", "id": 698380733, "lat": 9.9094045, "lon": -84.0562464}, {"type": "node", "id": 698380734, "lat": 9.9093985, "lon": -84.0565188}, {"type": "node", "id": 698380735, "lat": 9.9095026, "lon": -84.0565208}, {"type": "node", "id": 727747754, "lat": 9.9125576, "lon": -84.0987285, "tags": {"addr:city": "San Jos\u00e9", "addr:street": "V\u00eda 110", "amenity": "bank", "name": "Banco de Costa Rica", "source": "KG Ground Survey 2015", "wheelchair": "yes"}}, {"type": "node", "id": 727748505, "lat": 9.9122509, "lon": -84.0990526, "tags": {"addr:city": "Hatillo", "amenity": "bank", "name": "BAC Credomatic", "wheelchair": "yes"}}, {"type": "node", "id": 765930227, "lat": 9.9363137, "lon": -84.0948628, "tags": {"amenity": "bank", "name": "Desyfin", "operator": "Financiera Cafsa"}}, {"type": "node", "id": 766164934, "lat": 9.8631899, "lon": -83.9207559}, {"type": "node", "id": 766164935, "lat": 9.8633612, "lon": -83.9207347}, {"type": "node", "id": 766164936, "lat": 9.8632816, "lon": -83.9204919}, {"type": "node", "id": 766164937, "lat": 9.8631599, "lon": -83.920507}, {"type": "node", "id": 778896238, "lat": 9.7912242, "lon": -84.0673207, "tags": {"addr:city": "Corralillo", "addr:street": "Ruta Nacional 304", "amenity": "bank", "atm": "yes", "brand": "Banco Nacional de Costa Rica", "brand:en": "National Bank of Costa Rica", "brand:es": "Banco Nacional de Costa Rica", "brand:wikidata": "Q2917708", "brand:wikipedia": "es:Banco Nacional de Costa Rica", "name": "Banco Nacional", "name:en": "National Bank", "name:es": "Banco Nacional", "official_name": "Banco Nacional de Costa Rica", "official_name:en": "National Bank of Costa Rica", "official_name:es": "Banco Nacional de Costa Rica", "operator": "Banco Nacional", "short_name": "BNCR"}}, {"type": "node", "id": 792692336, "lat": 9.934978, "lon": -84.0369186, "tags": {"amenity": "bank", "name": "Fundacion Costa Rica Canad\u00e1"}}, {"type": "node", "id": 810280914, "lat": 9.9169991, "lon": -84.0302912}, {"type": "node", "id": 810280916, "lat": 9.9166714, "lon": -84.0299479}, {"type": "node", "id": 810280917, "lat": 9.9175909, "lon": -84.0288964}, {"type": "node", "id": 810280918, "lat": 9.9179502, "lon": -84.0292183}, {"type": "node", "id": 810280919, "lat": 9.9178657, "lon": -84.0294436}, {"type": "node", "id": 810280920, "lat": 9.9174429, "lon": -84.029905}, {"type": "node", "id": 818992906, "lat": 9.9170481, "lon": -84.0324876}, {"type": "node", "id": 818992916, "lat": 9.9169348, "lon": -84.0318527}, {"type": "node", "id": 818992921, "lat": 9.9164347, "lon": -84.0319325}, {"type": "node", "id": 818992923, "lat": 9.9164765, "lon": -84.0321403}, {"type": "node", "id": 818992926, "lat": 9.9167666, "lon": -84.0323382}, {"type": "node", "id": 818992929, "lat": 9.9169423, "lon": -84.0325011}, {"type": "node", "id": 822467737, "lat": 9.9264794, "lon": -84.0401003, "tags": {"addr:city": "Curridabat", "addr:place": "Plaza Freses", "addr:street": "V\u00eda 2", "addr:suburb": "Curridabat", "alt_name": "Banco General de Costa Rica, Plaza Freses Curridabat", "amenity": "bank", "atm": "yes", "brand": "BW-Bank", "brand:en": "BW-Bank", "brand:es": "BW-Bank", "brand:wikidata": "Q27618271", "brand:wikipedia": "es:Banco General (Panam\u00e1)", "name": "Banco General", "name:en": "General Bank", "name:es": "Banco General", "opening_hours": "Mo-Fr 09:00-18:00; Sa 09:00-12:30", "phone": "(506) 2588-4610", "source": "sitio web del banco"}}, {"type": "node", "id": 830781612, "lat": 9.6539185, "lon": -83.971164, "tags": {"addr:city": "Santa Mar\u00eda", "addr:street": "Calle 2", "amenity": "bank", "atm": "yes", "name": "Banco Nacional"}}, {"type": "node", "id": 830789977, "lat": 9.685518, "lon": -84.0433324, "tags": {"addr:city": "San Pablo", "addr:street": "Avenida 3", "amenity": "bank", "atm": "yes", "name": "Banco Nacional", "source": "Bing Imagen"}}, {"type": "node", "id": 830795431, "lat": 9.7521807, "lon": -84.0537101, "tags": {"addr:city": "Frailes", "addr:street": "V\u00eda 222", "amenity": "bank", "atm": "yes", "brand": "Banco Nacional de Costa Rica", "brand:wikidata": "Q2917708", "brand:wikipedia": "es:Banco Nacional de Costa Rica", "name": "Banco Nacional", "official_name": "Banco Nacional de Costa Rica", "short_name": "BNCR"}}, {"type": "node", "id": 832263433, "lat": 9.7946473, "lon": -83.854261, "tags": {"addr:city": "Orosi", "amenity": "bank", "name": "B.N.C.R."}}, {"type": "node", "id": 844368734, "lat": 9.9376809, "lon": -84.1207165, "tags": {"amenity": "bank", "name": "Servivalores"}}, {"type": "node", "id": 896614422, "lat": 9.9190382, "lon": -84.0540377, "tags": {"addr:city": "San Jos\u00e9", "addr:street": "Avenida 34", "amenity": "bank", "atm": "yes", "name": "Banco de Costa Rica", "source": "KG Ground Survey 2015"}}, {"type": "node", "id": 917882459, "lat": 9.9319307, "lon": -84.0528824}, {"type": "node", "id": 917882460, "lat": 9.9320328, "lon": -84.0531891}, {"type": "node", "id": 917882461, "lat": 9.9324336, "lon": -84.0530505}, {"type": "node", "id": 917882462, "lat": 9.9323317, "lon": -84.0527447}, {"type": "node", "id": 973230322, "lat": 9.9327962, "lon": -84.054767}, {"type": "node", "id": 973230325, "lat": 9.9327681, "lon": -84.0545474}, {"type": "node", "id": 973230332, "lat": 9.9322771, "lon": -84.054614}, {"type": "node", "id": 973230333, "lat": 9.9322729, "lon": -84.0548478}, {"type": "node", "id": 974348880, "lat": 9.9179484, "lon": -84.0287675, "tags": {"amenity": "bank", "name": "Credomatic"}}, {"type": "node", "id": 1000542089, "lat": 9.9332468, "lon": -84.0789288}, {"type": "node", "id": 1000542090, "lat": 9.9334428, "lon": -84.0789139}, {"type": "node", "id": 1000543171, "lat": 9.9277352, "lon": -84.1335947, "tags": {"addr:city": "San Rafael", "amenity": "bank", "atm": "yes", "name": "BAC Credomatic"}}, {"type": "node", "id": 1000546475, "lat": 9.9016028, "lon": -83.9968778, "tags": {"addr:city": "San Diego", "amenity": "bank", "atm": "yes", "name": "BAC Credomatic", "opening_hours": "Mo-Fr 11:00-19:00, Sa,Su 13:00-18:00"}}, {"type": "node", "id": 1118686575, "lat": 9.937759, "lon": -84.1142114, "tags": {"amenity": "bank", "atm": "yes", "brand": "BCR", "brand:wikidata": "Q6951632", "brand:wikipedia": "es:Banco de Costa Rica", "name": "Banco de Costa Rica", "official_name": "Banco de Costa Rica", "official_name:en": "Bank of Costa Rica", "official_name:es": "Banco de Costa Rica", "opening_hours": "Mo-Sa 11:00-18:00", "operator": "Citi", "phone": "2290-1129 2290-0927", "source": "KG Ground Survey 2015"}}, {"type": "node", "id": 1244913651, "lat": 9.9389882, "lon": -84.1090506}, {"type": "node", "id": 1244913667, "lat": 9.9394393, "lon": -84.1086424}, {"type": "node", "id": 1244913686, "lat": 9.9388775, "lon": -84.1087231}, {"type": "node", "id": 1244913687, "lat": 9.9389896, "lon": -84.1086566}, {"type": "node", "id": 1244913691, "lat": 9.9394494, "lon": -84.1089741}, {"type": "node", "id": 1311990353, "lat": 9.8621902, "lon": -83.915112}, {"type": "node", "id": 1311990370, "lat": 9.8614787, "lon": -83.9154368}, {"type": "node", "id": 1311990388, "lat": 9.86124, "lon": -83.9147231}, {"type": "node", "id": 1311990402, "lat": 9.861782, "lon": -83.9152512}, {"type": "node", "id": 1311990409, "lat": 9.862141, "lon": -83.914613}, {"type": "node", "id": 1320666222, "lat": 9.8667532, "lon": -83.9301964}, {"type": "node", "id": 1320666469, "lat": 9.8667814, "lon": -83.9303977}, {"type": "node", "id": 1320666715, "lat": 9.8666197, "lon": -83.9302587}, {"type": "node", "id": 1320666762, "lat": 9.8666276, "lon": -83.9303765}, {"type": "node", "id": 1352167599, "lat": 9.8427774, "lon": -83.9186232, "tags": {"addr:city": "Aguacaliente", "addr:street": "V\u00eda 231", "amenity": "bank", "atm": "yes", "name": "Mucap"}}, {"type": "node", "id": 1383340979, "lat": 9.8652022, "lon": -83.9203118, "tags": {"addr:city": "Cartago", "amenity": "bank", "atm": "yes", "name": "Mucap", "website": "https://www.mucap.fi.cr/"}}, {"type": "node", "id": 1383340985, "lat": 9.8646598, "lon": -83.9144342, "tags": {"addr:city": "Cartago", "amenity": "bank", "atm": "yes", "name": "Coocique", "source": "KG Ground Survey 2015"}}, {"type": "node", "id": 1398203210, "lat": 9.7995406, "lon": -84.1621223, "tags": {"addr:city": "San Ignacio", "amenity": "bank", "atm": "yes", "name": "CoopeAlianza"}}, {"type": "node", "id": 1402568318, "lat": 9.9309765, "lon": -84.1025273, "tags": {"addr:city": "San Jos\u00e9", "amenity": "bank", "atm": "yes", "name": "Banco Nacional"}}, {"type": "node", "id": 1427263954, "lat": 9.9359491, "lon": -84.1328239}, {"type": "node", "id": 1427263957, "lat": 9.9362272, "lon": -84.1327387}, {"type": "node", "id": 1427417341, "lat": 9.9360206, "lon": -84.1330784}, {"type": "node", "id": 1437966187, "lat": 9.916645, "lon": -83.8076832, "tags": {"addr:city": "Pacayas", "addr:street": "Calle Central", "amenity": "bank", "atm": "yes", "name": "Banco Nacional"}}, {"type": "node", "id": 1441116459, "lat": 9.6599732, "lon": -84.0220625}, {"type": "node", "id": 1441116461, "lat": 9.6599476, "lon": -84.0218241}, {"type": "node", "id": 1441116462, "lat": 9.6601699, "lon": -84.0217927}, {"type": "node", "id": 1441116463, "lat": 9.6601931, "lon": -84.0220311}, {"type": "node", "id": 1441140283, "lat": 9.6599082, "lon": -84.0212026}, {"type": "node", "id": 1441140312, "lat": 9.6603936, "lon": -84.0205933}, {"type": "node", "id": 1441140314, "lat": 9.6604039, "lon": -84.0207396}, {"type": "node", "id": 1441140316, "lat": 9.6606053, "lon": -84.0205553}, {"type": "node", "id": 1441140317, "lat": 9.6606193, "lon": -84.0207192}, {"type": "node", "id": 1441634630, "lat": 9.6598925, "lon": -84.0210045}, {"type": "node", "id": 1441634656, "lat": 9.6601338, "lon": -84.0210005}, {"type": "node", "id": 1441634658, "lat": 9.6601427, "lon": -84.0211563}, {"type": "node", "id": 1520629358, "lat": 9.6600587, "lon": -84.0218116, "tags": {"amenity": "atm", "operator": "BNCR"}}, {"type": "node", "id": 1723400350, "lat": 9.7964515, "lon": -84.1298755, "tags": {"amenity": "bank", "name": "Coope Acosta Jorco"}}, {"type": "node", "id": 1797789385, "lat": 9.9318491, "lon": -84.0670351}, {"type": "node", "id": 1797789386, "lat": 9.9320169, "lon": -84.067031}, {"type": "node", "id": 1797789388, "lat": 9.9318312, "lon": -84.0672003}, {"type": "node", "id": 1832571477, "lat": 9.9202474, "lon": -84.1409519, "tags": {"addr:city": "Escaz\u00fa", "addr:street": "Avenida 30", "amenity": "bank", "atm": "yes", "name": "Banco de Costa Rica"}}, {"type": "node", "id": 1832571749, "lat": 9.9195663, "lon": -84.1409014}, {"type": "node", "id": 1832571751, "lat": 9.9195802, "lon": -84.1411065}, {"type": "node", "id": 1832571764, "lat": 9.9198823, "lon": -84.1408792}, {"type": "node", "id": 1832571765, "lat": 9.9198021, "lon": -84.1410909}, {"type": "node", "id": 1832723678, "lat": 9.9356564, "lon": -84.1103696, "tags": {"addr:city": "San Jos\u00e9", "addr:street": "V\u00eda 104", "amenity": "bank", "atm": "yes", "name": "Banco de Costa Rica"}}, {"type": "node", "id": 1834516964, "lat": 9.8395683, "lon": -83.8663587, "tags": {"addr:city": "Para\u00edso", "amenity": "bank", "name": "B.C.A.C.", "operator": "Bancr\u00e9dito"}}, {"type": "node", "id": 1834517338, "lat": 9.8388506, "lon": -83.8666427}, {"type": "node", "id": 1834517340, "lat": 9.8388232, "lon": -83.8669246}, {"type": "node", "id": 1834517345, "lat": 9.8388486, "lon": -83.8666183}, {"type": "node", "id": 1834517347, "lat": 9.8390018, "lon": -83.8666053}, {"type": "node", "id": 1834517351, "lat": 9.8389258, "lon": -83.8669159}, {"type": "node", "id": 1834517352, "lat": 9.8390203, "lon": -83.8668304}, {"type": "node", "id": 1834517358, "lat": 9.8389195, "lon": -83.866839}, {"type": "node", "id": 1835102937, "lat": 9.8683172, "lon": -83.9049819}, {"type": "node", "id": 1835102938, "lat": 9.8683546, "lon": -83.9049563}, {"type": "node", "id": 1835102939, "lat": 9.8683072, "lon": -83.9048539}, {"type": "node", "id": 1835102942, "lat": 9.8684277, "lon": -83.9048442}, {"type": "node", "id": 1835102943, "lat": 9.8684378, "lon": -83.9049728}, {"type": "node", "id": 1887468725, "lat": 9.934995, "lon": -84.0559646, "tags": {"source": "KG Ground Survey 2015"}}, {"type": "node", "id": 1887468728, "lat": 9.9348683, "lon": -84.0560375, "tags": {"source": "KG Ground Survey 2015"}}, {"type": "node", "id": 1887468736, "lat": 9.9347894, "lon": -84.0558514, "tags": {"source": "KG Ground Survey 2015"}}, {"type": "node", "id": 1887468737, "lat": 9.9349527, "lon": -84.0558119, "tags": {"source": "KG Ground Survey 2015"}}, {"type": "node", "id": 1893967623, "lat": 9.9149424, "lon": -83.8928465, "tags": {"addr:city": "Tierra Blanca", "amenity": "bank", "atm": "yes", "name": "Bancr\u00e9dito", "opening_hours": "08:00-17:00"}}, {"type": "node", "id": 1901692945, "lat": 9.9324099, "lon": -84.0496952}, {"type": "node", "id": 1901692946, "lat": 9.9321392, "lon": -84.0494677}, {"type": "node", "id": 1901692948, "lat": 9.9323898, "lon": -84.0494468}, {"type": "node", "id": 1901692949, "lat": 9.9321593, "lon": -84.0497161}, {"type": "node", "id": 1901698764, "lat": 9.9320608, "lon": -84.0487792, "tags": {"amenity": "bank", "atm": "yes", "name": "Banco de Costa Rica"}}, {"type": "node", "id": 1968518551, "lat": 9.9358361, "lon": -84.097058}, {"type": "node", "id": 1968518552, "lat": 9.9361643, "lon": -84.0967485}, {"type": "node", "id": 1968518553, "lat": 9.9358081, "lon": -84.0967816}, {"type": "node", "id": 1968518554, "lat": 9.9361825, "lon": -84.0970113}, {"type": "node", "id": 1985745829, "lat": 9.9399075, "lon": -84.0514947}, {"type": "node", "id": 1985745835, "lat": 9.9397577, "lon": -84.0517838}, {"type": "node", "id": 1985745837, "lat": 9.9396506, "lon": -84.0517813}, {"type": "node", "id": 1985745842, "lat": 9.939586, "lon": -84.051439}, {"type": "node", "id": 1990163659, "lat": 9.9372916, "lon": -84.1140552, "tags": {"addr:city": "Rohrmoser", "amenity": "bank", "name": "Promerica", "source": "KG Ground Survey 2015"}}, {"type": "node", "id": 1990163662, "lat": 9.93812, "lon": -84.1148647, "tags": {"addr:city": "San Jos\u00e9", "addr:street": "V\u00eda 104", "amenity": "bank", "atm": "yes", "name": "Banco Lafise", "note": "Contiguo a la bomba Shell", "opening_hours": "Mo-Fr 09:00-18:00; Sa 09:00-12:00", "phone": "+506 22462380"}}, {"type": "node", "id": 2087689230, "lat": 9.9166826, "lon": -84.0322474}, {"type": "node", "id": 2087689233, "lat": 9.9165208, "lon": -84.0321353}, {"type": "node", "id": 2087689235, "lat": 9.9166087, "lon": -84.0322077}, {"type": "node", "id": 2087689237, "lat": 9.9166015, "lon": -84.0321638}, {"type": "node", "id": 2087689239, "lat": 9.9166736, "lon": -84.0322001}, {"type": "node", "id": 2087689240, "lat": 9.916916, "lon": -84.0323224}, {"type": "node", "id": 2087689242, "lat": 9.9167533, "lon": -84.0322384}, {"type": "node", "id": 2087689244, "lat": 9.9165266, "lon": -84.032171}, {"type": "node", "id": 2180109549, "lat": 9.9237472, "lon": -84.0388463}, {"type": "node", "id": 2180109553, "lat": 9.9238623, "lon": -84.0386928}, {"type": "node", "id": 2180109557, "lat": 9.9239779, "lon": -84.0387822}, {"type": "node", "id": 2180109561, "lat": 9.9238606, "lon": -84.0389359}, {"type": "node", "id": 2195984302, "lat": 9.9286326, "lon": -84.0799244}, {"type": "node", "id": 2195984303, "lat": 9.928881, "lon": -84.0800175}, {"type": "node", "id": 2195984304, "lat": 9.9286366, "lon": -84.0800274}, {"type": "node", "id": 2195984305, "lat": 9.9288769, "lon": -84.0799145}, {"type": "node", "id": 2196776927, "lat": 9.9331803, "lon": -84.0762944}, {"type": "node", "id": 2196776928, "lat": 9.9331991, "lon": -84.0765059}, {"type": "node", "id": 2196776942, "lat": 9.9333443, "lon": -84.0764902}, {"type": "node", "id": 2196776943, "lat": 9.9333211, "lon": -84.0762794}, {"type": "node", "id": 2266203716, "lat": 9.901591, "lon": -83.9974112, "tags": {"addr:city": "San Diego", "addr:full": "Local # C-102, Tercer Piso", "addr:housename": "Terramall", "amenity": "bank", "atm": "yes", "name": "Banco de Costa Rica", "opening_hours": "Mo-Fr 11:00-18:00", "phone": "2278-1512 2278-1012"}}, {"type": "node", "id": 2267787429, "lat": 9.9325645, "lon": -84.0487703, "tags": {"addr:city": "San Pedro", "addr:full": "Centro Comercial de la Calle Real.", "addr:street": "V\u00eda 2", "alt_name": "Banco Davivienda, San pedro", "amenity": "bank", "atm": "no", "name": "Banco Davivienda", "opening_hours": "Mo-Fr 09:00-17:00; Sa 09:00-12:30", "phone": "2253-6352", "source": "sitio web del banco"}}, {"type": "node", "id": 2267824787, "lat": 9.9273525, "lon": -84.1335298, "tags": {"addr:full": "San Rafael de Escaz\u00fa, Plaza Atlantis. Local 2-14. Del cruce de San Rafael, 150 mts sur.", "alt_name": "Banco Bansol, Escaz\u00fa Plaza Atlantis local 2-14", "amenity": "bank", "atm": "yes", "name": "Banco Bansol", "opening_hours": "Mo-Fr 09:00-18:00; Sa 09:00-13:00", "phone": "(506) 2528-1800 | 2528-1825", "source": "sitio web del banco"}}, {"type": "node", "id": 2270251040, "lat": 9.9264102, "lon": -84.040187, "tags": {"addr:city": "Curridabat", "addr:place": "Centro Comercial Plaza Freses", "addr:street": "V\u00eda 2", "addr:suburb": "Curridabat", "alt_name": "Banco Improsa", "amenity": "bank", "atm": "yes", "name": "Banco Improsa", "opening_hours": "Mo-Fr 09:00-18:00", "phone": "2253-9339", "source": "sitio web del banco", "wheelchair": "yes"}}, {"type": "node", "id": 2312201374, "lat": 9.9393418, "lon": -84.1211843}, {"type": "node", "id": 2312201492, "lat": 9.9406949, "lon": -84.1213729}, {"type": "node", "id": 2312201494, "lat": 9.9407334, "lon": -84.1214634}, {"type": "node", "id": 2334047996, "lat": 9.8988037, "lon": -84.0682326}, {"type": "node", "id": 2334047997, "lat": 9.8987052, "lon": -84.0683158}, {"type": "node", "id": 2334047998, "lat": 9.8989272, "lon": -84.0686025}, {"type": "node", "id": 2334047999, "lat": 9.8989779, "lon": -84.0685552}, {"type": "node", "id": 2336388643, "lat": 9.9010084, "lon": -83.9976868}, {"type": "node", "id": 2336388651, "lat": 9.9011332, "lon": -83.9975346}, {"type": "node", "id": 2336388654, "lat": 9.9011478, "lon": -83.9976555}, {"type": "node", "id": 2336388657, "lat": 9.901157, "lon": -83.9975572}, {"type": "node", "id": 2336388663, "lat": 9.9011938, "lon": -83.9975919}, {"type": "node", "id": 2336388668, "lat": 9.9012188, "lon": -83.9977043}, {"type": "node", "id": 2336388674, "lat": 9.9012415, "lon": -83.997857}, {"type": "node", "id": 2336388698, "lat": 9.9013505, "lon": -83.9978485}, {"type": "node", "id": 2336388700, "lat": 9.9013546, "lon": -83.9977297}, {"type": "node", "id": 2336388702, "lat": 9.9013818, "lon": -83.997787}, {"type": "node", "id": 2336725130, "lat": 9.9013541, "lon": -83.9973978}, {"type": "node", "id": 2336725139, "lat": 9.901402, "lon": -83.9973457}, {"type": "node", "id": 2336725170, "lat": 9.9015435, "lon": -83.9961779}, {"type": "node", "id": 2336729514, "lat": 9.9013991, "lon": -83.9972306}, {"type": "node", "id": 2336729516, "lat": 9.9014024, "lon": -83.9972908}, {"type": "node", "id": 2336729545, "lat": 9.9015438, "lon": -83.9973128}, {"type": "node", "id": 2336729546, "lat": 9.9015597, "lon": -83.9972443}, {"type": "node", "id": 2336729556, "lat": 9.9016129, "lon": -83.9976126}, {"type": "node", "id": 2336729576, "lat": 9.9016799, "lon": -83.9974727}, {"type": "node", "id": 2336729594, "lat": 9.9017747, "lon": -83.9976496}, {"type": "node", "id": 2336729604, "lat": 9.9018116, "lon": -83.9975154}, {"type": "node", "id": 2336729623, "lat": 9.9018734, "lon": -83.9976899}, {"type": "node", "id": 2336729635, "lat": 9.901927, "lon": -83.9975559}, {"type": "node", "id": 2336729687, "lat": 9.9023182, "lon": -83.9957885}, {"type": "node", "id": 2336729690, "lat": 9.9023314, "lon": -83.9957327}, {"type": "node", "id": 2336729691, "lat": 9.9023355, "lon": -83.995734}, {"type": "node", "id": 2336729694, "lat": 9.9023469, "lon": -83.9956553}, {"type": "node", "id": 2336729703, "lat": 9.9024268, "lon": -83.9958072}, {"type": "node", "id": 2336729704, "lat": 9.9024368, "lon": -83.9957552}, {"type": "node", "id": 2336729706, "lat": 9.9024518, "lon": -83.9956725}, {"type": "node", "id": 2338880382, "lat": 9.9176671, "lon": -84.0720367}, {"type": "node", "id": 2338880385, "lat": 9.9176768, "lon": -84.0719724}, {"type": "node", "id": 2338880396, "lat": 9.9177522, "lon": -84.0719875}, {"type": "node", "id": 2338880408, "lat": 9.9178486, "lon": -84.0720056}, {"type": "node", "id": 2342179797, "lat": 9.9010315, "lon": -83.9974446}, {"type": "node", "id": 2342180088, "lat": 9.9011071, "lon": -83.9973573}, {"type": "node", "id": 2342180188, "lat": 9.9011418, "lon": -83.9975536}, {"type": "node", "id": 2342180467, "lat": 9.901214, "lon": -83.9974629}, {"type": "node", "id": 2342181380, "lat": 9.9013325, "lon": -83.9974424}, {"type": "node", "id": 2342181668, "lat": 9.9013798, "lon": -83.9974809}, {"type": "node", "id": 2342182466, "lat": 9.9014395, "lon": -83.9974013}, {"type": "node", "id": 2342183547, "lat": 9.9015811, "lon": -83.9962835}, {"type": "node", "id": 2342183966, "lat": 9.9016316, "lon": -83.9962594}, {"type": "node", "id": 2342184048, "lat": 9.9016418, "lon": -83.9961545}, {"type": "node", "id": 2342184555, "lat": 9.9016822, "lon": -83.9962395}, {"type": "node", "id": 2342188937, "lat": 9.9026112, "lon": -83.9962452}, {"type": "node", "id": 2342189019, "lat": 9.9026562, "lon": -83.9959755}, {"type": "node", "id": 2342189284, "lat": 9.9027829, "lon": -83.9962701}, {"type": "node", "id": 2342189390, "lat": 9.9028278, "lon": -83.996017}, {"type": "node", "id": 2343902633, "lat": 9.8666142, "lon": -83.9418108}, {"type": "node", "id": 2343902666, "lat": 9.8667551, "lon": -83.9416417}, {"type": "node", "id": 2343902667, "lat": 9.8667589, "lon": -83.9419265}, {"type": "node", "id": 2343902685, "lat": 9.8668461, "lon": -83.9415688}, {"type": "node", "id": 2343902696, "lat": 9.8668794, "lon": -83.9417952}, {"type": "node", "id": 2343902720, "lat": 9.8669447, "lon": -83.9417574}, {"type": "node", "id": 2343902746, "lat": 9.8669687, "lon": -83.9421535}, {"type": "node", "id": 2343902750, "lat": 9.8669777, "lon": -83.942229}, {"type": "node", "id": 2343902867, "lat": 9.8671199, "lon": -83.9421366}, {"type": "node", "id": 2343902883, "lat": 9.8671481, "lon": -83.9422146}, {"type": "node", "id": 2343902928, "lat": 9.8672364, "lon": -83.9419611}, {"type": "node", "id": 2343902949, "lat": 9.8672518, "lon": -83.9420604}, {"type": "node", "id": 2343902979, "lat": 9.8672853, "lon": -83.9421938}, {"type": "node", "id": 2343903034, "lat": 9.8673787, "lon": -83.9420402}, {"type": "node", "id": 2343903043, "lat": 9.8673868, "lon": -83.9420558}, {"type": "node", "id": 2343903046, "lat": 9.8673886, "lon": -83.9420172}, {"type": "node", "id": 2343903054, "lat": 9.867404, "lon": -83.9421809}, {"type": "node", "id": 2343903105, "lat": 9.8674937, "lon": -83.9419298}, {"type": "node", "id": 2343903109, "lat": 9.8675019, "lon": -83.9419988}, {"type": "node", "id": 2346685627, "lat": 9.8989785, "lon": -84.0682306}, {"type": "node", "id": 2346685633, "lat": 9.8989887, "lon": -84.0677217}, {"type": "node", "id": 2346685646, "lat": 9.8990118, "lon": -84.0682954}, {"type": "node", "id": 2346685652, "lat": 9.8990189, "lon": -84.0677424}, {"type": "node", "id": 2346685665, "lat": 9.8990311, "lon": -84.0677556}, {"type": "node", "id": 2346685684, "lat": 9.8990419, "lon": -84.0677732}, {"type": "node", "id": 2346685686, "lat": 9.8990428, "lon": -84.0678098}, {"type": "node", "id": 2346685695, "lat": 9.8990464, "lon": -84.0677896}, {"type": "node", "id": 2346685712, "lat": 9.8990575, "lon": -84.0683591}, {"type": "node", "id": 2346685761, "lat": 9.89911, "lon": -84.0684193}, {"type": "node", "id": 2346685774, "lat": 9.8991251, "lon": -84.0677799}, {"type": "node", "id": 2346685776, "lat": 9.8991757, "lon": -84.0676104}, {"type": "node", "id": 2346685816, "lat": 9.8992353, "lon": -84.0677029}, {"type": "node", "id": 2346685825, "lat": 9.8992421, "lon": -84.0676985}, {"type": "node", "id": 2346685842, "lat": 9.8992957, "lon": -84.0675479}, {"type": "node", "id": 2346685879, "lat": 9.8993356, "lon": -84.0678773}, {"type": "node", "id": 2346685880, "lat": 9.8993365, "lon": -84.0678734}, {"type": "node", "id": 2346685882, "lat": 9.8993374, "lon": -84.0678817}, {"type": "node", "id": 2346685886, "lat": 9.8993391, "lon": -84.0678712}, {"type": "node", "id": 2346685888, "lat": 9.8993401, "lon": -84.0678841}, {"type": "node", "id": 2346685890, "lat": 9.8993432, "lon": -84.0678705}, {"type": "node", "id": 2346685892, "lat": 9.8993438, "lon": -84.0678839}, {"type": "node", "id": 2346685894, "lat": 9.8993463, "lon": -84.0678726}, {"type": "node", "id": 2346685896, "lat": 9.8993469, "lon": -84.0678818}, {"type": "node", "id": 2346685898, "lat": 9.899348, "lon": -84.067877}, {"type": "node", "id": 2346685907, "lat": 9.8993525, "lon": -84.0676359}, {"type": "node", "id": 2346685956, "lat": 9.899403, "lon": -84.0676063}, {"type": "node", "id": 2346685958, "lat": 9.8994032, "lon": -84.0677135}, {"type": "node", "id": 2346685960, "lat": 9.8994036, "lon": -84.0675002}, {"type": "node", "id": 2346685964, "lat": 9.899406, "lon": -84.067514}, {"type": "node", "id": 2346685967, "lat": 9.8994078, "lon": -84.0675328}, {"type": "node", "id": 2346685971, "lat": 9.8994083, "lon": -84.0675072}, {"type": "node", "id": 2346686001, "lat": 9.8994205, "lon": -84.0675606}, {"type": "node", "id": 2346686037, "lat": 9.8994373, "lon": -84.0675842}, {"type": "node", "id": 2346686050, "lat": 9.8994448, "lon": -84.0676581}, {"type": "node", "id": 2346686056, "lat": 9.8994483, "lon": -84.0675887}, {"type": "node", "id": 2346686090, "lat": 9.8994649, "lon": -84.0675946}, {"type": "node", "id": 2346686111, "lat": 9.8994717, "lon": -84.0675943}, {"type": "node", "id": 2346686146, "lat": 9.8994957, "lon": -84.0676232}, {"type": "node", "id": 2346795801, "lat": 9.8992944, "lon": -84.067664}, {"type": "node", "id": 2346795838, "lat": 9.8993596, "lon": -84.0677503}, {"type": "node", "id": 2354014528, "lat": 9.9396689, "lon": -84.1214301}, {"type": "node", "id": 2354014539, "lat": 9.9397027, "lon": -84.1214874}, {"type": "node", "id": 2354014572, "lat": 9.9393962, "lon": -84.121234}, {"type": "node", "id": 2354014601, "lat": 9.9394008, "lon": -84.1211443}, {"type": "node", "id": 2354014632, "lat": 9.9394415, "lon": -84.1211973}, {"type": "node", "id": 2354014706, "lat": 9.9396048, "lon": -84.1213216}, {"type": "node", "id": 2354014736, "lat": 9.9396573, "lon": -84.121296}, {"type": "node", "id": 2354014776, "lat": 9.9397333, "lon": -84.1215392}, {"type": "node", "id": 2354014835, "lat": 9.9397779, "lon": -84.1215166}, {"type": "node", "id": 2354015604, "lat": 9.9403107, "lon": -84.1216569}, {"type": "node", "id": 2354015737, "lat": 9.9403332, "lon": -84.121713}, {"type": "node", "id": 2354015799, "lat": 9.9403607, "lon": -84.1216329}, {"type": "node", "id": 2354015903, "lat": 9.9403829, "lon": -84.1216928}, {"type": "node", "id": 2354016004, "lat": 9.9405237, "lon": -84.121448}, {"type": "node", "id": 2354016045, "lat": 9.9404888, "lon": -84.1215708}, {"type": "node", "id": 2578568156, "lat": 9.8990017, "lon": -84.0677294}, {"type": "node", "id": 2578568157, "lat": 9.8990574, "lon": -84.0676806}, {"type": "node", "id": 2578568158, "lat": 9.8990592, "lon": -84.0678325}, {"type": "node", "id": 2697147531, "lat": 9.9341602, "lon": -84.0811614}, {"type": "node", "id": 2697147533, "lat": 9.9341244, "lon": -84.0808262}, {"type": "node", "id": 2697147535, "lat": 9.9335167, "lon": -84.0808816}, {"type": "node", "id": 2697147537, "lat": 9.9336065, "lon": -84.0816312}, {"type": "node", "id": 2697147539, "lat": 9.9338897, "lon": -84.0815954}, {"type": "node", "id": 2697147541, "lat": 9.9338332, "lon": -84.0811963}, {"type": "node", "id": 2697151218, "lat": 9.9348366, "lon": -84.079944}, {"type": "node", "id": 2697151219, "lat": 9.9342359, "lon": -84.0799908}, {"type": "node", "id": 2697151220, "lat": 9.9342701, "lon": -84.080444}, {"type": "node", "id": 2697151221, "lat": 9.9348708, "lon": -84.0803972}, {"type": "node", "id": 2698066669, "lat": 9.9357719, "lon": -84.0800944}, {"type": "node", "id": 2698066670, "lat": 9.9350614, "lon": -84.0801565}, {"type": "node", "id": 2698066671, "lat": 9.935102, "lon": -84.0806612}, {"type": "node", "id": 2698066672, "lat": 9.9358115, "lon": -84.0806052}, {"type": "node", "id": 2710938608, "lat": 9.9367997, "lon": -83.9060222, "tags": {"amenity": "bank", "atm": "yes", "drive_through": "no", "name": "Mucap"}}, {"type": "node", "id": 2824826110, "lat": 9.9193993, "lon": -84.1058797, "tags": {"amenity": "bank", "atm": "yes", "name": "Banco Nacional", "opening_hours": "06:00-22:00", "wheelchair": "yes"}}, {"type": "node", "id": 3172642291, "lat": 9.9315148, "lon": -84.0488578}, {"type": "node", "id": 3172642292, "lat": 9.9314708, "lon": -84.0486705}, {"type": "node", "id": 3172642293, "lat": 9.9317529, "lon": -84.0486022}, {"type": "node", "id": 3172642294, "lat": 9.9317969, "lon": -84.0487894}, {"type": "node", "id": 3262524861, "lat": 9.9367088, "lon": -84.0664305}, {"type": "node", "id": 3262524863, "lat": 9.9371118, "lon": -84.0658147}, {"type": "node", "id": 3262524864, "lat": 9.9368523, "lon": -84.0659161}, {"type": "node", "id": 3262524865, "lat": 9.9365674, "lon": -84.0663959}, {"type": "node", "id": 3313130542, "lat": 9.9373516, "lon": -84.0571351}, {"type": "node", "id": 3313130543, "lat": 9.9374774, "lon": -84.0574073}, {"type": "node", "id": 3473426285, "lat": 9.8998831, "lon": -84.0688683, "tags": {"addr:city": "Desamparados", "amenity": "bank", "atm": "no", "drive_through": "no", "name": "Instacredit", "phone": "+50622180202", "source": "KG Ground Survey 2015", "website": "https://www.instacredit.com/"}}, {"type": "node", "id": 3480659390, "lat": 9.9122446, "lon": -84.0619864}, {"type": "node", "id": 3480659391, "lat": 9.9120706, "lon": -84.0619905}, {"type": "node", "id": 3480659392, "lat": 9.9120706, "lon": -84.0618778}, {"type": "node", "id": 3480660393, "lat": 9.9122463, "lon": -84.061847}, {"type": "node", "id": 3483005034, "lat": 9.8987376, "lon": -84.0659965}, {"type": "node", "id": 3483005035, "lat": 9.8988677, "lon": -84.0659142}, {"type": "node", "id": 3483005036, "lat": 9.8987276, "lon": -84.0656861}, {"type": "node", "id": 3483005037, "lat": 9.8985975, "lon": -84.0657685}, {"type": "node", "id": 3483015936, "lat": 9.8996521, "lon": -84.0651944}, {"type": "node", "id": 3483015937, "lat": 9.8997934, "lon": -84.065459}, {"type": "node", "id": 3483015938, "lat": 9.8999793, "lon": -84.0653567}, {"type": "node", "id": 3483015939, "lat": 9.8999957, "lon": -84.0650053}, {"type": "node", "id": 3489298536, "lat": 9.9312295, "lon": -84.0475178}, {"type": "node", "id": 3489298537, "lat": 9.9311511, "lon": -84.0475664}, {"type": "node", "id": 3491339269, "lat": 9.9286278, "lon": -84.0429689, "tags": {"addr:city": "Curridabat", "addr:street": "V\u00eda 2", "amenity": "bank", "name": "Banco Promerica", "operator": "Promerica", "source": "KG Ground Survey 2015"}}, {"type": "node", "id": 3495572542, "lat": 9.9392962, "lon": -84.0552508}, {"type": "node", "id": 3508683657, "lat": 9.9405868, "lon": -84.1559496}, {"type": "node", "id": 3733669538, "lat": 9.9113455, "lon": -84.0598468}, {"type": "node", "id": 3733669539, "lat": 9.9112155, "lon": -84.0598712}, {"type": "node", "id": 3733669540, "lat": 9.911242, "lon": -84.0600163}, {"type": "node", "id": 3733669541, "lat": 9.9113719, "lon": -84.0599919}, {"type": "node", "id": 3734986877, "lat": 9.9354633, "lon": -84.0980355}, {"type": "node", "id": 3734986878, "lat": 9.9356834, "lon": -84.0980216}, {"type": "node", "id": 3734986879, "lat": 9.9356621, "lon": -84.0976966}, {"type": "node", "id": 3734986880, "lat": 9.9355407, "lon": -84.0977089}, {"type": "node", "id": 3734986881, "lat": 9.9355513, "lon": -84.0978614}, {"type": "node", "id": 3734986882, "lat": 9.9354482, "lon": -84.0978691}, {"type": "node", "id": 3735066402, "lat": 9.9390018, "lon": -84.1089397}, {"type": "node", "id": 3735086174, "lat": 9.9376358, "lon": -84.1134603}, {"type": "node", "id": 3735086175, "lat": 9.9377465, "lon": -84.1137026}, {"type": "node", "id": 3735086176, "lat": 9.9375505, "lon": -84.1137959}, {"type": "node", "id": 3735086177, "lat": 9.937449, "lon": -84.1135998}, {"type": "node", "id": 3735086178, "lat": 9.937471, "lon": -84.1135379}, {"type": "node", "id": 3735290387, "lat": 9.9299045, "lon": -84.0794816}, {"type": "node", "id": 3750858919, "lat": 9.923416, "lon": -84.0801069}, {"type": "node", "id": 3750858924, "lat": 9.9234271, "lon": -84.0795428}, {"type": "node", "id": 3750862325, "lat": 9.9236921, "lon": -84.079538}, {"type": "node", "id": 3750905484, "lat": 9.9291661, "lon": -84.0708417}, {"type": "node", "id": 3750905485, "lat": 9.9290578, "lon": -84.0708766}, {"type": "node", "id": 3750905487, "lat": 9.9288859, "lon": -84.0707286}, {"type": "node", "id": 3750905488, "lat": 9.9290729, "lon": -84.0705197}, {"type": "node", "id": 3750972041, "lat": 9.9348289, "lon": -84.0785899}, {"type": "node", "id": 3750982185, "lat": 9.9349068, "lon": -84.0795652}, {"type": "node", "id": 3750982186, "lat": 9.9346551, "lon": -84.079587}, {"type": "node", "id": 3750982188, "lat": 9.9348946, "lon": -84.0793828}, {"type": "node", "id": 3750982189, "lat": 9.934698, "lon": -84.0793976}, {"type": "node", "id": 3750982190, "lat": 9.9346909, "lon": -84.0793003}, {"type": "node", "id": 3750982191, "lat": 9.9344935, "lon": -84.0793174}, {"type": "node", "id": 3750982192, "lat": 9.9345171, "lon": -84.0795989}, {"type": "node", "id": 3750982193, "lat": 9.9348707, "lon": -84.0790565}, {"type": "node", "id": 3750982194, "lat": 9.9346742, "lon": -84.0790713}, {"type": "node", "id": 3750988215, "lat": 9.9349971, "lon": -84.0794187}, {"type": "node", "id": 3751025377, "lat": 9.9388852, "lon": -84.1086854}, {"type": "node", "id": 3760442887, "lat": 9.9234127, "lon": -84.0551032}, {"type": "node", "id": 3760442888, "lat": 9.9231788, "lon": -84.0552939}, {"type": "node", "id": 3760442889, "lat": 9.9230242, "lon": -84.0551946}, {"type": "node", "id": 3760442890, "lat": 9.9233308, "lon": -84.0549999}, {"type": "node", "id": 3815907158, "lat": 9.9353229, "lon": -84.0942903}, {"type": "node", "id": 3815907159, "lat": 9.9350203, "lon": -84.0943179}, {"type": "node", "id": 3815907160, "lat": 9.9351698, "lon": -84.0943877}, {"type": "node", "id": 3815907161, "lat": 9.9353296, "lon": -84.0943736}, {"type": "node", "id": 3815907162, "lat": 9.9350254, "lon": -84.0944016}, {"type": "node", "id": 3816275908, "lat": 9.9321261, "lon": -84.0481773}, {"type": "node", "id": 3816275909, "lat": 9.9320693, "lon": -84.0480619}, {"type": "node", "id": 3816275910, "lat": 9.9318773, "lon": -84.0481592}, {"type": "node", "id": 3816275911, "lat": 9.9319341, "lon": -84.0482746}, {"type": "node", "id": 3816371252, "lat": 9.9322328, "lon": -84.04971}, {"type": "node", "id": 3816371256, "lat": 9.9321538, "lon": -84.0496487}, {"type": "node", "id": 3817392521, "lat": 9.9319773, "lon": -84.1807867}, {"type": "node", "id": 3817392522, "lat": 9.931998, "lon": -84.1809799}, {"type": "node", "id": 3817392523, "lat": 9.9316986, "lon": -84.181013}, {"type": "node", "id": 3817392524, "lat": 9.9316778, "lon": -84.1808198}, {"type": "node", "id": 3817447566, "lat": 9.9332652, "lon": -84.1821713}, {"type": "node", "id": 3817447567, "lat": 9.9331232, "lon": -84.1821855}, {"type": "node", "id": 3817447568, "lat": 9.9331031, "lon": -84.1819789}, {"type": "node", "id": 3817447569, "lat": 9.9332451, "lon": -84.1819646}, {"type": "node", "id": 3817472707, "lat": 9.9330718, "lon": -84.0759005}, {"type": "node", "id": 3817474962, "lat": 9.9329924, "lon": -84.0760602}, {"type": "node", "id": 3817474963, "lat": 9.9328814, "lon": -84.0760757}, {"type": "node", "id": 3817474964, "lat": 9.9328704, "lon": -84.0759306}, {"type": "node", "id": 3817474965, "lat": 9.9332761, "lon": -84.075868}, {"type": "node", "id": 3817474966, "lat": 9.9332966, "lon": -84.0760138}, {"type": "node", "id": 3817545064, "lat": 9.9324494, "lon": -84.0747028, "tags": {"addr:city": "San Jos\u00e9", "addr:street": "Avenida 2", "amenity": "bank", "name": "Western Union", "source": "KG Ground Survey 2014"}}, {"type": "node", "id": 3817583063, "lat": 9.9320756, "lon": -84.0727267}, {"type": "node", "id": 3817583064, "lat": 9.9322451, "lon": -84.072725}, {"type": "node", "id": 3817583065, "lat": 9.9322314, "lon": -84.0725413}, {"type": "node", "id": 3817583066, "lat": 9.9320782, "lon": -84.072546}, {"type": "node", "id": 3817683490, "lat": 9.9322938, "lon": -84.0551027}, {"type": "node", "id": 3817683491, "lat": 9.9326371, "lon": -84.0550772}, {"type": "node", "id": 3817683492, "lat": 9.9326329, "lon": -84.0549583}, {"type": "node", "id": 3817790400, "lat": 9.9317177, "lon": -84.0490368}, {"type": "node", "id": 3817864046, "lat": 9.93279, "lon": -84.0686516, "tags": {"addr:city": "San Jos\u00e9", "addr:street": "Avenida Central", "amenity": "bank", "name": "Western Union", "source": "KG Ground Survey 2014"}}, {"type": "node", "id": 3817987331, "lat": 9.92944, "lon": -84.0423758}, {"type": "node", "id": 3817987332, "lat": 9.9291583, "lon": -84.0426992}, {"type": "node", "id": 3817987333, "lat": 9.9289538, "lon": -84.0425085}, {"type": "node", "id": 3817987334, "lat": 9.9293026, "lon": -84.042294}, {"type": "node", "id": 3818859683, "lat": 9.9153877, "lon": -84.034663, "tags": {"source": "KG Ground Survey 2015"}}, {"type": "node", "id": 3818859684, "lat": 9.9150006, "lon": -84.0346876, "tags": {"source": "KG Ground Survey 2015"}}, {"type": "node", "id": 3818859685, "lat": 9.9149629, "lon": -84.0342079, "tags": {"source": "KG Ground Survey 2015"}}, {"type": "node", "id": 3818859686, "lat": 9.91535, "lon": -84.0341775, "tags": {"source": "KG Ground Survey 2015"}}, {"type": "node", "id": 3818907662, "lat": 9.9312458, "lon": -84.0474478}, {"type": "node", "id": 3818907663, "lat": 9.9310717, "lon": -84.0475524}, {"type": "node", "id": 3818907664, "lat": 9.9310972, "lon": -84.047598}, {"type": "node", "id": 3819183195, "lat": 9.9186699, "lon": -84.0495042}, {"type": "node", "id": 3819183196, "lat": 9.9183545, "lon": -84.0495987}, {"type": "node", "id": 3827647560, "lat": 9.9309118, "lon": -84.0841687}, {"type": "node", "id": 3827647561, "lat": 9.9309123, "lon": -84.0842012}, {"type": "node", "id": 3827647562, "lat": 9.930885, "lon": -84.0842362}, {"type": "node", "id": 3827647563, "lat": 9.930848, "lon": -84.0842368}, {"type": "node", "id": 3827647564, "lat": 9.9308468, "lon": -84.0841698}, {"type": "node", "id": 3827740206, "lat": 9.9356507, "lon": -84.0976978}, {"type": "node", "id": 3828495131, "lat": 9.9386327, "lon": -84.077731}, {"type": "node", "id": 3828495138, "lat": 9.9386154, "lon": -84.0775628}, {"type": "node", "id": 3828495139, "lat": 9.9384535, "lon": -84.0775799}, {"type": "node", "id": 3828495140, "lat": 9.9384708, "lon": -84.0777482}, {"type": "node", "id": 3828618881, "lat": 9.9353017, "lon": -84.0783321}, {"type": "node", "id": 3828618883, "lat": 9.9349052, "lon": -84.0783618}, {"type": "node", "id": 3829333161, "lat": 9.9322692, "lon": -84.0789488}, {"type": "node", "id": 3829333162, "lat": 9.9320173, "lon": -84.0790057}, {"type": "node", "id": 3829333163, "lat": 9.9320241, "lon": -84.0791384}, {"type": "node", "id": 3829333164, "lat": 9.9322782, "lon": -84.0791251}, {"type": "node", "id": 3829350186, "lat": 9.9334524, "lon": -84.0790708}, {"type": "node", "id": 3829403762, "lat": 9.9344755, "lon": -84.0790836}, {"type": "node", "id": 3829403763, "lat": 9.9344801, "lon": -84.0791506}, {"type": "node", "id": 3829442209, "lat": 9.9352337, "lon": -84.0792945}, {"type": "node", "id": 3829442212, "lat": 9.9351345, "lon": -84.0792985}, {"type": "node", "id": 3829451310, "lat": 9.9352383, "lon": -84.0794088}, {"type": "node", "id": 3829494868, "lat": 9.9358249, "lon": -84.0792265}, {"type": "node", "id": 3829494869, "lat": 9.9358176, "lon": -84.07898}, {"type": "node", "id": 3829502457, "lat": 9.9360458, "lon": -84.0789731}, {"type": "node", "id": 3829502460, "lat": 9.9360531, "lon": -84.0792195}, {"type": "node", "id": 3829502461, "lat": 9.9362842, "lon": -84.0784821}, {"type": "node", "id": 3829502462, "lat": 9.9360532, "lon": -84.0784932}, {"type": "node", "id": 3829502463, "lat": 9.9360789, "lon": -84.0788822}, {"type": "node", "id": 3829502464, "lat": 9.9363112, "lon": -84.0788682}, {"type": "node", "id": 3834555819, "lat": 9.9406568, "lon": -84.1425484}, {"type": "node", "id": 3834555820, "lat": 9.9406118, "lon": -84.1424555}, {"type": "node", "id": 3834555821, "lat": 9.9407183, "lon": -84.1424024}, {"type": "node", "id": 3834555822, "lat": 9.9406603, "lon": -84.1422826}, {"type": "node", "id": 3834555823, "lat": 9.9405763, "lon": -84.1423246}, {"type": "node", "id": 3834555824, "lat": 9.9405313, "lon": -84.1422844}, {"type": "node", "id": 3834555825, "lat": 9.9403746, "lon": -84.1423626}, {"type": "node", "id": 3834555826, "lat": 9.9405021, "lon": -84.1426257}, {"type": "node", "id": 3834556374, "lat": 9.9360918, "lon": -84.1333316}, {"type": "node", "id": 3834556377, "lat": 9.9363699, "lon": -84.1332505}, {"type": "node", "id": 3834605857, "lat": 9.9393246, "lon": -84.0557359}, {"type": "node", "id": 3834605858, "lat": 9.9392942, "lon": -84.0552077}, {"type": "node", "id": 3834605859, "lat": 9.9393489, "lon": -84.0551995}, {"type": "node", "id": 3834605860, "lat": 9.939359, "lon": -84.0552323}, {"type": "node", "id": 3834605861, "lat": 9.9394076, "lon": -84.0552385}, {"type": "node", "id": 3834605862, "lat": 9.9394298, "lon": -84.0552056}, {"type": "node", "id": 3834663697, "lat": 9.9291701, "lon": -84.0707827}, {"type": "node", "id": 3834663698, "lat": 9.9291271, "lon": -84.070698}, {"type": "node", "id": 3834663699, "lat": 9.9291416, "lon": -84.0706605}, {"type": "node", "id": 3834663700, "lat": 9.9291284, "lon": -84.0705465}, {"type": "node", "id": 3835004773, "lat": 9.9342725, "lon": -84.0763396}, {"type": "node", "id": 3835004774, "lat": 9.9342249, "lon": -84.076073}, {"type": "node", "id": 3835004776, "lat": 9.9342797, "lon": -84.075965}, {"type": "node", "id": 3835004777, "lat": 9.9343159, "lon": -84.0761898}, {"type": "node", "id": 3835019250, "lat": 9.9343394, "lon": -84.0763233}, {"type": "node", "id": 3835124038, "lat": 9.9353139, "lon": -84.0784473}, {"type": "node", "id": 3835124039, "lat": 9.9349166, "lon": -84.0784837}, {"type": "node", "id": 3835129525, "lat": 9.9348396, "lon": -84.0787208}, {"type": "node", "id": 3835129526, "lat": 9.9347411, "lon": -84.0787289}, {"type": "node", "id": 3835129527, "lat": 9.9347295, "lon": -84.0785991}, {"type": "node", "id": 3835129536, "lat": 9.934766, "lon": -84.0787254}, {"type": "node", "id": 3835134900, "lat": 9.9349925, "lon": -84.079304}, {"type": "node", "id": 3835139098, "lat": 9.9350467, "lon": -84.0793017}, {"type": "node", "id": 3839523447, "lat": 9.8990195, "lon": -84.0662051}, {"type": "node", "id": 3839528764, "lat": 9.8990713, "lon": -84.0662983}, {"type": "node", "id": 3839528765, "lat": 9.8990473, "lon": -84.066312}, {"type": "node", "id": 3839528766, "lat": 9.8990706, "lon": -84.0663539}, {"type": "node", "id": 3839528767, "lat": 9.8989003, "lon": -84.0664515}, {"type": "node", "id": 3839528768, "lat": 9.8988469, "lon": -84.0663554}, {"type": "node", "id": 3839528769, "lat": 9.8988832, "lon": -84.0663346}, {"type": "node", "id": 3839528770, "lat": 9.8988616, "lon": -84.0662956}, {"type": "node", "id": 3839993119, "lat": 9.9235979, "lon": -84.0714834}, {"type": "node", "id": 3839993120, "lat": 9.9235551, "lon": -84.0712565}, {"type": "node", "id": 3839993121, "lat": 9.9234564, "lon": -84.0712481}, {"type": "node", "id": 3839993122, "lat": 9.9233116, "lon": -84.0713968}, {"type": "node", "id": 3839993123, "lat": 9.9234576, "lon": -84.0715438}, {"type": "node", "id": 3839993124, "lat": 9.923504, "lon": -84.0715522}, {"type": "node", "id": 3841281889, "lat": 9.9397283, "lon": -84.1175941}, {"type": "node", "id": 3841281890, "lat": 9.9396495, "lon": -84.1175213}, {"type": "node", "id": 3841281892, "lat": 9.9396423, "lon": -84.1173212}, {"type": "node", "id": 3841281893, "lat": 9.9394057, "lon": -84.1173357}, {"type": "node", "id": 3841281894, "lat": 9.9393448, "lon": -84.1174121}, {"type": "node", "id": 3841281895, "lat": 9.9393484, "lon": -84.1175941}, {"type": "node", "id": 3841281896, "lat": 9.9394057, "lon": -84.1176632}, {"type": "node", "id": 3841281897, "lat": 9.9396423, "lon": -84.117645}, {"type": "node", "id": 3841281898, "lat": 9.9397247, "lon": -84.1174303}, {"type": "node", "id": 3841646573, "lat": 9.9374454, "lon": -84.0871616}, {"type": "node", "id": 3841646574, "lat": 9.9373089, "lon": -84.0869272}, {"type": "node", "id": 3841646575, "lat": 9.9372959, "lon": -84.086775}, {"type": "node", "id": 3841646576, "lat": 9.9370866, "lon": -84.0869899}, {"type": "node", "id": 3841646577, "lat": 9.9372046, "lon": -84.0869814}, {"type": "node", "id": 3841646578, "lat": 9.9372169, "lon": -84.0871583}, {"type": "node", "id": 3841646579, "lat": 9.9372426, "lon": -84.087156}, {"type": "node", "id": 3841646580, "lat": 9.9372591, "lon": -84.0871822}, {"type": "node", "id": 3841646581, "lat": 9.9372897, "lon": -84.0871918}, {"type": "node", "id": 3841646582, "lat": 9.9373249, "lon": -84.087187}, {"type": "node", "id": 3841646583, "lat": 9.9373461, "lon": -84.0871703}, {"type": "node", "id": 3841883367, "lat": 9.9311397, "lon": -84.0843115}, {"type": "node", "id": 3841883368, "lat": 9.9311406, "lon": -84.0844194}, {"type": "node", "id": 3841883369, "lat": 9.9312489, "lon": -84.0844185}, {"type": "node", "id": 3841883370, "lat": 9.931248, "lon": -84.0843105}, {"type": "node", "id": 3843212327, "lat": 9.9233621, "lon": -84.0801027}, {"type": "node", "id": 3843212328, "lat": 9.9233136, "lon": -84.0799615}, {"type": "node", "id": 3843212329, "lat": 9.9233788, "lon": -84.0801667}, {"type": "node", "id": 3843212336, "lat": 9.9236892, "lon": -84.0794504}, {"type": "node", "id": 3843212337, "lat": 9.9236608, "lon": -84.0794263}, {"type": "node", "id": 3843212338, "lat": 9.9234201, "lon": -84.0794342}, {"type": "node", "id": 3843230675, "lat": 9.9239097, "lon": -84.07349}, {"type": "node", "id": 3843230676, "lat": 9.923862, "lon": -84.073097}, {"type": "node", "id": 3843230677, "lat": 9.9239079, "lon": -84.0730912}, {"type": "node", "id": 3843230678, "lat": 9.9239556, "lon": -84.0734842}, {"type": "node", "id": 3843818827, "lat": 9.937578, "lon": -84.1146419, "tags": {"addr:city": "San Jos\u00e9", "addr:street": "V\u00eda 104", "amenity": "bank", "name": "Coopenae", "source": "KG Ground Survey 2015", "website": "https://www.coopenae.fi.cr"}}, {"type": "node", "id": 3843840513, "lat": 9.9375998, "lon": -84.1139026}, {"type": "node", "id": 3843840514, "lat": 9.9378438, "lon": -84.1137865}, {"type": "node", "id": 3843840515, "lat": 9.9378053, "lon": -84.113674}, {"type": "node", "id": 3845643531, "lat": 9.9118922, "lon": -84.0991841, "tags": {"addr:city": "Hatillo", "addr:street": "Plaza America", "amenity": "bank", "name": "Grupo Mutual", "source": "KG Ground Survey 2015"}}, {"type": "node", "id": 3845785472, "lat": 9.905461, "lon": -84.1003651}, {"type": "node", "id": 3845785473, "lat": 9.9054115, "lon": -84.1005698}, {"type": "node", "id": 3845785474, "lat": 9.9053347, "lon": -84.1005507}, {"type": "node", "id": 3845785475, "lat": 9.9053842, "lon": -84.100346}, {"type": "node", "id": 3845785502, "lat": 9.9040879, "lon": -84.0999892}, {"type": "node", "id": 3845785503, "lat": 9.9038654, "lon": -84.0999407}, {"type": "node", "id": 3845785504, "lat": 9.9038201, "lon": -84.1001549}, {"type": "node", "id": 3845785505, "lat": 9.9040426, "lon": -84.1002035}, {"type": "node", "id": 3882665994, "lat": 9.8855895, "lon": -83.808483, "tags": {"amenity": "bank", "name": "Bancredito", "source": "KG Ground Survey 2015"}}, {"type": "node", "id": 3917602764, "lat": 9.9290908, "lon": -84.0708631}, {"type": "node", "id": 3917643760, "lat": 9.9372895, "lon": -84.0662255}, {"type": "node", "id": 3927914366, "lat": 9.856478, "lon": -83.9483432, "tags": {"source": "KG Ground Survey 2015"}}, {"type": "node", "id": 3927914367, "lat": 9.8564101, "lon": -83.9480145, "tags": {"source": "KG Ground Survey 2015"}}, {"type": "node", "id": 3927914368, "lat": 9.8562425, "lon": -83.9480502, "tags": {"source": "KG Ground Survey 2015"}}, {"type": "node", "id": 3927914369, "lat": 9.8563104, "lon": -83.9483789, "tags": {"source": "KG Ground Survey 2015"}}, {"type": "node", "id": 3929105790, "lat": 9.9317279, "lon": -84.1035735, "tags": {"addr:street": "Calle 54", "amenity": "bank", "atm": "yes", "name": "Banco de Costa Rica", "source": "KG Ground Survey 2015"}}, {"type": "node", "id": 3929487054, "lat": 9.9315961, "lon": -84.1819105}, {"type": "node", "id": 3929487055, "lat": 9.9313762, "lon": -84.1819289}, {"type": "node", "id": 3929487056, "lat": 9.9313588, "lon": -84.1817138}, {"type": "node", "id": 3929487657, "lat": 9.9315786, "lon": -84.1816954}, {"type": "node", "id": 3930869009, "lat": 9.8963647, "lon": -84.0851083, "tags": {"addr:city": "Concepci\u00f3n", "amenity": "bank", "name": "Banco de Costa Rica", "source": "KG Ground Survey 2015"}}, {"type": "node", "id": 3932504937, "lat": 9.9120878, "lon": -84.0618523}, {"type": "node", "id": 3932569824, "lat": 9.9098955, "lon": -84.0555873}, {"type": "node", "id": 3932569825, "lat": 9.9100249, "lon": -84.0555283}, {"type": "node", "id": 3932569826, "lat": 9.9098836, "lon": -84.0554894}, {"type": "node", "id": 3932569827, "lat": 9.9100025, "lon": -84.0554385}, {"type": "node", "id": 3934290681, "lat": 9.9398936, "lon": -84.0515923}, {"type": "node", "id": 3934290682, "lat": 9.9397711, "lon": -84.0516966}, {"type": "node", "id": 3934407306, "lat": 9.915688, "lon": -84.0340498}, {"type": "node", "id": 3934407307, "lat": 9.9155126, "lon": -84.0340616}, {"type": "node", "id": 3934407308, "lat": 9.9154992, "lon": -84.0338568}, {"type": "node", "id": 3934407309, "lat": 9.9156745, "lon": -84.033845}, {"type": "node", "id": 3934468789, "lat": 9.9239655, "lon": -84.0387989}, {"type": "node", "id": 3934576193, "lat": 9.9312713, "lon": -84.0474944}, {"type": "node", "id": 3934576199, "lat": 9.9316708, "lon": -84.049193}, {"type": "node", "id": 3934576201, "lat": 9.9318009, "lon": -84.049026}, {"type": "node", "id": 3934576202, "lat": 9.9318221, "lon": -84.0491867}, {"type": "node", "id": 3934576203, "lat": 9.9316265, "lon": -84.0491923}, {"type": "node", "id": 3934576204, "lat": 9.9316141, "lon": -84.0490539}, {"type": "node", "id": 3934624051, "lat": 9.9318478, "lon": -84.0670753}, {"type": "node", "id": 3934624052, "lat": 9.9318095, "lon": -84.0670766}, {"type": "node", "id": 3934624054, "lat": 9.9320261, "lon": -84.0671551}, {"type": "node", "id": 3934624055, "lat": 9.9320347, "lon": -84.067204}, {"type": "node", "id": 3945085818, "lat": 9.8998031, "lon": -84.0476758}, {"type": "node", "id": 3945085819, "lat": 9.8999834, "lon": -84.0477938}, {"type": "node", "id": 3945085821, "lat": 9.8998513, "lon": -84.0475964}, {"type": "node", "id": 3945085822, "lat": 9.9000378, "lon": -84.047713}, {"type": "node", "id": 3946290182, "lat": 9.8995523, "lon": -84.0591048}, {"type": "node", "id": 3946290183, "lat": 9.8997312, "lon": -84.059054}, {"type": "node", "id": 3946290185, "lat": 9.8995758, "lon": -84.0592029}, {"type": "node", "id": 3946290186, "lat": 9.8997211, "lon": -84.0592284}, {"type": "node", "id": 3946290187, "lat": 9.899766, "lon": -84.0592137}, {"type": "node", "id": 3946535903, "lat": 9.9244463, "lon": -84.0731128, "tags": {"addr:city": "San Jos\u00e9", "addr:street": "Avenida Estado de Israel", "amenity": "bank", "atm": "yes", "name": "Banco Popular", "source": "KG Ground Survey 2015"}}, {"type": "node", "id": 3946656933, "lat": 9.9371872, "lon": -84.077543}, {"type": "node", "id": 3946656934, "lat": 9.9370727, "lon": -84.0775693}, {"type": "node", "id": 3946656935, "lat": 9.9370331, "lon": -84.0773914}, {"type": "node", "id": 3946656936, "lat": 9.9371475, "lon": -84.0773651}, {"type": "node", "id": 3948263130, "lat": 9.9331242, "lon": -84.1282718}, {"type": "node", "id": 3948263131, "lat": 9.9330352, "lon": -84.1281057}, {"type": "node", "id": 3948263132, "lat": 9.932751, "lon": -84.128231}, {"type": "node", "id": 3948263133, "lat": 9.9328802, "lon": -84.1284176}, {"type": "node", "id": 3948263139, "lat": 9.9328271, "lon": -84.1281975}, {"type": "node", "id": 3948263141, "lat": 9.9331776, "lon": -84.1281346, "tags": {"addr:city": "San Rafael", "addr:street": "Calle Le\u00f3n Cort\u00e9s", "amenity": "bank", "name": "Banco Davivienda"}}, {"type": "node", "id": 3948263142, "lat": 9.9338043, "lon": -84.1278753, "tags": {"addr:city": "San Rafael", "addr:street": "Calle 112", "amenity": "bank", "atm": "yes", "name": "Scotiabank", "source": "KG Ground Survey 2015"}}, {"type": "node", "id": 3948284522, "lat": 9.9310052, "lon": -84.1310096, "tags": {"addr:city": "San Rafael de Escaz\u00fa", "amenity": "bank", "name": "Citibank", "source": "KG Ground Survey 2015"}}, {"type": "node", "id": 3948815740, "lat": 9.9306758, "lon": -84.139928}, {"type": "node", "id": 3948815741, "lat": 9.9304403, "lon": -84.1398185}, {"type": "node", "id": 3948815742, "lat": 9.9304535, "lon": -84.1400089}, {"type": "node", "id": 3948815743, "lat": 9.9306071, "lon": -84.1400804}, {"type": "node", "id": 3948874116, "lat": 9.9308544, "lon": -84.1498956}, {"type": "node", "id": 3948874117, "lat": 9.9311854, "lon": -84.1499444}, {"type": "node", "id": 3948874118, "lat": 9.9311964, "lon": -84.1498245}, {"type": "node", "id": 3948874119, "lat": 9.9311099, "lon": -84.1497674}, {"type": "node", "id": 3948874120, "lat": 9.9310893, "lon": -84.149798}, {"type": "node", "id": 3948874121, "lat": 9.9310385, "lon": -84.1497534}, {"type": "node", "id": 3948874122, "lat": 9.9310179, "lon": -84.1497841}, {"type": "node", "id": 3948874123, "lat": 9.9309657, "lon": -84.1497451}, {"type": "node", "id": 3948874124, "lat": 9.9309451, "lon": -84.1497757}, {"type": "node", "id": 3948874125, "lat": 9.9308929, "lon": -84.1497311}, {"type": "node", "id": 3948874126, "lat": 9.9308517, "lon": -84.1497841}, {"type": "node", "id": 3948961683, "lat": 9.9300158, "lon": -84.0705474}, {"type": "node", "id": 3948961684, "lat": 9.9300036, "lon": -84.0702957}, {"type": "node", "id": 3948961685, "lat": 9.9297336, "lon": -84.0703092}, {"type": "node", "id": 3948961686, "lat": 9.9297458, "lon": -84.070561}, {"type": "node", "id": 3948980462, "lat": 9.9406432, "lon": -84.1558928}, {"type": "node", "id": 3948980463, "lat": 9.9407614, "lon": -84.1560137}, {"type": "node", "id": 3948980464, "lat": 9.9405028, "lon": -84.1562745}, {"type": "node", "id": 3948980465, "lat": 9.9403846, "lon": -84.1561536}, {"type": "node", "id": 3957414926, "lat": 9.8649307, "lon": -83.9224008}, {"type": "node", "id": 3957414927, "lat": 9.8647354, "lon": -83.9224281}, {"type": "node", "id": 3957414928, "lat": 9.8646114, "lon": -83.9224454}, {"type": "node", "id": 3957414929, "lat": 9.8645667, "lon": -83.9221157}, {"type": "node", "id": 3957414930, "lat": 9.864886, "lon": -83.9220711}, {"type": "node", "id": 3957475617, "lat": 9.8641877, "lon": -83.9183052}, {"type": "node", "id": 3957475618, "lat": 9.8641736, "lon": -83.9181634}, {"type": "node", "id": 3957475619, "lat": 9.8639709, "lon": -83.9181842}, {"type": "node", "id": 3957475620, "lat": 9.8639851, "lon": -83.918326}, {"type": "node", "id": 3957475629, "lat": 9.8642661, "lon": -83.917536}, {"type": "node", "id": 3957475630, "lat": 9.8640799, "lon": -83.9175566}, {"type": "node", "id": 3957475631, "lat": 9.8640642, "lon": -83.9174104}, {"type": "node", "id": 3957475632, "lat": 9.8642514, "lon": -83.9173906}, {"type": "node", "id": 3957475635, "lat": 9.8641676, "lon": -83.9174007}, {"type": "node", "id": 3957475651, "lat": 9.8641497, "lon": -83.9169509}, {"type": "node", "id": 3957475652, "lat": 9.8641332, "lon": -83.916831}, {"type": "node", "id": 3957475653, "lat": 9.8639477, "lon": -83.9168573}, {"type": "node", "id": 3957475654, "lat": 9.8639642, "lon": -83.9169772}, {"type": "node", "id": 3957475671, "lat": 9.863979, "lon": -83.9155107}, {"type": "node", "id": 3957475672, "lat": 9.8639586, "lon": -83.9153692}, {"type": "node", "id": 3957475673, "lat": 9.8638753, "lon": -83.9153813}, {"type": "node", "id": 3957475674, "lat": 9.8638806, "lon": -83.9154235}, {"type": "node", "id": 3957475675, "lat": 9.8637003, "lon": -83.9154436}, {"type": "node", "id": 3957475676, "lat": 9.8636983, "lon": -83.915555}, {"type": "node", "id": 3958761038, "lat": 9.9091741, "lon": -83.985977}, {"type": "node", "id": 3958761039, "lat": 9.9091293, "lon": -83.9857573}, {"type": "node", "id": 3958761040, "lat": 9.9093838, "lon": -83.9857038}, {"type": "node", "id": 3958761041, "lat": 9.9094286, "lon": -83.9859235}, {"type": "node", "id": 3958761042, "lat": 9.9095174, "lon": -83.9864409}, {"type": "node", "id": 3958761043, "lat": 9.909485, "lon": -83.986272}, {"type": "node", "id": 3958761044, "lat": 9.9092749, "lon": -83.9863136}, {"type": "node", "id": 3958761045, "lat": 9.9093074, "lon": -83.9864825}, {"type": "node", "id": 3960345368, "lat": 9.864924, "lon": -83.9153101}, {"type": "node", "id": 3960345369, "lat": 9.8650535, "lon": -83.9152936}, {"type": "node", "id": 3960345370, "lat": 9.8650587, "lon": -83.9153352}, {"type": "node", "id": 3960345371, "lat": 9.8651593, "lon": -83.9153224}, {"type": "node", "id": 3960345372, "lat": 9.8651417, "lon": -83.9151804}, {"type": "node", "id": 3960345373, "lat": 9.8649563, "lon": -83.9152041}, {"type": "node", "id": 3960345374, "lat": 9.8649363, "lon": -83.9152152}, {"type": "node", "id": 3960345375, "lat": 9.8649208, "lon": -83.91523}, {"type": "node", "id": 3960345376, "lat": 9.8649162, "lon": -83.9152476}, {"type": "node", "id": 3960511011, "lat": 9.8659462, "lon": -83.9228968, "tags": {"name": "Parada Cartago-UCR", "public_transport": "platform"}}, {"type": "node", "id": 3960511013, "lat": 9.8660879, "lon": -83.9229154}, {"type": "node", "id": 3960511018, "lat": 9.8659912, "lon": -83.9230445}, {"type": "node", "id": 3960511019, "lat": 9.8661284, "lon": -83.9229101}, {"type": "node", "id": 3960511020, "lat": 9.8661429, "lon": -83.9230242}, {"type": "node", "id": 3960511022, "lat": 9.8661283, "lon": -83.9230531}, {"type": "node", "id": 3960511023, "lat": 9.8661244, "lon": -83.9230255}, {"type": "node", "id": 3960511024, "lat": 9.8660506, "lon": -83.923064}, {"type": "node", "id": 3960511025, "lat": 9.8660692, "lon": -83.923199}, {"type": "node", "id": 3960511026, "lat": 9.8661567, "lon": -83.9231881}, {"type": "node", "id": 3960511027, "lat": 9.8661381, "lon": -83.9230517}, {"type": "node", "id": 3960675601, "lat": 9.8630418, "lon": -83.9211813}, {"type": "node", "id": 3960675602, "lat": 9.8630303, "lon": -83.9210691}, {"type": "node", "id": 3960675603, "lat": 9.8628279, "lon": -83.9210906}, {"type": "node", "id": 3960675604, "lat": 9.8628404, "lon": -83.9212027}, {"type": "node", "id": 3966791681, "lat": 9.8909317, "lon": -84.0818651}, {"type": "node", "id": 3966791682, "lat": 9.8910512, "lon": -84.081867}, {"type": "node", "id": 3966791683, "lat": 9.8910421, "lon": -84.0819928}, {"type": "node", "id": 3966904328, "lat": 9.8411179, "lon": -83.8782236, "tags": {"amenity": "bank", "name": "Western Union", "source": "KG Ground Survey 2015"}}, {"type": "node", "id": 3966940867, "lat": 9.8393202, "lon": -83.8676303}, {"type": "node", "id": 3966940868, "lat": 9.8393139, "lon": -83.8675797}, {"type": "node", "id": 3966940869, "lat": 9.8392989, "lon": -83.8675723}, {"type": "node", "id": 3966940870, "lat": 9.8390688, "lon": -83.8676005}, {"type": "node", "id": 3966940871, "lat": 9.8390792, "lon": -83.8676607}, {"type": "node", "id": 3966940895, "lat": 9.8392167, "lon": -83.8667101}, {"type": "node", "id": 3966940896, "lat": 9.8390275, "lon": -83.8667301}, {"type": "node", "id": 3966940898, "lat": 9.8392115, "lon": -83.8666597}, {"type": "node", "id": 3966940899, "lat": 9.8390223, "lon": -83.8666797}, {"type": "node", "id": 3966940903, "lat": 9.8391243, "lon": -83.8666682}, {"type": "node", "id": 3966944567, "lat": 9.8387971, "lon": -83.8666473}, {"type": "node", "id": 3966944568, "lat": 9.8388097, "lon": -83.8667993}, {"type": "node", "id": 3966944569, "lat": 9.8388332, "lon": -83.8667973}, {"type": "node", "id": 3966944570, "lat": 9.8388361, "lon": -83.8668321}, {"type": "node", "id": 3966944571, "lat": 9.8388158, "lon": -83.8668338}, {"type": "node", "id": 3967441793, "lat": 9.8909549, "lon": -84.081284}, {"type": "node", "id": 3967527425, "lat": 9.8912918, "lon": -84.0818144}, {"type": "node", "id": 3967527426, "lat": 9.8912912, "lon": -84.0817863}, {"type": "node", "id": 3967527427, "lat": 9.891272, "lon": -84.0817896}, {"type": "node", "id": 3967527428, "lat": 9.8912727, "lon": -84.0818138}, {"type": "node", "id": 3967527431, "lat": 9.8909226, "lon": -84.0819868}, {"type": "node", "id": 3968679946, "lat": 9.9071378, "lon": -83.9861594}, {"type": "node", "id": 3968900725, "lat": 9.9090148, "lon": -84.0032485, "tags": {"addr:city": "San Juan", "addr:street": "V\u00eda 251", "amenity": "bank", "atm": "yes", "description": "Banco BAC", "name": "BAC Credomatic", "opening_hours": "Mo-Fr 11:00-19:00; Sa, Su 13:00-18:00", "source": "KG Ground Survey 2015", "wheelchair": "yes"}}, {"type": "node", "id": 3969557896, "lat": 9.9370907, "lon": -84.0572455}, {"type": "node", "id": 3969557897, "lat": 9.9368773, "lon": -84.0573524}, {"type": "node", "id": 3969557898, "lat": 9.9369339, "lon": -84.0576041}, {"type": "node", "id": 3969557899, "lat": 9.9371969, "lon": -84.0575223}, {"type": "node", "id": 3971974732, "lat": 9.8647306, "lon": -83.9167737}, {"type": "node", "id": 3971974733, "lat": 9.8644673, "lon": -83.9168099}, {"type": "node", "id": 3971974734, "lat": 9.8644841, "lon": -83.9167546}, {"type": "node", "id": 3971974735, "lat": 9.8644779, "lon": -83.9167086}, {"type": "node", "id": 3971974736, "lat": 9.8645055, "lon": -83.9167048}, {"type": "node", "id": 3971974737, "lat": 9.8644953, "lon": -83.9166288}, {"type": "node", "id": 3971974738, "lat": 9.8645047, "lon": -83.9166275}, {"type": "node", "id": 3971974739, "lat": 9.8645008, "lon": -83.9165979}, {"type": "node", "id": 3971974740, "lat": 9.8645631, "lon": -83.9165893}, {"type": "node", "id": 3971974741, "lat": 9.8645698, "lon": -83.9166397}, {"type": "node", "id": 3971974742, "lat": 9.8645426, "lon": -83.9166434}, {"type": "node", "id": 3971974743, "lat": 9.8645481, "lon": -83.9166842}, {"type": "node", "id": 3971974744, "lat": 9.8647156, "lon": -83.9166612}, {"type": "node", "id": 3971976389, "lat": 9.8648113, "lon": -83.9153721}, {"type": "node", "id": 3971976390, "lat": 9.8646901, "lon": -83.9153875}, {"type": "node", "id": 3971976394, "lat": 9.8648307, "lon": -83.9155291}, {"type": "node", "id": 3971976395, "lat": 9.8645125, "lon": -83.9155943}, {"type": "node", "id": 3971976396, "lat": 9.8645157, "lon": -83.9154097}, {"type": "node", "id": 3972174916, "lat": 9.8661564, "lon": -83.9251598}, {"type": "node", "id": 3972174917, "lat": 9.866077, "lon": -83.9251724}, {"type": "node", "id": 3972174918, "lat": 9.8659375, "lon": -83.9251376}, {"type": "node", "id": 3972174919, "lat": 9.8659243, "lon": -83.9250251}, {"type": "node", "id": 3972174920, "lat": 9.8659622, "lon": -83.9250205}, {"type": "node", "id": 3972174921, "lat": 9.8659577, "lon": -83.9249825}, {"type": "node", "id": 3972174922, "lat": 9.8660987, "lon": -83.9249654}, {"type": "node", "id": 3972174923, "lat": 9.8661007, "lon": -83.924983}, {"type": "node", "id": 3972174924, "lat": 9.8661233, "lon": -83.9249803}, {"type": "node", "id": 3972174925, "lat": 9.8661264, "lon": -83.9250065}, {"type": "node", "id": 3972174926, "lat": 9.8661382, "lon": -83.9250051}, {"type": "node", "id": 3972174930, "lat": 9.8661489, "lon": -83.9251607}, {"type": "node", "id": 3972301943, "lat": 9.8665696, "lon": -83.9302631}, {"type": "node", "id": 3972301944, "lat": 9.8666154, "lon": -83.9302086}, {"type": "node", "id": 3972301945, "lat": 9.8665797, "lon": -83.9303807}, {"type": "node", "id": 3972301946, "lat": 9.8666305, "lon": -83.930411}, {"type": "node", "id": 3972301947, "lat": 9.8667723, "lon": -83.9302879}, {"type": "node", "id": 3972301948, "lat": 9.8667578, "lon": -83.9302495}, {"type": "node", "id": 3972301949, "lat": 9.8667719, "lon": -83.930329}, {"type": "node", "id": 3972334993, "lat": 9.8634147, "lon": -83.9224136}, {"type": "node", "id": 3972334994, "lat": 9.863555, "lon": -83.9223958}, {"type": "node", "id": 3972334995, "lat": 9.8635412, "lon": -83.9222544}, {"type": "node", "id": 3972335000, "lat": 9.8634026, "lon": -83.9223157}, {"type": "node", "id": 3972335001, "lat": 9.8633855, "lon": -83.9223035}, {"type": "node", "id": 3972335002, "lat": 9.8633798, "lon": -83.9222774}, {"type": "node", "id": 3972335003, "lat": 9.8633958, "lon": -83.9222536}, {"type": "node", "id": 3972335004, "lat": 9.8634249, "lon": -83.9222518}, {"type": "node", "id": 3972335005, "lat": 9.8634427, "lon": -83.9222687}, {"type": "node", "id": 3972335006, "lat": 9.863288, "lon": -83.9205447}, {"type": "node", "id": 3972335007, "lat": 9.8633376, "lon": -83.9205386}, {"type": "node", "id": 3972365804, "lat": 9.8398374, "lon": -83.8678696}, {"type": "node", "id": 3972365805, "lat": 9.8399074, "lon": -83.8678608}, {"type": "node", "id": 3972365806, "lat": 9.8398959, "lon": -83.8677641}, {"type": "node", "id": 3972365807, "lat": 9.8395316, "lon": -83.8678184}, {"type": "node", "id": 3972365808, "lat": 9.8395399, "lon": -83.8679055}, {"type": "node", "id": 3976412816, "lat": 9.9186357, "lon": -84.0493867}, {"type": "node", "id": 3976412817, "lat": 9.9183203, "lon": -84.0494813}, {"type": "node", "id": 3976483880, "lat": 9.9240827, "lon": -84.037821}, {"type": "node", "id": 3976483881, "lat": 9.9238819, "lon": -84.037939}, {"type": "node", "id": 3976483882, "lat": 9.9238212, "lon": -84.0378639}, {"type": "node", "id": 3976483883, "lat": 9.9238634, "lon": -84.0377969}, {"type": "node", "id": 3976483884, "lat": 9.9239084, "lon": -84.0377674}, {"type": "node", "id": 3976483885, "lat": 9.9238634, "lon": -84.0376788}, {"type": "node", "id": 3976483886, "lat": 9.9239401, "lon": -84.0376279}, {"type": "node", "id": 3976483887, "lat": 9.9239665, "lon": -84.0376654}, {"type": "node", "id": 3976483888, "lat": 9.9239903, "lon": -84.037652}, {"type": "node", "id": 3976490304, "lat": 9.9273377, "lon": -84.041104, "tags": {"addr:city": "Curridabat", "addr:street": "V\u00eda 2", "amenity": "bank", "name": "Grupo Mutual", "source": "KG Ground Survey 2015"}}, {"type": "node", "id": 3976738390, "lat": 9.8677169, "lon": -83.9041539}, {"type": "node", "id": 3976738391, "lat": 9.8676185, "lon": -83.9041629}, {"type": "node", "id": 3976738392, "lat": 9.8676206, "lon": -83.9041858}, {"type": "node", "id": 3976738393, "lat": 9.867589, "lon": -83.9041887}, {"type": "node", "id": 3976738394, "lat": 9.8675706, "lon": -83.9039833}, {"type": "node", "id": 3976738395, "lat": 9.8677005, "lon": -83.9039714}, {"type": "node", "id": 3976829433, "lat": 9.869959, "lon": -83.9051035}, {"type": "node", "id": 3976829434, "lat": 9.8699455, "lon": -83.9049366}, {"type": "node", "id": 3976829435, "lat": 9.8698897, "lon": -83.9049412}, {"type": "node", "id": 3976829436, "lat": 9.8698944, "lon": -83.9049992}, {"type": "node", "id": 3976829437, "lat": 9.8697833, "lon": -83.9050084}, {"type": "node", "id": 3976829438, "lat": 9.8697856, "lon": -83.9050357}, {"type": "node", "id": 3976829439, "lat": 9.8697586, "lon": -83.905038}, {"type": "node", "id": 3976829440, "lat": 9.8697696, "lon": -83.9051737}, {"type": "node", "id": 3976829441, "lat": 9.8698587, "lon": -83.9051663}, {"type": "node", "id": 3976829442, "lat": 9.8698555, "lon": -83.9051278}, {"type": "node", "id": 3976829443, "lat": 9.8698782, "lon": -83.9051259}, {"type": "node", "id": 3976829444, "lat": 9.8698769, "lon": -83.9051104}, {"type": "node", "id": 3976910468, "lat": 9.8645948, "lon": -83.9248625}, {"type": "node", "id": 3976910469, "lat": 9.8645811, "lon": -83.924769}, {"type": "node", "id": 3976910470, "lat": 9.8645944, "lon": -83.9247385}, {"type": "node", "id": 3976910471, "lat": 9.8647179, "lon": -83.9247199}, {"type": "node", "id": 3976910472, "lat": 9.8647357, "lon": -83.9248412}, {"type": "node", "id": 3977137924, "lat": 9.8448381, "lon": -83.9392453}, {"type": "node", "id": 3977137925, "lat": 9.8447322, "lon": -83.939278}, {"type": "node", "id": 3977137926, "lat": 9.8447898, "lon": -83.9394705}, {"type": "node", "id": 3977137927, "lat": 9.8448957, "lon": -83.9394379}, {"type": "node", "id": 3977166887, "lat": 9.8448706, "lon": -83.937074}, {"type": "node", "id": 3977166888, "lat": 9.8448227, "lon": -83.9368517}, {"type": "node", "id": 3977166889, "lat": 9.8445998, "lon": -83.9369012}, {"type": "node", "id": 3977166890, "lat": 9.8446478, "lon": -83.9371235}, {"type": "node", "id": 3980195499, "lat": 9.9389708, "lon": -84.1086823}, {"type": "node", "id": 3980195500, "lat": 9.9389746, "lon": -84.1087883}, {"type": "node", "id": 3980195501, "lat": 9.9388245, "lon": -84.1086876}, {"type": "node", "id": 3983029269, "lat": 9.8683361, "lon": -83.9049804}, {"type": "node", "id": 3983029270, "lat": 9.8683678, "lon": -83.9049784}, {"type": "node", "id": 3983173186, "lat": 9.8636935, "lon": -83.9197057}, {"type": "node", "id": 3983173187, "lat": 9.8636728, "lon": -83.9195486}, {"type": "node", "id": 3983173188, "lat": 9.8634684, "lon": -83.9195764}, {"type": "node", "id": 3983173189, "lat": 9.8634895, "lon": -83.9197354}, {"type": "node", "id": 3983173190, "lat": 9.8636412, "lon": -83.9199289}, {"type": "node", "id": 3983173191, "lat": 9.8636367, "lon": -83.9198942}, {"type": "node", "id": 3983173192, "lat": 9.8636638, "lon": -83.9198675}, {"type": "node", "id": 3983173193, "lat": 9.8636506, "lon": -83.9197653}, {"type": "node", "id": 3983173194, "lat": 9.8636207, "lon": -83.919749}, {"type": "node", "id": 3983173195, "lat": 9.8636162, "lon": -83.9197171}, {"type": "node", "id": 3983173196, "lat": 9.8634027, "lon": -83.9197488}, {"type": "node", "id": 3983173197, "lat": 9.8634085, "lon": -83.9197878}, {"type": "node", "id": 3983173198, "lat": 9.8633134, "lon": -83.9198025}, {"type": "node", "id": 3983173199, "lat": 9.8633224, "lon": -83.9198622}, {"type": "node", "id": 3983173200, "lat": 9.8633681, "lon": -83.9198551}, {"type": "node", "id": 3983173201, "lat": 9.8633851, "lon": -83.9199678}, {"type": "node", "id": 3983173204, "lat": 9.8634121, "lon": -83.9199645}, {"type": "node", "id": 3986899692, "lat": 9.8452754, "lon": -83.9371006}, {"type": "node", "id": 3986899693, "lat": 9.8452446, "lon": -83.9369757}, {"type": "node", "id": 3986899694, "lat": 9.8453514, "lon": -83.9369486}, {"type": "node", "id": 3986899695, "lat": 9.8453822, "lon": -83.9370735}, {"type": "node", "id": 4194199449, "lat": 9.9370744, "lon": -84.0867945}, {"type": "node", "id": 4194199450, "lat": 9.9374245, "lon": -84.086917}, {"type": "node", "id": 4205232890, "lat": 9.9398994, "lon": -84.056475, "tags": {"addr:city": "Mercedes", "addr:street": "Avenida 17", "amenity": "bank", "atm": "yes", "brand": "BW-Bank", "brand:en": "BW-Bank", "brand:es": "BW-Bank", "brand:wikidata": "Q27618271", "brand:wikipedia": "es:Banco General (Panam\u00e1)", "name": "Banco General", "name:en": "General Bank", "name:es": "Banco General", "opening_hours": "Mo-Fr 09:00-18:00; Sa 09:00-12:30"}}, {"type": "node", "id": 4207643151, "lat": 9.7992128, "lon": -84.1619942}, {"type": "node", "id": 4207653875, "lat": 9.7992401, "lon": -84.1619922}, {"type": "node", "id": 4207653876, "lat": 9.7989841, "lon": -84.1621994}, {"type": "node", "id": 4207653877, "lat": 9.7992534, "lon": -84.1621798}, {"type": "node", "id": 4234682007, "lat": 9.9342061, "lon": -84.0759742}, {"type": "node", "id": 4234688353, "lat": 9.9284837, "lon": -84.0753045}, {"type": "node", "id": 4234688354, "lat": 9.9283524, "lon": -84.0753198}, {"type": "node", "id": 4234688355, "lat": 9.9283098, "lon": -84.0749437}, {"type": "node", "id": 4234688356, "lat": 9.9284412, "lon": -84.0749284, "tags": {"name": "Building"}}, {"type": "node", "id": 4300775205, "lat": 9.8690109, "lon": -83.9120102, "tags": {"amenity": "bank"}}, {"type": "node", "id": 4398048042, "lat": 9.8608462, "lon": -84.0940387}, {"type": "node", "id": 4398048044, "lat": 9.8610523, "lon": -84.0941662}, {"type": "node", "id": 4398048047, "lat": 9.8609732, "lon": -84.0943026}, {"type": "node", "id": 4398048048, "lat": 9.8607986, "lon": -84.0941853}, {"type": "node", "id": 4398048049, "lat": 9.8607945, "lon": -84.0940663}, {"type": "node", "id": 4407662426, "lat": 9.9112876, "lon": -84.078442}, {"type": "node", "id": 4407662427, "lat": 9.9112947, "lon": -84.0784064}, {"type": "node", "id": 4407662428, "lat": 9.9112208, "lon": -84.0783814}, {"type": "node", "id": 4407662429, "lat": 9.9112142, "lon": -84.0784294}, {"type": "node", "id": 4462907031, "lat": 9.9153561, "lon": -84.0342493}, {"type": "node", "id": 4462947471, "lat": 9.9144844, "lon": -84.0399016}, {"type": "node", "id": 4462947472, "lat": 9.9144776, "lon": -84.039813}, {"type": "node", "id": 4462947473, "lat": 9.9142802, "lon": -84.0398284}, {"type": "node", "id": 4462947474, "lat": 9.9142869, "lon": -84.039917}, {"type": "node", "id": 4483243800, "lat": 9.9153146, "lon": -84.0341806}, {"type": "node", "id": 4483243803, "lat": 9.9151872, "lon": -84.0341918}, {"type": "node", "id": 4493446952, "lat": 9.9070268, "lon": -83.9863497}, {"type": "node", "id": 4493446953, "lat": 9.9071718, "lon": -83.9863151}, {"type": "node", "id": 4493446954, "lat": 9.9069925, "lon": -83.9861928}, {"type": "node", "id": 4533250291, "lat": 9.8740517, "lon": -83.9446161}, {"type": "node", "id": 4533250292, "lat": 9.8742895, "lon": -83.9445786}, {"type": "node", "id": 4533250293, "lat": 9.8741732, "lon": -83.9439563}, {"type": "node", "id": 4533250294, "lat": 9.8739222, "lon": -83.9439965}, {"type": "node", "id": 4533277308, "lat": 9.8838349, "lon": -83.9353299, "tags": {"addr:city": "San Nicol\u00e1s", "addr:street": "Autopista Florencio del Castillo", "amenity": "bank", "name": "Banco Cathay"}}, {"type": "node", "id": 4544276381, "lat": 9.9289143, "lon": -84.0706969}, {"type": "node", "id": 4544276382, "lat": 9.9290162, "lon": -84.070583}, {"type": "node", "id": 4593245989, "lat": 9.8696269, "lon": -83.9066065, "tags": {"addr:street": "Calle 29", "amenity": "bank", "name": "BN servicios La Fortuna", "opening_hours": "Mo-Su 08:00-19:00", "phone": "25522629"}}, {"type": "node", "id": 4684568596, "lat": 9.9396512, "lon": -84.0517632}, {"type": "node", "id": 4684568597, "lat": 9.9394674, "lon": -84.0517501}, {"type": "node", "id": 4687829114, "lat": 9.8909549, "lon": -84.0813204}, {"type": "node", "id": 4687829115, "lat": 9.8909866, "lon": -84.0813204}, {"type": "node", "id": 4791021705, "lat": 9.9332591, "lon": -84.0790825}, {"type": "node", "id": 4883983972, "lat": 9.9111994, "lon": -84.0603665, "tags": {"amenity": "bank", "name": "Banco Promerica"}}, {"type": "node", "id": 5043275712, "lat": 9.9089352, "lon": -84.0052996, "tags": {"amenity": "bank", "name": "BNCR"}}, {"type": "node", "id": 5230871062, "lat": 9.9389398, "lon": -84.1088417}, {"type": "node", "id": 5266436010, "lat": 9.9357342, "lon": -84.1315793, "tags": {"addr:city": "San Rafael", "addr:street": "Autopista Pr\u00f3spero Fern\u00e1ndez", "amenity": "bank", "email": "bidcostarica@iadb.org", "name": "Banco Interamericano para el Desarrollo", "phone": "+506 2588 8700"}}, {"type": "node", "id": 5271221577, "lat": 9.9299242, "lon": -84.1462005, "tags": {"amenity": "bank", "name": "Scotiabank", "opening_hours": "Mo-Fr 09:00-18:00; Sa 09:00-13:00"}}, {"type": "node", "id": 5364535962, "lat": 9.9234286, "lon": -84.0801584}, {"type": "node", "id": 5364535963, "lat": 9.923366, "lon": -84.0799514}, {"type": "node", "id": 5913037190, "lat": 9.8635524, "lon": -83.9223737}, {"type": "node", "id": 5927973368, "lat": 9.9371437, "lon": -84.066278}, {"type": "node", "id": 5927973371, "lat": 9.9370517, "lon": -84.0663103}, {"type": "node", "id": 5927973373, "lat": 9.9369617, "lon": -84.0663419}, {"type": "node", "id": 5927973375, "lat": 9.936808, "lon": -84.0663957}, {"type": "node", "id": 5927973379, "lat": 9.936594, "lon": -84.0664713}, {"type": "node", "id": 5927973380, "lat": 9.9371251, "lon": -84.0658221}, {"type": "node", "id": 5927973384, "lat": 9.9367286, "lon": -84.06607}, {"type": "node", "id": 5927973385, "lat": 9.9365996, "lon": -84.0663861}, {"type": "node", "id": 5927973386, "lat": 9.9365604, "lon": -84.0662795}, {"type": "node", "id": 5935491228, "lat": 9.934565, "lon": -84.0646088}, {"type": "node", "id": 5935491229, "lat": 9.934539, "lon": -84.0646514}, {"type": "node", "id": 5935491250, "lat": 9.9348301, "lon": -84.0648798}, {"type": "node", "id": 5935491258, "lat": 9.9347958, "lon": -84.0645824}, {"type": "node", "id": 5935491261, "lat": 9.9345669, "lon": -84.0649108}, {"type": "node", "id": 6114264253, "lat": 9.9387626, "lon": -84.1076876, "tags": {"addr:city": "San Jos\u00e9", "addr:street": "Avenida de Las Am\u00e9ricas", "amenity": "bank", "atm": "yes", "name": "Banco Improsa"}}, {"type": "node", "id": 6114336933, "lat": 9.9378556, "lon": -84.1137807}, {"type": "node", "id": 6114336934, "lat": 9.9375413, "lon": -84.1137763}, {"type": "node", "id": 6114336935, "lat": 9.9375317, "lon": -84.1137808}, {"type": "node", "id": 6114337232, "lat": 9.9372805, "lon": -84.1129278, "tags": {"amenity": "bank", "atm": "yes", "brand": "Scotiabank", "brand:wikidata": "Q451476", "brand:wikipedia": "en:Scotiabank", "name": "Scotiabank"}}, {"type": "node", "id": 6121613213, "lat": 9.9198979, "lon": -84.1411076}, {"type": "node", "id": 6121613214, "lat": 9.9198063, "lon": -84.1411515}, {"type": "node", "id": 6121613215, "lat": 9.9198653, "lon": -84.1411099}, {"type": "node", "id": 6121613216, "lat": 9.9198678, "lon": -84.1411472}, {"type": "node", "id": 6126925828, "lat": 9.9391829, "lon": -84.1090399}, {"type": "node", "id": 6126925829, "lat": 9.9392154, "lon": -84.1089815}, {"type": "node", "id": 6126925830, "lat": 9.9393692, "lon": -84.1086446}, {"type": "node", "id": 6126925832, "lat": 9.9392358, "lon": -84.1086488}, {"type": "node", "id": 6138920182, "lat": 9.8672509, "lon": -83.9420788}, {"type": "node", "id": 6348584085, "lat": 9.9366467, "lon": -84.0785321, "tags": {"addr:city": "San Jos\u00e9", "addr:street": "Avenida Mauro Fern\u00e1ndez", "amenity": "bank", "atm": "yes", "name": "Banco BCT"}}, {"type": "node", "id": 6366215091, "lat": 9.9389892, "lon": -84.1089896}, {"type": "node", "id": 6814965692, "lat": 9.9285531, "lon": -84.0411514, "tags": {"amenity": "bank", "atm": "yes", "name": "BCR", "wheelchair": "yes"}}, {"type": "node", "id": 6815835956, "lat": 9.8635497, "lon": -84.0919136, "tags": {"addr:city": "Aserr\u00ed", "addr:street": "Ruta Nacional 209", "amenity": "bank", "atm": "yes", "brand": "BCR", "brand:wikidata": "Q6951632", "brand:wikipedia": "es:Banco de Costa Rica", "name": "Banco de Costa Rica", "official_name": "Banco de Costa Rica"}}, {"type": "node", "id": 6815850720, "lat": 9.9294897, "lon": -84.1372567, "tags": {"addr:city": "San Rafael", "addr:street": "Carretera John F. Kennedy", "amenity": "bank", "name": "Banco de Costa Rica"}}, {"type": "node", "id": 6815890978, "lat": 9.9386862, "lon": -84.1032199, "tags": {"addr:city": "San Jos\u00e9", "addr:street": "Avenida de Las Am\u00e9ricas", "amenity": "bank", "atm": "yes", "name": "Banco de Costa Rica"}}, {"type": "node", "id": 6840643682, "lat": 9.8642416, "lon": -84.0914429, "tags": {"addr:city": "Aserr\u00ed", "addr:street": "Ruta Nacional 209", "amenity": "bank", "atm": "yes", "name": "Banco Popular"}}, {"type": "node", "id": 6841024124, "lat": 9.8693761, "lon": -84.0847168, "tags": {"addr:city": "Aserr\u00ed", "addr:street": "Ruta Nacional 209", "amenity": "bank", "drive_through": "yes", "name": "Banco Cathay"}}, {"type": "node", "id": 6841063494, "lat": 9.9267104, "lon": -84.0923012, "tags": {"addr:city": "San Jos\u00e9", "addr:street": "Avenida 18", "amenity": "bank", "name": "Banco Cathay"}}, {"type": "node", "id": 6841080047, "lat": 9.8839019, "lon": -83.9353056}, {"type": "node", "id": 6841080048, "lat": 9.8839047, "lon": -83.9353525}, {"type": "node", "id": 6841080049, "lat": 9.8837863, "lon": -83.9353618}, {"type": "node", "id": 6841080050, "lat": 9.8837818, "lon": -83.9353146}, {"type": "node", "id": 6841272064, "lat": 9.9315487, "lon": -84.1297749, "tags": {"addr:city": "San Rafael", "addr:street": "Calle Le\u00f3n Cort\u00e9s", "amenity": "bank", "name": "Banco BCT"}}, {"type": "node", "id": 6841286761, "lat": 9.9356001, "lon": -84.1889834, "tags": {"addr:city": "Santa Ana", "addr:street": "Radial Santa Ana", "amenity": "bank", "atm": "yes", "name": "Banco BCT", "wheelchair": "limited"}}, {"type": "node", "id": 6841840245, "lat": 9.9106285, "lon": -84.0178602, "tags": {"addr:city": "S\u00e1nchez", "addr:street": "Autopista Florencio del Castillo", "amenity": "bank", "name": "Banco Davivienda"}}, {"type": "node", "id": 6841848750, "lat": 9.9277267, "lon": -84.0803479, "tags": {"addr:city": "San Jos\u00e9", "addr:street": "Calle Juan Rafael Mora Porras", "amenity": "bank", "name": "Banco Davivienda"}}, {"type": "node", "id": 6841911810, "lat": 9.9168332, "lon": -84.0463217, "tags": {"addr:city": "Curridabat", "addr:street": "V\u00eda 215", "amenity": "bank", "atm": "yes", "name": "Banco Davivienda"}}, {"type": "node", "id": 6841942385, "lat": 9.8845942, "lon": -84.0692067, "tags": {"addr:city": "San Rafael Arriba", "addr:street": "Ruta Nacional 209", "amenity": "bank", "atm": "yes", "name": "Banco Davivienda"}}, {"type": "node", "id": 6841988237, "lat": 9.9406402, "lon": -84.1446428, "tags": {"addr:city": "San Rafael", "addr:street": "Autopista Pr\u00f3spero Fern\u00e1ndez", "amenity": "bank", "atm": "yes", "name": "Banco Improsa"}}, {"type": "node", "id": 6845442005, "lat": 9.9335391, "lon": -84.2285018, "tags": {"addr:city": "Brasil", "addr:street": "Radial Col\u00f3n", "amenity": "bank", "atm": "yes", "brand": "BW-Bank", "brand:en": "BW-Bank", "brand:es": "BW-Bank", "brand:wikidata": "Q27618271", "brand:wikipedia": "es:Banco General (Panam\u00e1)", "name": "Banco General", "name:en": "General Bank", "name:es": "Banco General"}}, {"type": "node", "id": 6845550872, "lat": 9.8626744, "lon": -83.932914, "tags": {"addr:city": "Guadalupe", "addr:street": "Avenida 10", "amenity": "bank", "atm": "yes", "brand": "BW-Bank", "brand:en": "BW-Bank", "brand:es": "BW-Bank", "brand:wikidata": "Q27618271", "brand:wikipedia": "es:Banco General (Panam\u00e1)", "name": "Banco General", "name:en": "General Bank", "name:es": "Banco General"}}, {"type": "node", "id": 6847690066, "lat": 9.934019, "lon": -84.1277494, "tags": {"addr:city": "San Rafael", "addr:street": "Calle 112", "amenity": "bank", "atm": "yes", "name": "Banco Lafise"}}, {"type": "node", "id": 6847725995, "lat": 9.9105788, "lon": -84.017227, "tags": {"addr:city": "S\u00e1nchez", "addr:street": "Calle 137", "amenity": "bank", "atm": "yes", "name": "Banco Lafise"}}, {"type": "node", "id": 6847774727, "lat": 9.9391622, "lon": -84.0827842, "tags": {"addr:city": "San Jos\u00e9", "addr:street": "Calle Juan Ram\u00f3n Bonilla", "amenity": "bank", "atm": "yes", "name": "Banco Lafise"}}, {"type": "node", "id": 7201872853, "lat": 9.9209136, "lon": -84.1382983, "tags": {"addr:city": "Escaz\u00fa", "addr:street": "Avenida 28", "amenity": "bank", "atm": "yes", "name": "Banco Popular"}}, {"type": "node", "id": 7221146349, "lat": 9.9000618, "lon": -84.0651291}, {"type": "node", "id": 7221146350, "lat": 9.9000148, "lon": -84.0651549}, {"type": "node", "id": 7221146351, "lat": 9.8999541, "lon": -84.0653094}, {"type": "node", "id": 7221146352, "lat": 9.9000648, "lon": -84.0652485}, {"type": "node", "id": 7278286961, "lat": 9.9311576, "lon": -84.0749132, "tags": {"addr:city": "Catedral", "addr:street": "Avenida Castro Madriz", "amenity": "bank", "atm": "yes", "name": "Banco Cathay", "opening_hours": "Mo-Fr 08:00-16:00"}}, {"type": "node", "id": 7285706089, "lat": 9.9314744, "lon": -84.0751533, "tags": {"addr:city": "Catedral", "addr:street": "Avenida Monse\u00f1or Castro Jim\u00e9nez", "amenity": "bank", "name": "Mucap", "opening_hours": "Mo-Fr 09:00-17:00", "operator": "Mucap"}}, {"type": "node", "id": 7308136267, "lat": 9.9149971, "lon": -84.0346395, "tags": {"source": "KG Ground Survey 2015"}}, {"type": "node", "id": 7844800371, "lat": 9.7989709, "lon": -84.1620118}, {"type": "node", "id": 7953164133, "lat": 9.6606622, "lon": -84.0211001}, {"type": "node", "id": 7953164134, "lat": 9.660644, "lon": -84.0209183}, {"type": "node", "id": 7953164135, "lat": 9.6604709, "lon": -84.0209337}, {"type": "node", "id": 7953164136, "lat": 9.6604921, "lon": -84.0211247}, {"type": "node", "id": 8054291736, "lat": 9.9337423, "lon": -84.080708, "tags": {"addr:city": "San Jos\u00e9", "addr:housenumber": "75 metros sur de la esquina Suroeste del Banco Central", "addr:postcode": "10104", "addr:street": "Calle 4A", "amenity": "bank", "name": "Grupo Mutual", "operator": "Grupo Mutual"}}, {"type": "node", "id": 8095914097, "lat": 9.6605571, "lon": -84.0207251}, {"type": "node", "id": 8555944906, "lat": 9.9293209, "lon": -84.0029176}, {"type": "node", "id": 8555944907, "lat": 9.9292101, "lon": -84.0030008}, {"type": "node", "id": 8555944908, "lat": 9.9290841, "lon": -84.0028344}, {"type": "node", "id": 8555944909, "lat": 9.9291949, "lon": -84.0027497}, {"type": "node", "id": 8662862820, "lat": 9.9073455, "lon": -84.0861861}, {"type": "node", "id": 8662862821, "lat": 9.9072234, "lon": -84.086241}, {"type": "node", "id": 8662862822, "lat": 9.9071713, "lon": -84.0861271}, {"type": "node", "id": 8662862823, "lat": 9.9072935, "lon": -84.0860662}, {"type": "node", "id": 8780137120, "lat": 9.9268553, "lon": -84.0673005, "tags": {"amenity": "bank", "name": "ASEGOSEP"}}, {"type": "node", "id": 9125321837, "lat": 9.9348779, "lon": -84.0861701, "tags": {"amenity": "bank", "name": "Banco Popular", "operator": "Banco Popular"}}, {"type": "node", "id": 9163723641, "lat": 9.9332405, "lon": -84.0779398, "tags": {"amenity": "bank", "name": "Coocique"}}, {"type": "node", "id": 9166102666, "lat": 9.9345122, "lon": -84.0795408}, {"type": "node", "id": 9166102667, "lat": 9.9344952, "lon": -84.0793374}, {"type": "node", "id": 9166103206, "lat": 9.9345287, "lon": -84.0795979}, {"type": "node", "id": 9166103211, "lat": 9.9342273, "lon": -84.079983}, {"type": "node", "id": 9166103212, "lat": 9.9342199, "lon": -84.0799455}, {"type": "node", "id": 9166103213, "lat": 9.9341668, "lon": -84.07995}, {"type": "node", "id": 9166103214, "lat": 9.9341264, "lon": -84.0800083}, {"type": "node", "id": 9166103215, "lat": 9.9341251, "lon": -84.0801131}, {"type": "node", "id": 9166103216, "lat": 9.9341565, "lon": -84.0801287}, {"type": "node", "id": 9166115517, "lat": 9.9341885, "lon": -84.0801267}, {"type": "node", "id": 9166115518, "lat": 9.9342038, "lon": -84.0800972}, {"type": "node", "id": 9166115519, "lat": 9.9342032, "lon": -84.0800276}, {"type": "node", "id": 9166115520, "lat": 9.9342228, "lon": -84.080012}, {"type": "node", "id": 9170636976, "lat": 9.933864, "lon": -84.0814215}, {"type": "node", "id": 9170636979, "lat": 9.9338425, "lon": -84.0812597}, {"type": "node", "id": 9170679414, "lat": 9.9334475, "lon": -84.0804598, "tags": {"amenity": "bank", "brand": "Banco Popular", "name": "Banco Popular", "official_name": "Banco Popular Y De Desarrollo Comunal", "short_name": "BP"}}, {"type": "node", "id": 9215297587, "lat": 9.9348528, "lon": -84.0560633}, {"type": "node", "id": 9215297588, "lat": 9.9348221, "lon": -84.0558387}, {"type": "node", "id": 9215297589, "lat": 9.934817, "lon": -84.0558298}, {"type": "node", "id": 9215297590, "lat": 9.9348698, "lon": -84.0558145}, {"type": "node", "id": 9215297591, "lat": 9.9348751, "lon": -84.0558333}, {"type": "node", "id": 9215297592, "lat": 9.9349141, "lon": -84.0560218}, {"type": "node", "id": 9215297593, "lat": 9.9349738, "lon": -84.0560031}, {"type": "node", "id": 9215297594, "lat": 9.9349659, "lon": -84.0559725}, {"type": "node", "id": 9215297595, "lat": 9.9348733, "lon": -84.056055}, {"type": "node", "id": 9219512104, "lat": 9.9321779, "lon": -84.0789973}, {"type": "node", "id": 9219512105, "lat": 9.9321757, "lon": -84.0789537}, {"type": "node", "id": 9241337493, "lat": 9.9322429, "lon": -84.0531159}, {"type": "node", "id": 9241337494, "lat": 9.9322387, "lon": -84.0531031}, {"type": "node", "id": 9241337495, "lat": 9.9321838, "lon": -84.053122}, {"type": "node", "id": 9241337496, "lat": 9.9321884, "lon": -84.0531357}, {"type": "way", "id": 31487699, "nodes": [351959726, 351959729, 351959731, 3735290387, 351959732, 351959726], "tags": {"addr:city": "San Jos\u00e9", "addr:street": "Avenida 10", "amenity": "bank", "atm": "yes", "building": "yes", "name": "Banco Nacional"}}, {"type": "way", "id": 31734245, "nodes": [355079636, 355079640, 355079641, 355079644, 355079636], "tags": {"addr:city": "San Jos\u00e9", "addr:housenumber": "0003", "addr:street": "Calle 1", "alt_name": "Centro de Negocios Catedral", "amenity": "bank", "atm": "yes", "building": "yes", "building:levels": "8", "landuse": "commercial", "name": "Banco Popular y de Desarrollo Comunal", "short_name": "Banco Popular"}}, {"type": "way", "id": 40766718, "nodes": [495486632, 495486635, 3834605857, 495486639, 3495572542, 3834605858, 3834605859, 3834605860, 3834605861, 3834605862, 495486641, 495486642, 495486632], "tags": {"addr:city": "Mercedes", "addr:full": "Barrio escalante, rotonda de la bandera", "amenity": "bank", "atm": "yes", "building": "yes", "cajero": "yes", "name": "BAC Credomatic", "opening_hours": "Mo-Fr 09:00-18:00; Sa 09:00-13:00", "phone": "(506) 2295-9797", "source": "KG Ground Survey 2015"}}, {"type": "way", "id": 55561996, "nodes": [698380732, 698380733, 698380734, 698380735, 698380732], "tags": {"addr:city": "San Francisco", "amenity": "bank", "atm": "yes", "name": "Banco Nacional", "operator": "BNCR"}}, {"type": "way", "id": 61350073, "nodes": [766164934, 766164935, 3972335007, 3972335006, 766164936, 766164937, 766164934], "tags": {"addr:city": "Cartago", "addr:street": "Avenida 4", "amenity": "bank", "atm": "yes", "building": "yes", "name": "BAC Credomatic", "source": "KG Ground Survey 2015"}}, {"type": "way", "id": 67065919, "nodes": [810280914, 810280916, 810280917, 810280918, 810280919, 810280920, 810280914], "tags": {"amenity": "bank", "atm": "yes", "building": "office", "name": "BAC Credomatic"}}, {"type": "way", "id": 67834877, "nodes": [818992906, 818992916, 818992921, 818992923, 2087689233, 2087689244, 2087689237, 2087689235, 2087689239, 2087689230, 2087689242, 818992926, 2087689240, 818992929, 818992906], "tags": {"addr:city": "Curridabat", "addr:street": "V\u00eda 2", "amenity": "bank", "atm": "yes", "building": "yes", "name": "BAC Credomatic", "source": "KG Ground Survey 2015"}}, {"type": "way", "id": 78136024, "nodes": [917882459, 917882460, 9241337496, 9241337495, 9241337494, 9241337493, 917882461, 917882462, 917882459], "tags": {"addr:city": "San Pedro", "addr:street": "V\u00eda 2", "amenity": "bank", "atm": "yes", "brand": "Banco Nacional de Costa Rica", "brand:wikidata": "Q2917708", "brand:wikipedia": "es:Banco Nacional de Costa Rica", "building": "yes", "drive_through": "yes", "name": "Banco Nacional", "name:en": "Costa Rica National Bank", "official_name": "Banco Nacional de Costa Rica", "short_name": "BNCR", "source": "KG Ground Survey 2015", "website": "https://www.bncr.fi.cr/"}}, {"type": "way", "id": 83571448, "nodes": [973230322, 973230325, 973230332, 973230333, 973230322], "tags": {"amenity": "bank", "building": "yes", "name": "Banco Lafise", "shop": "bank", "source": "KG Ground Survey 2015"}}, {"type": "way", "id": 108525536, "nodes": [1244913691, 1244913667, 6126925830, 6126925832, 1244913687, 3980195499, 3751025377, 3980195501, 1244913686, 3980195500, 5230871062, 3735066402, 6366215091, 1244913651, 6126925828, 6126925829, 1244913691], "tags": {"addr:city": "San Jos\u00e9", "addr:street": "Avenida de Las Am\u00e9ricas", "amenity": "bank", "atm": "yes", "brand": "Scotiabank", "brand:wikidata": "Q451476", "brand:wikipedia": "en:Scotiabank", "building": "yes", "building:colour": "#cff5d4", "building:levels": "4", "building:material": "glass", "drive_through": "yes", "name": "Scotiabank", "roof:colour": "#FFF8DC"}}, {"type": "way", "id": 116373116, "nodes": [1311990353, 1311990409, 1311990388, 1311990370, 1311990402, 1311990353], "tags": {"addr:city": "Cartago", "addr:street": "Calle 13", "amenity": "bank", "atm": "yes", "building": "no", "drive_through": "yes", "name": "Auto Mucap", "short_name": "Mucap", "source": "KG Ground Survey 2015"}}, {"type": "way", "id": 117240336, "nodes": [1320666469, 3972301949, 3972301947, 3972301948, 1320666222, 3972301944, 1320666715, 3972301943, 3972301945, 1320666762, 3972301946, 1320666469], "tags": {"addr:city": "Cartago", "addr:street": "Avenida 1", "alt_name": "Banco Nacional de Costa Rica, Metrocentro", "amenity": "bank", "atm": "yes", "building": "yes", "name": "Banco Nacional", "source": "Sitio web del banco"}}, {"type": "way", "id": 129348815, "nodes": [1427263954, 1427417341, 3834556374, 3834556377, 1427263957, 1427263954], "tags": {"addr:city": "San Rafael", "addr:street": "Autopista Pr\u00f3spero Fern\u00e1ndez", "amenity": "bank", "atm": "yes", "brand": "BW-Bank", "brand:en": "BW-Bank", "brand:es": "BW-Bank", "brand:wikidata": "Q27618271", "brand:wikipedia": "es:Banco General (Panam\u00e1)", "building": "yes", "name": "Banco General", "name:en": "General Bank", "name:es": "Banco General", "source": "KG Ground Survey 2015"}}, {"type": "way", "id": 130921157, "nodes": [1441116461, 1441116459, 1441116463, 1441116462, 1520629358, 1441116461], "tags": {"addr:city": "San Marcos", "addr:street": "Avenida 1", "amenity": "bank", "atm": "yes", "brand": "Banco Nacional de Costa Rica", "brand:en": "National Bank of Costa Rica", "brand:es": "Banco Nacional de Costa Rica", "brand:wikidata": "Q2917708", "brand:wikipedia": "es:Banco Nacional de Costa Rica", "building": "yes", "name": "Banco Nacional", "name:en": "National Bank", "name:es": "Banco Nacional", "official_name": "Banco Nacional de Costa Rica", "official_name:en": "National Bank of Costa Rica", "official_name:es": "Banco Nacional de Costa Rica", "short_name": "BNCR"}}, {"type": "way", "id": 130921723, "nodes": [1441140317, 8095914097, 1441140314, 1441140312, 1441140316, 1441140317], "tags": {"addr:city": "San Marcos", "addr:street": "Avenida 3", "amenity": "bank", "atm": "yes", "building": "yes", "name": "Banco de Costa Rica"}}, {"type": "way", "id": 130948297, "nodes": [1441634656, 1441634630, 1441140283, 1441634658, 1441634656], "tags": {"amenity": "bank", "atm": "yes", "building": "yes", "name": "CoopeSanMarcos"}}, {"type": "way", "id": 168526817, "nodes": [3934624055, 1797789388, 3934624052, 3934624051, 1797789385, 1797789386, 3934624054, 3934624055], "tags": {"addr:city": "San Jos\u00e9", "addr:street": "Avenida Central", "amenity": "bank", "atm": "yes", "building": "yes", "building:levels": "3", "name": "CoopeAnde", "source": "KG Ground Survey 2015"}}, {"type": "way", "id": 172346235, "nodes": [1832571749, 1832571764, 6121613213, 6121613215, 6121613216, 6121613214, 1832571765, 1832571751, 1832571749], "tags": {"addr:city": "Escaz\u00fa", "addr:street": "Calle 136", "amenity": "bank", "atm": "yes", "brand": "Banco Nacional de Costa Rica", "brand:en": "National Bank of Costa Rica", "brand:es": "Banco Nacional de Costa Rica", "brand:wikidata": "Q2917708", "brand:wikipedia": "es:Banco Nacional de Costa Rica", "building": "yes", "name": "Banco Nacional", "name:en": "National Bank", "name:es": "Banco Nacional", "official_name": "Banco Nacional de Costa Rica", "official_name:en": "National Bank of Costa Rica", "official_name:es": "Banco Nacional de Costa Rica", "short_name": "BNCR"}}, {"type": "way", "id": 172560826, "nodes": [1834517351, 1834517340, 3966944571, 3966944570, 3966944569, 3966944568, 3966944567, 1834517338, 1834517345, 1834517347, 1834517352, 1834517358, 1834517351], "tags": {"addr:city": "Para\u00edso", "addr:street": "Calle 2", "amenity": "bank", "atm": "yes", "brand": "Banco Nacional de Costa Rica", "brand:en": "National Bank of Costa Rica", "brand:es": "Banco Nacional de Costa Rica", "brand:wikidata": "Q2917708", "brand:wikipedia": "es:Banco Nacional de Costa Rica", "building": "yes", "name": "Banco Nacional", "name:en": "National Bank", "name:es": "Banco Nacional", "official_name": "Banco Nacional de Costa Rica", "official_name:en": "National Bank of Costa Rica", "official_name:es": "Banco Nacional de Costa Rica", "operator": "BNCR", "short_name": "BNCR", "source": "KG Ground Survey 2015"}}, {"type": "way", "id": 172622493, "nodes": [1835102943, 1835102942, 1835102939, 1835102937, 3983029269, 1835102938, 3983029270, 1835102943], "tags": {"addr:city": "San Rafael de Oreamuno", "amenity": "bank", "building": "yes", "name": "Mucap", "source": "KG Ground Survey 2015"}}, {"type": "way", "id": 178395740, "nodes": [1887468728, 9215297592, 9215297593, 9215297594, 1887468725, 1887468737, 9215297591, 9215297590, 9215297589, 9215297588, 1887468736, 9215297587, 9215297595, 1887468728], "tags": {"addr:city": "San Pedro", "addr:street": "Paseo de la Segunda Rep\u00fablica", "amenity": "bank", "atm": "yes", "building": "yes", "name": "Prival Bank", "source": "KG Ground Survey 2015"}}, {"type": "way", "id": 179735178, "nodes": [1901692945, 1901692948, 1901692946, 3816371256, 1901692949, 3816371252, 1901692945], "tags": {"addr:city": "San Pedro", "addr:street": "V\u00eda 2", "amenity": "bank", "atm": "yes", "building": "yes", "building:levels": "5", "name": "Banco Popular"}}, {"type": "way", "id": 186157501, "nodes": [1968518554, 1968518552, 1968518553, 1968518551, 1968518554], "tags": {"addr:city": "San Jos\u00e9", "addr:street": "Paseo Col\u00f3n", "amenity": "bank", "atm": "yes", "building": "yes", "name": "Banco de Costa Rica"}}, {"type": "way", "id": 187940948, "nodes": [1985745835, 3934290682, 3934290681, 1985745829, 1985745842, 4684568597, 4684568596, 1985745837, 1985745835], "tags": {"addr:street": "Via 202", "amenity": "bank", "atm": "yes", "building": "yes", "name": "Financiera Desyfin"}}, {"type": "way", "id": 207762470, "nodes": [2180109557, 3934468789, 2180109561, 2180109549, 2180109553, 2180109557], "tags": {"amenity": "bank", "building": "office", "name": "Banco BCT", "source": "KG Ground Survey 2015"}}, {"type": "way", "id": 209376449, "nodes": [2195984305, 2195984302, 2195984304, 2195984303, 2195984305], "tags": {"amenity": "bank", "name": "COOPENAE"}}, {"type": "way", "id": 209461515, "nodes": [2196776943, 2196776927, 2196776928, 2196776942, 2196776943], "tags": {"amenity": "bank", "atm": "yes", "building": "yes", "name": "Scotiabank", "operator": "Scottia Bank"}}, {"type": "way", "id": 224797944, "nodes": [272786296, 272786297, 2336388643, 2336388651, 2336388657, 2336388663, 2336388654, 2336388668, 2336388700, 2336388702, 2336388698, 2336388674, 272786295, 272786296], "tags": {"amenity": "bank", "level": "1", "name": "Bancredito", "opening_hours": "Mo-Su 10:00-20:00"}}, {"type": "way", "id": 224818443, "nodes": [2336729545, 2336729546, 2336729514, 2336729516, 2336729545], "tags": {"amenity": "bank", "atm": "yes", "level": "3", "name": "BAC Credomatic", "opening_hours": "Su-Th 10:00-20:00; Fr-Sa 10:00-21:00"}}, {"type": "way", "id": 224818444, "nodes": [2336729704, 2336729703, 2336729687, 2336729690, 2336729704], "tags": {"amenity": "bank", "level": "3", "name": "Banco Nacional", "opening_hours": "Su-Th 10:00-20:00; Fr-Sa 10:00-21:00"}}, {"type": "way", "id": 224818445, "nodes": [2336729706, 2336729704, 2336729691, 2336729690, 2336729694, 2336729706], "tags": {"amenity": "bank", "level": "3", "name": "Banco Nacional", "opening_hours": "Su-Th 10:00-20:00; Fr-Sa 10:00-21:00"}}, {"type": "way", "id": 224818446, "nodes": [2336729556, 2336729576, 2336729604, 2336729635, 2336729623, 2336729594, 2336729556], "tags": {"amenity": "bank", "level": "3", "name": "Banco de Costa Rica", "opening_hours": "Su-Th 10:00-20:00; Fr-Sa 10:00-21:00"}}, {"type": "way", "id": 225065267, "nodes": [2338880385, 2338880396, 2338880408, 281866308, 2338880382, 2338880385], "tags": {"amenity": "bank", "atm": "yes", "name": "Banco Nacional", "phone": "22274981"}}, {"type": "way", "id": 225443058, "nodes": [2342183547, 2336725170, 2342184048, 2342184555, 2342183966, 2342183547], "tags": {"amenity": "bank", "level": "2", "name": "Banco Citybank", "opening_hours": "Mo-Th 10:00-8:00; Fr-Su 10:00-9:00"}}, {"type": "way", "id": 225443059, "nodes": [2342181380, 2342181668, 2342182466, 2336725139, 2336725130, 2342181380], "tags": {"addr:city": "San Diego", "addr:street": "Autopista Florencio del Castillo", "amenity": "bank", "level": "2", "name": "Banco Davivienda", "opening_hours": "Mo-Th 10:00-8:00; Fr-Su 10:00-9:00"}}, {"type": "way", "id": 225443158, "nodes": [2342189019, 2342188937, 2342189284, 2342189390, 2342189019], "tags": {"amenity": "bank", "level": "2", "name": "Mucap", "opening_hours": "Mo-Th 10:00-8:00; Fr-Su 10:00-9:00"}}, {"type": "way", "id": 225443177, "nodes": [2342179797, 2342180088, 2342180467, 2342180188, 2342179797], "tags": {"amenity": "bank", "level": "2", "name": "Scotiabank", "opening_hours": "Mo-Th 10:00-8:00; Fr-Su 10:00-9:00"}}, {"type": "way", "id": 225633489, "nodes": [2343903054, 2343903043, 6138920182, 2343902979, 2343903054], "tags": {"amenity": "bank", "atm": "yes", "brand": "BAC Credomatic", "brand:wikidata": "Q5715556", "brand:wikipedia": "en:BAC Credomatic", "name": "BAC Credomatic", "phone": "2295-9595 ext 18481"}}, {"type": "way", "id": 225633490, "nodes": [2343902720, 2343902696, 2343902666, 2343902685, 2343902720], "tags": {"amenity": "bank", "name": "Banco Lafise", "phone": "2246-2526", "shop": "yes"}}, {"type": "way", "id": 225633491, "nodes": [2343902750, 2343902746, 2343902867, 2343902883, 2343902750], "tags": {"amenity": "bank", "brand": "Banco Nacional de Costa Rica", "brand:en": "National Bank of Costa Rica", "brand:es": "Banco Nacional de Costa Rica", "brand:wikidata": "Q2917708", "brand:wikipedia": "es:Banco Nacional de Costa Rica", "name": "Banco Nacional", "name:en": "National Bank", "name:es": "Banco Nacional", "official_name": "Banco Nacional de Costa Rica", "official_name:en": "National Bank of Costa Rica", "official_name:es": "Banco Nacional de Costa Rica", "short_name": "BNCR"}}, {"type": "way", "id": 225633492, "nodes": [2343902696, 2343902667, 2343902633, 2343902666, 2343902696], "tags": {"addr:city": "Guadalupe", "amenity": "bank", "name": "Banco de Costa Rica", "shop": "yes"}}, {"type": "way", "id": 225633497, "nodes": [2343902949, 2343903034, 2343903046, 2343903109, 2343903105, 2343902928, 2343902949], "tags": {"amenity": "bank", "name": "COOPENAE", "phone": "2257-9060", "shop": "yes"}}, {"type": "way", "id": 225856059, "nodes": [2346685627, 2346685646, 2346685712, 2346685761, 2334047999, 2334047998, 2334047997, 2334047996, 2346685627], "tags": {"amenity": "bank", "atm": "yes", "name": "Banco Popular", "opening_hours": "Mo-Fr 10:00-20:00; Sa 10:00-18:00", "phone": "2542-3600", "source": "KG Ground Survey 2015", "website": "www.popularenlinea.fi.cr"}}, {"type": "way", "id": 225856060, "nodes": [2346685960, 2346685842, 2346685907, 2346685956, 2346686050, 2346686146, 2346686111, 2346686090, 2346686056, 2346686037, 2346686001, 2346685967, 2346685964, 2346685971, 2346685960], "tags": {"amenity": "bank", "atm": "yes", "name": "Banco de Costa Rica", "opening_hours": "We-Su 11:00-18:00", "phone": "2251-2422", "website": "www.bancobcr.com"}}, {"type": "way", "id": 225856071, "nodes": [2346685894, 2346685890, 2346685886, 2346685880, 2346685879, 2346685882, 2346685888, 2346685892, 2346685896, 2346685898, 2346685894], "tags": {"amenity": "bank", "name": "Credit"}}, {"type": "way", "id": 225868703, "nodes": [2346685958, 2346795838, 2346795801, 2346685825, 2346685816, 2346685776, 2346685842, 2346685907, 2346685958], "tags": {"addr:city": "Desamparados", "addr:street": "Avenida 84", "amenity": "bank", "atm": "yes", "name": "BAC Credomatic"}}, {"type": "way", "id": 226624600, "nodes": [2354014632, 2354014601, 2312201374, 2354014572, 2354014632], "tags": {"addr:city": "400 mts al Oeste de las Oficinas de Acueductos y Alcantarillados", "amenity": "bank", "brand": "BAC Credomatic", "brand:wikidata": "Q5715556", "brand:wikipedia": "en:BAC Credomatic", "level": "1", "name": "BAC Credomatic", "opening_hours": "24/7"}}, {"type": "way", "id": 226624603, "nodes": [2354014835, 2354014736, 2354014706, 2354014528, 2354014539, 2354014776, 2354014835], "tags": {"addr:place": "Plaza Rohrmoser", "amenity": "bank", "level": "0", "name": "Banco Nacional", "opening_hours": "Mo-Su 13:00-19:00", "phone": "2231-3122", "website": "https://www.bncr.fi.cr/BNCR/Default.aspx"}}, {"type": "way", "id": 226624604, "nodes": [2312201494, 2312201492, 2354016004, 2354016045, 2312201494], "tags": {"amenity": "bank", "brand": "BCR", "brand:wikidata": "Q6951632", "brand:wikipedia": "es:Banco de Costa Rica", "level": "0", "name": "Banco de Costa Rica", "official_name": "Banco de Costa Rica", "official_name:en": "Bank of Costa Rica", "official_name:es": "Banco de Costa Rica", "opening_hours": "Mo-Sa 11:00-18:00", "phone": "2290-1129 2290-0927"}}, {"type": "way", "id": 226624612, "nodes": [2354015903, 2354015799, 2354015604, 2354015737, 2354015903], "tags": {"addr:city": "San Jos\u00e9", "addr:street": "V\u00eda 104", "amenity": "bank", "level": "0", "name": "Banco Cathay", "opening_hours": "Mo-Fr 09:00-18:00; Sa 09:00-13:00", "phone": "2290-9656", "website": "https://www.bancocathay.com/"}}, {"type": "way", "id": 251671908, "nodes": [2578568157, 2346685774, 2578568158, 2346685686, 2346685695, 2346685684, 2346685665, 2346685652, 2578568156, 2346685633, 2578568157], "tags": {"amenity": "bank", "email": "desamparados@lafise.fi.cr", "name": "Banco Lafise", "opening_hours": "Mo-Sa 10:00-18:00", "phone": "2246-0800", "website": "www.lafise.fi.cr"}}, {"type": "way", "id": 264040873, "nodes": [2697147531, 2697147533, 2697147535, 2697147537, 2697147539, 9170636976, 9170636979, 2697147541, 2697147531], "tags": {"addr:city": "San Jos\u00e9", "addr:housenumber": "0004", "addr:street": "Avenida 2", "amenity": "bank", "atm": "yes", "brand": "BCR", "brand:wikidata": "Q6951632", "brand:wikipedia": "es:Banco de Costa Rica", "building": "yes", "building:levels": "7", "name": "Banco de Costa Rica", "opening_hours": "Mo-Fr 08:30-18:00"}}, {"type": "way", "id": 264042239, "nodes": [2697151218, 2697151219, 2697151220, 2697151221, 2697151218], "tags": {"addr:city": "San Jos\u00e9", "addr:housenumber": "0004", "addr:street": "Calle 2", "amenity": "bank", "building": "yes", "building:levels": "6", "name": "Banco Central de Costa Rica", "opening_hours": "Mo-Fr 09:15-16:00", "operator": "BCCR", "phone": "(506) 2243-3333", "website": "https://www.bccr.fi.cr/SitePages/default.aspx"}}, {"type": "way", "id": 264142979, "nodes": [2698066669, 2698066670, 2698066671, 2698066672, 2698066669], "tags": {"addr:city": "San Jos\u00e9", "addr:housenumber": "0036", "addr:street": "Avenida 1", "amenity": "bank", "atm": "yes", "brand": "Banco Nacional de Costa Rica", "brand:wikidata": "Q2917708", "brand:wikipedia": "es:Banco Nacional de Costa Rica", "building": "commercial", "building:levels": "17", "name": "Banco Nacional", "official_name": "Banco Nacional de Costa Rica", "opening_hours": "Mo-Fr 07:30-19:00", "operator": "BNCR", "short_name": "BNCR"}}, {"type": "way", "id": 311575794, "nodes": [3172642291, 3172642292, 3172642293, 3172642294, 3172642291], "tags": {"addr:city": "San Pedro", "addr:street": "V\u00eda 2", "amenity": "bank", "atm": "yes", "building": "yes", "building:levels": "4", "name": "Banco Cathay"}}, {"type": "way", "id": 319791970, "nodes": [3262524861, 5927973375, 5927973373, 5927973371, 5927973368, 3917643760, 5927973380, 3262524863, 3262524864, 5927973384, 5927973386, 5927973385, 3262524865, 5927973379, 3262524861], "tags": {"addr:city": "San Jos\u00e9", "addr:street": "Calle 25", "amenity": "bank", "atm": "yes", "brand": "BCR", "brand:wikidata": "Q6951632", "brand:wikipedia": "es:Banco de Costa Rica", "building": "yes", "name": "BCR", "official_name": "Banco de Costa Rica"}}, {"type": "way", "id": 324601549, "nodes": [3969557899, 3969557896, 3313130542, 3313130543, 3969557899], "tags": {"addr:city": "San Pedro", "addr:street": "Boulevard Dent", "alt_name": "BANHVI", "amenity": "bank", "atm": "yes", "building": "yes", "name": "Banco Hipotecario de la Vivienda", "source": "KG Ground Survey 2015"}}, {"type": "way", "id": 340815566, "nodes": [3480659390, 3480659391, 3480659392, 3932504937, 3480660393, 3480659390], "tags": {"addr:city": "San Francisco de Dos R\u00edos", "addr:street": "V\u00eda 211", "amenity": "bank", "building": "yes", "name": "Banco de Costa Rica", "source": "KG Ground Survey 2015"}}, {"type": "way", "id": 341069628, "nodes": [3483005034, 3483005035, 3483005036, 3483005037, 3483005034], "tags": {"addr:city": "Desamparados", "amenity": "bank", "atm": "yes", "building": "yes", "name": "Banco de Costa Rica"}}, {"type": "way", "id": 341072437, "nodes": [3483015936, 3483015937, 3483015938, 7221146351, 7221146352, 7221146350, 7221146349, 3483015939, 3483015936], "tags": {"addr:city": "Desamparados", "amenity": "bank", "atm": "yes", "building": "yes", "name": "Banco Nacional"}}, {"type": "way", "id": 369592148, "nodes": [3733669538, 3733669539, 3733669540, 3733669541, 3733669538], "tags": {"addr:city": "San Francisco de Dos R\u00edos", "addr:street": "V\u00eda 211", "amenity": "bank", "atm": "no", "building": "yes", "drive_through": "no", "name": "Davivienda", "source": "KG Ground Survey 2015"}}, {"type": "way", "id": 369730340, "nodes": [3734986877, 3734986878, 3734986879, 3827740206, 3734986880, 3734986881, 3734986882, 3734986877], "tags": {"addr:city": "San Jos\u00e9", "addr:street": "Paseo Col\u00f3n", "amenity": "bank", "atm": "yes", "building": "yes", "drive_through": "yes", "name": "Banco Nacional", "operator": "BNCR"}}, {"type": "way", "id": 369741920, "nodes": [3735086174, 3735086175, 3735086176, 6114336934, 6114336935, 3735086177, 3735086178, 3735086174], "tags": {"addr:city": "San Jos\u00e9", "addr:street": "Calle 76", "amenity": "bank", "building": "yes", "building:colour": "#f5deb3", "building:levels": "3", "name": "Banco Davivienda", "roof:colour": "grey"}}, {"type": "way", "id": 371524370, "nodes": [3750905484, 3917602764, 3750905485, 3750905487, 4544276381, 4544276382, 3750905488, 3834663700, 3834663699, 3834663698, 3834663697, 3750905484], "tags": {"addr:city": "San Jos\u00e9", "addr:street": "Avenida 10", "amenity": "bank", "atm": "yes", "brand": "Banco Nacional de Costa Rica", "brand:wikidata": "Q2917708", "brand:wikipedia": "es:Banco Nacional de Costa Rica", "building": "yes", "name": "Banco Nacional", "official_name": "Banco Nacional de Costa Rica", "short_name": "BNCR"}}, {"type": "way", "id": 371532983, "nodes": [3750982185, 3750982188, 3750982189, 3750982190, 3750982191, 9166102667, 9166102666, 3750982192, 9166103206, 3750982186, 3750982185], "tags": {"addr:city": "San Jos\u00e9", "addr:street": "Avenida 1", "amenity": "bank", "atm": "yes", "building": "yes", "name": "Banco Improsa", "opening_hours": "Mo-Fr 09:00-18:00"}}, {"type": "way", "id": 371532984, "nodes": [3750982188, 3750982193, 3750982194, 3750982190, 3750982189, 3750982188], "tags": {"addr:city": "San Jos\u00e9", "addr:street": "Avenida 1", "amenity": "bank", "atm": "yes", "building": "yes", "name": "Banco Davivienda"}}, {"type": "way", "id": 372485523, "nodes": [3760442887, 3760442888, 3760442889, 3760442890, 3760442887], "tags": {"addr:city": "Zapote", "addr:street": "V\u00eda 204", "amenity": "bank", "atm": "yes", "building": "yes", "drive_through": "yes", "name": "Banco Nacional", "operator": "Banco Nacional de Costa Rica", "source": "KG Ground Survey 2015"}}, {"type": "way", "id": 378173736, "nodes": [3815907158, 3815907159, 3815907162, 3815907160, 3815907161, 3815907158], "tags": {"addr:city": "San Jos\u00e9", "addr:street": "Paseo Col\u00f3n", "amenity": "bank", "atm": "yes", "building": "yes", "building:levels": "2", "name": "Banco Davivienda", "source": "KG Ground Survey 2015"}}, {"type": "way", "id": 378221717, "nodes": [3816275908, 3816275909, 3816275910, 3816275911, 3816275908], "tags": {"addr:street": "V\u00eda 2", "amenity": "bank", "building": "yes", "name": "BAC", "source": "KG Ground Survey 2015 Costa Rica"}}, {"type": "way", "id": 378327298, "nodes": [3817392521, 3817392522, 3817392523, 3817392524, 3817392521], "tags": {"addr:city": "Santa Ana", "addr:street": "Calle Central", "amenity": "bank", "atm": "yes", "building": "yes", "name": "Banco Popular", "opening_hours": "Mo-Fr 08:45-16:30", "phone": "22037997 / 22038004 / 22037996"}}, {"type": "way", "id": 378329970, "nodes": [3817447566, 3817447567, 3817447568, 3817447569, 3817447566], "tags": {"addr:city": "Santa Ana", "addr:street": "Avenida 1", "amenity": "bank", "atm": "yes", "building": "yes", "name": "Banco de Costa Rica"}}, {"type": "way", "id": 378332347, "nodes": [3817474964, 3817472707, 3817474965, 3817474966, 3817474962, 3817474963, 3817474964], "tags": {"addr:city": "San Jos\u00e9", "addr:street": "Avenida 2", "amenity": "bank", "atm": "yes", "building": "yes", "name": "Banco de Costa Rica", "source": "KG Ground Survey 2014"}}, {"type": "way", "id": 378345156, "nodes": [3817583063, 3817583064, 3817583065, 3817583066, 3817583063], "tags": {"addr:city": "San Jos\u00e9", "addr:street": "Avenida 2", "amenity": "bank", "atm": "yes", "building": "yes", "building:levels": "2", "name": "Coopealianza", "source": "KG Ground Survey 2014"}}, {"type": "way", "id": 378355500, "nodes": [3817683490, 3817683491, 3817683492, 973230322, 973230333, 3817683490], "tags": {"addr:city": "San Pedro", "addr:street": "V\u00eda 2", "amenity": "bank", "building": "yes", "name": "Banco Centroamericano de Integraci\u00f3n Econ\u00f3mica", "short_name": "BCIE"}}, {"type": "way", "id": 378385214, "nodes": [3817987331, 3817987332, 3817987333, 3817987334, 3817987331], "tags": {"amenity": "bank", "building": "office", "building:levels": "2", "name": "Scotiabank", "opening_hours": "Mo-Fr 09:00-17:00; Sa 09:00-12:00", "phone": "2283 2747", "source": "KG Ground Survey 2015", "wheelchair": "yes"}}, {"type": "way", "id": 378473601, "nodes": [3818859683, 3818859684, 7308136267, 3818859685, 4483243803, 4483243800, 3818859686, 4462907031, 3818859683], "tags": {"addr:city": "Curridabat", "addr:street": "V\u00eda 215", "amenity": "bank", "atm": "yes", "building": "office", "building:levels": "3", "drive_through": "yes", "name": "BNCR Curridabat", "name:es": "Banco Nacional de Costa Rica, Curridabat", "opening_hours": "Mo-Fr 08:30-15:45", "operator": "Banco Nacional de Costa Rica", "source": "KG Ground Survey 2015", "wheelchair": "yes"}}, {"type": "way", "id": 378474397, "nodes": [3818907662, 3934576193, 3489298536, 3489298537, 3818907664, 3818907663, 3818907662], "tags": {"amenity": "bank", "atm": "yes", "building": "yes", "name": "Mucap", "source": "KG Ground Survey 2015"}}, {"type": "way", "id": 379467916, "nodes": [3827647560, 3827647561, 3827647562, 3827647563, 3827647564, 3827647560], "tags": {"addr:city": "San Jos\u00e9", "addr:street": "Calle 12", "amenity": "bank", "building": "yes", "name": "Western Union", "source": "KG Ground Survey 2014"}}, {"type": "way", "id": 379538853, "nodes": [3828495138, 3828495139, 3828495140, 3828495131, 3828495138], "tags": {"addr:city": "San Jos\u00e9", "addr:street": "Calle 1", "amenity": "bank", "building": "yes", "name": "Banco Popular Centro de Cr\u00e9dito sobre Alhajas", "source": "KG Ground Survey 2014"}}, {"type": "way", "id": 379596001, "nodes": [3829333161, 9219512105, 9219512104, 3829333162, 3829333163, 3829333164, 3829333161], "tags": {"addr:city": "San Jos\u00e9", "addr:street": "Calle Alfredo Volio", "amenity": "bank", "atm": "yes", "brand": "BCR", "brand:wikidata": "Q6951632", "brand:wikipedia": "es:Banco de Costa Rica", "building": "yes", "building:levels": "4", "name": "Banco de Costa Rica", "official_name": "Banco de Costa Rica", "operator": "BCR", "source": "KG Ground Survey 2014"}}, {"type": "way", "id": 379600782, "nodes": [3750982194, 3829403762, 3829403763, 3750982191, 3750982190, 3750982194], "tags": {"addr:city": "San Jos\u00e9", "addr:street": "Calle Central", "amenity": "bank", "atm": "yes", "building": "yes", "building:levels": "2", "name": "Banco BCT", "source": "KG Ground Survey 2014"}}, {"type": "way", "id": 379616088, "nodes": [3829502457, 3829502460, 3829494868, 3829494869, 3829502457], "tags": {"addr:city": "San Jos\u00e9", "addr:street": "Avenida 3", "amenity": "bank", "building": "yes", "name": "Banco de Costa Rica", "source": "KG Ground Survey 2015"}}, {"type": "way", "id": 379617430, "nodes": [3829502461, 3829502462, 3829502463, 3829502464, 3829502461], "tags": {"addr:city": "San Jos\u00e9", "addr:street": "Calle Central", "amenity": "bank", "building": "yes", "name": "BAC Credomatic", "source": "KG Ground Survey 2014"}}, {"type": "way", "id": 380106645, "nodes": [3834555819, 3834555820, 3834555821, 3834555822, 3834555823, 3834555824, 3834555825, 3834555826, 3834555819], "tags": {"addr:city": "San Rafael", "addr:street": "Autopista Pr\u00f3spero Fern\u00e1ndez", "amenity": "bank", "atm": "yes", "building": "yes", "name": "BAC Credomatic", "source": "KG Ground Survey 2015"}}, {"type": "way", "id": 380170977, "nodes": [3828618883, 3828618881, 3835124038, 3835124039, 3828618883], "tags": {"addr:city": "San Jos\u00e9", "addr:street": "Avenida 1", "alt_name": "CITI BANK, San jos\u00e9", "amenity": "bank", "atm": "yes", "building": "yes", "name": "Scotiabank", "opening_hours": "Mo-Fr 09:00-17:00; Sa 09:00-12:00", "phone": "25238600", "source": "KG Ground Survey 2014;sitio web del banco"}}, {"type": "way", "id": 380171993, "nodes": [3750972041, 3835129525, 3835129536, 3835129526, 3835129527, 3750972041], "tags": {"addr:city": "San Jos\u00e9", "addr:street": "Avenida 1", "amenity": "bank", "building": "yes", "name": "Banco Lafise", "source": "KG Ground Survey 2014"}}, {"type": "way", "id": 380172810, "nodes": [3835134900, 3835139098, 3829442212, 3829442209, 3829451310, 3750988215, 3835134900], "tags": {"addr:city": "San Jos\u00e9", "addr:street": "Avenida 1", "amenity": "bank", "atm": "yes", "building": "yes", "name": "Banco Promerica", "source": "KG Ground Survey 2014"}}, {"type": "way", "id": 380631182, "nodes": [3839523447, 3839528764, 3839528765, 3839528766, 3839528767, 3839528768, 3839528769, 3839528770, 3839523447], "tags": {"addr:city": "Desamparados", "addr:street": "Avenida 82", "amenity": "bank", "atm": "yes", "building": "yes", "name": "Grupo Mutual", "source": "KG Ground Survey 2015"}}, {"type": "way", "id": 380674292, "nodes": [3839993119, 3839993120, 3839993121, 3839993122, 3839993123, 3839993124, 3839993119], "tags": {"addr:city": "San Jos\u00e9", "addr:street": "Avenida Estado de Israel", "amenity": "bank", "atm": "yes", "building": "yes", "name": "Banco de Costa Rica", "source": "KG Ground Survey 2015"}}, {"type": "way", "id": 380819958, "nodes": [3841281889, 3841281890, 3841281898, 3841281892, 3841281893, 3841281894, 3841281895, 3841281896, 3841281897, 3841281889], "tags": {"addr:city": "San Jos\u00e9", "addr:street": "V\u00eda 104", "amenity": "bank", "building": "yes", "name": "BAC Credomatic", "source": "KG Ground Survey 2015"}}, {"type": "way", "id": 380862457, "nodes": [3841646573, 4194199450, 3841646574, 3841646575, 4194199449, 3841646576, 3841646577, 3841646578, 3841646579, 3841646580, 3841646581, 3841646582, 3841646583, 3841646573], "tags": {"addr:city": "San Jos\u00e9", "addr:street": "Calle 20", "amenity": "bank", "atm": "yes", "building": "yes", "name": "Coopeservidores", "source": "KG Ground Survey 2015", "website": "https://www.coopeservidores.fi.cr/"}}, {"type": "way", "id": 380891366, "nodes": [3841883367, 3841883368, 3841883369, 3841883370, 3841883367], "tags": {"addr:city": "San Jos\u00e9", "addr:street": "Calle 12", "amenity": "bank", "building": "yes", "name": "Western Union", "source": "KG Ground Survey 2015"}}, {"type": "way", "id": 381055534, "nodes": [3750858919, 5364535962, 3843212329, 3843212327, 3843212328, 5364535963, 3750858919], "tags": {"addr:city": "San Jos\u00e9", "addr:street": "Calle Central", "amenity": "bank", "atm": "yes", "building": "yes", "name": "Banco Popular", "source": "KG Ground Survey 2015"}}, {"type": "way", "id": 381055539, "nodes": [3750862325, 3843212336, 3843212337, 3843212338, 3750858924, 3750862325], "tags": {"addr:city": "San Jos\u00e9", "addr:street": "Calle 1", "amenity": "bank", "atm": "yes", "building": "yes", "name": "Banco de Costa Rica", "source": "KG Ground Survey 2015"}}, {"type": "way", "id": 381060756, "nodes": [3843230675, 3843230676, 3843230677, 3843230678, 3843230675], "tags": {"addr:city": "San Jos\u00e9", "addr:street": "Calle 13", "amenity": "bank", "building": "yes", "name": "Servicoop R.L.", "source": "KG Ground Survey 2015"}}, {"type": "way", "id": 381141645, "nodes": [3735086176, 3843840513, 3843840514, 6114336933, 3843840515, 3735086175, 3735086176], "tags": {"addr:city": "San Jos\u00e9", "addr:street": "V\u00eda 104", "amenity": "bank", "building": "yes", "building:levels": "2", "name": "Banco Popular", "roof:colour": "#646F5E"}}, {"type": "way", "id": 381363733, "nodes": [3845785472, 3845785473, 3845785474, 3845785475, 3845785472], "tags": {"addr:city": "Alajuelita", "addr:street": "V\u00eda 110", "amenity": "bank", "building": "yes", "name": "Banco Popular", "source": "KG Ground Survey 2015"}}, {"type": "way", "id": 381363756, "nodes": [3845785502, 3845785503, 3845785504, 3845785505, 3845785502], "tags": {"addr:city": "Alajuelita", "addr:street": "Avenida 66", "amenity": "bank", "atm": "yes", "brand": "Banco Nacional", "brand:wikidata": "Q4854104", "brand:wikipedia": "en:Banco Nacional", "building": "yes", "name": "Banco Nacional", "source": "KG Ground Survey 2015"}}, {"type": "way", "id": 389623966, "nodes": [3927914366, 3927914367, 3927914368, 3927914369, 3927914366], "tags": {"addr:city": "Guadalupe", "addr:street": "Avenida 18", "amenity": "bank", "building": "yes", "name": "Bancr\u00e9dito", "source": "KG Ground Survey 2015"}}, {"type": "way", "id": 389786232, "nodes": [3929487054, 3929487055, 3929487056, 3929487657, 3929487054], "tags": {"addr:city": "Santa Ana", "addr:street": "Avenida 2", "amenity": "bank", "atm": "yes", "brand": "Banco Nacional de Costa Rica", "brand:en": "National Bank of Costa Rica", "brand:es": "Banco Nacional de Costa Rica", "brand:wikidata": "Q2917708", "brand:wikipedia": "es:Banco Nacional de Costa Rica", "building": "yes", "name": "Banco Nacional", "name:en": "National Bank", "name:es": "Banco Nacional", "official_name": "Banco Nacional de Costa Rica", "official_name:en": "National Bank of Costa Rica", "official_name:es": "Banco Nacional de Costa Rica", "short_name": "BNCR", "source": "KG Ground Survey 2015"}}, {"type": "way", "id": 390100035, "nodes": [3932569824, 3932569826, 3932569827, 3932569825, 3932569824], "tags": {"addr:city": "San Francisco de Dos R\u00edos", "addr:street": "V\u00eda 211", "amenity": "bank", "atm": "yes", "building": "yes", "name": "Scotiabank", "source": "KG Ground Survey 2015"}}, {"type": "way", "id": 390283741, "nodes": [3934407306, 3934407307, 3934407308, 3934407309, 3934407306], "tags": {"addr:city": "Curridabat", "addr:street": "Calle 97", "amenity": "bank", "atm": "yes", "building": "office", "building:levels": "1", "drive_through": "no", "name": "Banco Popular", "opening_hours": "08:00 - 16:00", "source": "KG Ground Survey 2015", "wheelchair": "yes"}}, {"type": "way", "id": 390306078, "nodes": [3934576201, 3934576202, 3934576199, 3934576203, 3934576204, 3817790400, 3934576201], "tags": {"addr:city": "San Pedro", "addr:street": "V\u00eda 2", "amenity": "bank", "building": "yes", "building:levels": "2", "name": "Scotiabank", "source": "KG Ground Survey 2015"}}, {"type": "way", "id": 391302829, "nodes": [3945085818, 3945085821, 3945085822, 3945085819, 3945085818], "tags": {"addr:city": "San Antonio", "amenity": "bank", "building": "yes", "name": "Banco Popular", "source": "KG Ground Survey 2015"}}, {"type": "way", "id": 391404320, "nodes": [3946290182, 3946290185, 3946290186, 3946290187, 3946290183, 3946290182], "tags": {"amenity": "bank", "atm": "yes", "building": "yes", "name": "Banco de Costa Rica", "source": "KG Ground Survey 2015"}}, {"type": "way", "id": 391445777, "nodes": [3946656933, 3946656934, 3946656935, 3946656936, 3946656933], "tags": {"addr:city": "San Jos\u00e9", "addr:street": "Avenida 7", "amenity": "bank", "atm": "yes", "brand": "BCR", "brand:wikidata": "Q6951632", "brand:wikipedia": "es:Banco de Costa Rica", "building": "yes", "name": "Banco de Costa Rica", "official_name": "Banco de Costa Rica", "source": "KG Ground Survey 2015"}}, {"type": "way", "id": 391605230, "nodes": [3948263130, 3948263131, 3948263139, 3948263132, 3948263133, 3948263130], "tags": {"addr:city": "San Rafael", "addr:street": "Avenida Central", "amenity": "bank", "atm": "yes", "building": "yes", "name": "Banco de Costa Rica", "source": "KG Ground Survey 2015"}}, {"type": "way", "id": 391655475, "nodes": [3948815740, 3948815741, 3948815742, 3948815743, 3948815740], "tags": {"addr:city": "San Rafael de Escaz\u00fa", "addr:street": "Carretera John F. Kennedy", "amenity": "bank", "building": "yes", "name": "Banco Nacional", "source": "KG Ground Survey 2015"}}, {"type": "way", "id": 391662060, "nodes": [3948874116, 3948874117, 3948874118, 3948874119, 3948874120, 3948874121, 3948874122, 3948874123, 3948874124, 3948874125, 3948874126, 3948874116], "tags": {"addr:city": "San Rafael", "addr:street": "Carretera John F. Kennedy", "amenity": "bank", "atm": "yes", "building": "yes", "name": "BAC Credomatic", "source": "KG Ground Survey 2015"}}, {"type": "way", "id": 391667907, "nodes": [3948961683, 3948961684, 3948961685, 3948961686, 3948961683], "tags": {"addr:city": "San Jos\u00e9", "addr:street": "Avenida 8", "amenity": "bank", "atm": "yes", "brand": "BCR", "brand:wikidata": "Q6951632", "brand:wikipedia": "es:Banco de Costa Rica", "building": "yes", "name": "Banco de Costa Rica", "source": "KG Ground Survey 2015"}}, {"type": "way", "id": 391669658, "nodes": [3508683657, 3948980462, 3948980463, 3948980464, 3948980465, 3508683657], "tags": {"addr:city": "San Rafael", "addr:street": "V\u00eda 310", "amenity": "bank", "atm": "yes", "building": "yes", "name": "Prival Bank", "source": "KG Ground Survey 2015"}}, {"type": "way", "id": 392523354, "nodes": [3957414926, 3957414927, 3957414928, 3957414929, 3957414930, 3957414926], "tags": {"addr:city": "Cartago", "addr:full": "Costado sur Parroquia del Carmen", "addr:street": "Avenida Central", "amenity": "bank", "building": "yes", "name": "Banco Nacional", "opening_hours": "Mo-Fr 8:30-15:45", "phone": "2550-1400", "source": "KG Ground Survey 2015"}}, {"type": "way", "id": 392530227, "nodes": [3957475617, 3957475618, 3957475619, 3957475620, 3957475617], "tags": {"addr:city": "Oriental", "addr:full": "200 mts. este de la Ruina de Cartago", "addr:street": "Avenida Central", "amenity": "bank", "building": "yes", "name": "Banco Davivienda", "opening_hours": "Mo-Fr 9:00-17:00; Sa 9:00-12:30", "phone": "2287-1550", "source": "KG Ground Survey 2015"}}, {"type": "way", "id": 392530230, "nodes": [3957475629, 3957475630, 3957475631, 3957475635, 3957475632, 3957475629], "tags": {"addr:city": "Cartago", "addr:full": "100 m. norte de la esquina noroeste de los Tribunales de Justicia", "addr:street": "Avenida Centralr", "amenity": "bank", "building": "yes", "name": "Banco de Costa Rica", "opening_hours": "Mo-Fr 11:00-18:00", "phone": "2591-7343", "source": "KG Ground Survey 2015"}}, {"type": "way", "id": 392530236, "nodes": [3957475651, 3957475652, 3957475653, 3957475654, 3957475651], "tags": {"addr:city": "Cartago", "addr:street": "Avenida Central", "amenity": "bank", "building": "yes", "name": "Mucap", "source": "KG Ground Survey 2015"}}, {"type": "way", "id": 392530240, "nodes": [3957475671, 3957475672, 3957475673, 3957475674, 3957475675, 3957475676, 3957475671], "tags": {"addr:city": "Oriental", "addr:full": "250 m oeste de esquina suroeste de La Bas\u00edlica de Nuestra Se\u00f1ora de Los \u00c1ngeles.", "addr:street": "Avenida Central", "amenity": "bank", "atm": "yes", "brand": "Banco Nacional de Costa Rica", "brand:en": "National Bank of Costa Rica", "brand:es": "Banco Nacional de Costa Rica", "brand:wikidata": "Q2917708", "brand:wikipedia": "es:Banco Nacional de Costa Rica", "building": "yes", "name": "Banco Nacional", "name:en": "National Bank", "name:es": "Banco Nacional", "official_name": "Banco Nacional de Costa Rica", "official_name:en": "National Bank of Costa Rica", "official_name:es": "Banco Nacional de Costa Rica", "opening_hours": "Mo-Fr 8:30-15:45", "phone": "2551-9290", "short_name": "BNCR", "source": "KG Ground Survey 2015"}}, {"type": "way", "id": 392688843, "nodes": [3958761038, 3958761039, 3958761040, 3958761041, 3958761038], "tags": {"addr:city": "Tres R\u00edos", "addr:street": "Avenida 1", "amenity": "bank", "atm": "yes", "brand": "BCR", "brand:wikidata": "Q6951632", "brand:wikipedia": "es:Banco de Costa Rica", "building": "yes", "drive_through": "yes", "name": "Banco de Costa Rica", "official_name": "Banco de Costa Rica", "official_name:en": "Bank of Costa Rica", "official_name:es": "Banco de Costa Rica", "opening_hours": "Mo-Fr 08:30-17:00", "phone": "2279 9061", "source": "sitio web del banco"}}, {"type": "way", "id": 392688844, "nodes": [3958761042, 3958761043, 3958761044, 3958761045, 3958761042], "tags": {"addr:city": "Tres R\u00edos", "addr:street": "Avenida 1", "amenity": "bank", "atm": "yes", "brand": "Banco Nacional de Costa Rica", "brand:en": "National Bank of Costa Rica", "brand:es": "Banco Nacional de Costa Rica", "brand:wikidata": "Q2917708", "brand:wikipedia": "es:Banco Nacional de Costa Rica", "building": "office", "building:levels": "2", "drive_through": "yes", "name": "Banco Nacional", "name:en": "National Bank", "name:es": "Banco Nacional", "official_name": "Banco Nacional de Costa Rica", "official_name:en": "National Bank of Costa Rica", "official_name:es": "Banco Nacional de Costa Rica", "opening_hours": "Mo-Fr 08:30-15:45", "short_name": "BNCR", "source": "KG Ground Survey 2016", "wheelchair": "yes"}}, {"type": "way", "id": 392839484, "nodes": [3960345368, 3960345369, 3960345370, 3960345371, 3960345372, 3960345373, 3960345374, 3960345375, 3960345376, 3960345368], "tags": {"addr:city": "Cartago", "addr:street": "Avenida 1", "amenity": "bank", "atm": "yes", "building": "yes", "name": "Coopealianza", "source": "KG Ground Survey 2015"}}, {"type": "way", "id": 392860516, "nodes": [3960511018, 3960511011, 3960511013, 3960511019, 3960511020, 3960511023, 3960511018], "tags": {"amenity": "bank", "building": "yes", "name": "Banco de Costa Rica", "source": "KG Ground Survey 2015"}}, {"type": "way", "id": 392860518, "nodes": [3960511024, 3960511025, 3960511026, 3960511027, 3960511022, 3960511024], "tags": {"addr:city": "Cartago", "addr:street": "Avenida 1", "amenity": "bank", "building": "yes", "name": "Banco de Costa Rica", "source": "KG Ground Survey 2015"}}, {"type": "way", "id": 392874089, "nodes": [3960675601, 3960675602, 3960675603, 3960675604, 3960675601], "tags": {"addr:city": "Cartago", "addr:street": "Avenida 4", "amenity": "bank", "building": "yes", "name": "Scotiabank", "source": "KG Ground Survey 2015"}}, {"type": "way", "id": 393488627, "nodes": [3966791681, 3966791682, 3966791683, 3967527431, 3966791681], "tags": {"addr:city": "San Rafael Abajo", "amenity": "bank", "atm": "yes", "brand": "Banco Nacional de Costa Rica", "brand:wikidata": "Q2917708", "brand:wikipedia": "es:Banco Nacional de Costa Rica", "building": "yes", "name": "Banco Nacional", "official_name": "Banco Nacional de Costa Rica", "opening_hours": "Mo-Fr 8:30-15:45", "short_name": "BNCR"}}, {"type": "way", "id": 393504073, "nodes": [3966940867, 3966940868, 3966940869, 3966940870, 3966940871, 3966940867], "tags": {"addr:city": "Para\u00edso", "addr:street": "Avenida 0", "amenity": "bank", "building": "yes", "name": "Mucap", "source": "KG Ground Survey 2015"}}, {"type": "way", "id": 393504081, "nodes": [3966940895, 3966940898, 3966940903, 3966940899, 3966940896, 3966940895], "tags": {"addr:city": "Para\u00edso", "addr:street": "Avenida 0", "amenity": "bank", "building": "yes", "name": "Mucap", "source": "KG Ground Survey 2015"}}, {"type": "way", "id": 393536248, "nodes": [4687829114, 3967441793, 4687829115, 4687829114], "tags": {"amenity": "bank", "building": "yes", "name": "Cajero BAC San Jos\u00e9"}}, {"type": "way", "id": 393547602, "nodes": [3967527425, 3967527426, 3967527427, 3967527428, 3967527425], "tags": {"amenity": "bank", "building": "yes", "name": "Cajero Autom\u00e1tico ATH"}}, {"type": "way", "id": 393909023, "nodes": [3969557896, 3969557897, 3969557898, 3969557899, 3969557896], "tags": {"addr:city": "San Pedro", "addr:street": "Boulevard Dent", "amenity": "bank", "building": "yes", "email": "secmca@secmca.org", "name": "Consejo Monetario Centroamericano", "phone": "+506 2280-6447", "website": "http://www.secmca.org/"}}, {"type": "way", "id": 394184329, "nodes": [3971974732, 3971974733, 3971974734, 3971974735, 3971974736, 3971974737, 3971974738, 3971974739, 3971974740, 3971974741, 3971974742, 3971974743, 3971974744, 3971974732], "tags": {"addr:city": "Cartago", "amenity": "bank", "area": "yes", "building": "yes", "name": "Coopenae", "source": "KG Ground Survey 2015"}}, {"type": "way", "id": 394184346, "nodes": [3971976394, 3971976395, 3971976396, 3971976390, 3971976389, 3971976394], "tags": {"addr:city": "Oriental", "addr:street": "Avenida 1", "amenity": "bank", "area": "yes", "atm": "yes", "building": "yes", "name": "Bancr\u00e9dito", "source": "KG Ground Survey 2015"}}, {"type": "way", "id": 394209155, "nodes": [3972174916, 3972174930, 3972174917, 3972174918, 3972174919, 3972174920, 3972174921, 3972174922, 3972174923, 3972174924, 3972174925, 3972174926, 3972174916], "tags": {"addr:city": "Occidental", "addr:full": "Edificio Don Lalo, 350 metros Oeste del costado Sur del Mercado Central, carretera a Metrocentro.", "addr:street": "Avenida 12 de Abril", "amenity": "bank", "area": "yes", "building": "yes", "name": "Banco Popular", "opening_hours": "Mo-Fr 12:45-19:30; Sa 8:15-11:30", "phone": "2552-2061 / 2591-3567 / 2551-1454", "source": "KG Ground Survey 2015"}}, {"type": "way", "id": 394223580, "nodes": [3972334994, 3972334993, 3972335000, 3972335001, 3972335002, 3972335003, 3972335004, 3972335005, 3972334995, 5913037190, 3972334994], "tags": {"addr:city": "cartago", "addr:full": "de la entrada principal del san luis gonzaga 50 norte y 74 sur", "addr:street": "Avenida 4", "amenity": "bank", "area": "yes", "building": "yes", "name": "Banco BCT", "opening_hours": "Mo-Fr 8:15-17:30", "phone": "25529797", "source": "KG Ground Survey 2015"}}, {"type": "way", "id": 394226863, "nodes": [3972365805, 3972365806, 3972365807, 3972365808, 3972365804, 3972365805], "tags": {"addr:city": "Para\u00edso", "addr:street": "Avenida 0", "amenity": "bank", "area": "yes", "atm": "yes", "brand": "BCR", "brand:wikidata": "Q6951632", "brand:wikipedia": "es:Banco de Costa Rica", "building": "yes", "name": "BCR", "official_name": "Banco de Costa Rica", "source": "KG Ground Survey 2015"}}, {"type": "way", "id": 394670421, "nodes": [3819183195, 3976412816, 3976412817, 3819183196, 3819183195], "tags": {"addr:city": "Zapote", "addr:street": "V\u00eda 215", "amenity": "bank", "building": "yes", "name": "Banco Nacional", "source": "KG Ground Survey 2015"}}, {"type": "way", "id": 394682116, "nodes": [3976483880, 3976483881, 3976483882, 3976483883, 3976483884, 3976483885, 3976483886, 3976483887, 3976483888, 3976483880], "tags": {"addr:city": "Curridabat", "addr:street": "V\u00eda 2", "amenity": "bank", "area": "yes", "building": "office", "building:levels": "2", "name": "Banco de Costa Rica", "operator": "B.C.R.", "source": "KG Ground Survey 2015", "wheelchair": "yes"}}, {"type": "way", "id": 394704963, "nodes": [3976738390, 3976738391, 3976738392, 3976738393, 3976738394, 3976738395, 3976738390], "tags": {"addr:city": "San Rafael", "addr:street": "Avenida 7", "amenity": "bank", "area": "yes", "atm": "yes", "building": "yes", "name": "Banco de Costa Rica", "source": "KG Ground Survey 2015"}}, {"type": "way", "id": 394715226, "nodes": [3976829433, 3976829434, 3976829435, 3976829436, 3976829437, 3976829438, 3976829439, 3976829440, 3976829441, 3976829442, 3976829443, 3976829444, 3976829433], "tags": {"addr:city": "San Rafael", "addr:street": "Calle 33", "alt_name": "Banco Nacional de Costa Rica, San Rafael de Oreamuno", "amenity": "bank", "area": "yes", "atm": "yes", "building": "yes", "name": "Banco Nacional", "source": "KG Ground Survey 2015"}}, {"type": "way", "id": 394722519, "nodes": [3976910468, 3976910469, 3976910470, 3976910471, 3976910472, 3976910468], "tags": {"amenity": "bank", "area": "yes", "building": "yes", "name": "Coopeservidores", "source": "KG Ground Survey 2015"}}, {"type": "way", "id": 394742887, "nodes": [3977137924, 3977137925, 3977137926, 3977137927, 3977137924], "tags": {"addr:city": "El Tejar", "addr:full": "25 metros Sur de la Municipalidad de El Guarco, Tejar, frente al costado oeste del Parque.", "addr:street": "Calle 38", "amenity": "bank", "area": "yes", "atm": "yes", "building": "yes", "name": "Banco Popular", "opening_hours": "Mo-Fr 08:45-16:30; Sa 08:15-11:30", "phone": "2551-0508 / 2551-0493", "source": "KG Ground Survey 2015"}}, {"type": "way", "id": 394744931, "nodes": [3977166887, 3977166888, 3977166889, 3977166890, 3977166887], "tags": {"addr:city": "El Tejar", "addr:full": "Diagonal esquina noreste de la Bas\u00edlica de Tejar", "addr:street": "Avenida 48", "amenity": "bank", "area": "yes", "atm": "yes", "building": "yes", "name": "Banco de Costa Rica", "opening_hours": "Mo-Fr 11:00-18:00", "phone": "2592-5207 2592-5208 2592-5209", "source": "KG Ground Survey 2015"}}, {"type": "way", "id": 395457720, "nodes": [3983173186, 3983173187, 3983173188, 3983173189, 3983173195, 3983173186], "tags": {"addr:city": "Cartago", "addr:street": "Avenida 2", "amenity": "bank", "building": "yes", "name": "Caja de Ande", "source": "KG Ground Survey 2015"}}, {"type": "way", "id": 395457721, "nodes": [3983173190, 3983173191, 3983173192, 3983173193, 3983173194, 3983173195, 3983173189, 3983173196, 3983173197, 3983173198, 3983173199, 3983173200, 3983173201, 3983173204, 3983173190], "tags": {"addr:city": "Cartago", "addr:full": "Costado Sur de Las Ruinas de Cartago.Costado Sur de Las Ruinas de Cartago.", "amenity": "bank", "area": "yes", "atm": "yes", "building": "yes", "name": "Banco Popular y de Desarrollo Comunal", "opening_hours": "Mo-Fr 08:45-16:30; Sa 08:15-11:30", "phone": "2591-4484 / 2591-3535 / 2591-0434 / 2591-0435 / 2591-4493", "source": "KG Ground Survey 2015"}}, {"type": "way", "id": 395889861, "nodes": [3986899692, 3986899693, 3986899694, 3986899695, 3986899692], "tags": {"addr:city": "El Tejar", "amenity": "bank", "building": "yes", "name": "Mucap", "source": "KG Ground Survey 2015"}}, {"type": "way", "id": 420863829, "nodes": [7844800371, 4207653876, 4207653877, 4207653875, 4207643151, 7844800371], "tags": {"addr:city": "San Ignacio", "addr:street": "Avenida 1", "air_conditioning": "yes", "amenity": "bank", "atm": "yes", "brand": "Banco Nacional de Costa Rica", "brand:en": "National Bank of Costa Rica", "brand:es": "Banco Nacional de Costa Rica", "brand:wikidata": "Q2917708", "brand:wikipedia": "es:Banco Nacional de Costa Rica", "building": "yes", "building:levels": "2", "drive_through": "no", "name": "Banco Nacional", "name:en": "National Bank", "name:es": "Banco Nacional", "official_name": "Banco Nacional de Costa Rica", "official_name:en": "National Bank of Costa Rica", "official_name:es": "Banco Nacional de Costa Rica", "opening_hours": "Mo-Fr 08:00-15:30", "short_name": "BNCR", "source": "Bing Maps", "wheelchair": "yes"}}, {"type": "way", "id": 423970569, "nodes": [3835004773, 3835019250, 3835004777, 3835004776, 4234682007, 3835004774, 3835004773], "tags": {"addr:city": "San Jos\u00e9", "addr:street": "Calle 5", "amenity": "bank", "atm": "yes", "building": "yes", "name": "Banco Cathay", "opening_hours": "Mo-Fr 09:00-18:00; Sa 09:00-13:00"}}, {"type": "way", "id": 423971242, "nodes": [4234688353, 4234688354, 4234688355, 4234688356, 4234688353], "tags": {"addr:city": "San Jos\u00e9", "addr:street": "Avenida 12", "amenity": "bank", "atm": "yes", "building": "yes", "name": "Banco de Costa Rica"}}, {"type": "way", "id": 442113338, "nodes": [4398048049, 4398048042, 4398048044, 4398048047, 4398048048, 4398048049], "tags": {"addr:city": "Aserr\u00ed", "addr:street": "V\u00eda 209", "amenity": "bank", "atm": "yes", "brand": "Banco Nacional de Costa Rica", "brand:en": "National Bank of Costa Rica", "brand:es": "Banco Nacional de Costa Rica", "brand:wikidata": "Q2917708", "brand:wikipedia": "es:Banco Nacional de Costa Rica", "building": "yes", "name": "Banco Nacional", "name:en": "National Bank", "name:es": "Banco Nacional", "official_name": "Banco Nacional de Costa Rica", "official_name:en": "National Bank of Costa Rica", "official_name:es": "Banco Nacional de Costa Rica", "opening_hours": "Mo-Fr 8:30-15:45", "short_name": "BNCR"}}, {"type": "way", "id": 443132389, "nodes": [4407662426, 4407662427, 4407662428, 4407662429, 4407662426], "tags": {"amenity": "bank", "building": "yes", "name": "Cajero Automatico BCR"}}, {"type": "way", "id": 449324824, "nodes": [4462947471, 4462947472, 4462947473, 4462947474, 4462947471], "tags": {"amenity": "bank", "atm": "yes", "building": "office", "building:levels": "2", "name": "BCR", "wheelchair": "yes"}}, {"type": "way", "id": 452566080, "nodes": [4493446952, 4493446953, 3968679946, 4493446954, 4493446952], "tags": {"amenity": "bank", "atm": "yes", "building": "yes", "name": "Banco Popular", "opening_hours": "Mo-Fr 08:45-16:30; Sa 08:15-11:30"}}, {"type": "way", "id": 457131801, "nodes": [4533250291, 4533250292, 4533250293, 4533250294, 4533250291], "tags": {"amenity": "bank", "brand": "BCR", "brand:wikidata": "Q6951632", "brand:wikipedia": "es:Banco de Costa Rica", "building": "yes", "name": "Banco de Costa Rica", "official_name": "Banco de Costa Rica", "official_name:en": "Bank of Costa Rica", "official_name:es": "Banco de Costa Rica"}}, {"type": "way", "id": 486494226, "nodes": [3829350186, 4791021705, 1000542089, 1000542090, 3829350186], "tags": {"addr:city": "San Jos\u00e9", "addr:street": "Avenida Libertador Juan Rafael Mora Porras", "amenity": "bank", "atm": "yes", "building": "yes", "name": "BAC Credomatic"}}, {"type": "way", "id": 628666706, "nodes": [5935491250, 5935491261, 5935491229, 5935491228, 5935491258, 5935491250], "tags": {"addr:city": "San Jos\u00e9", "addr:street": "Avenida 5", "amenity": "bank", "atm": "yes", "building": "yes", "name": "Banco Improsa"}}, {"type": "way", "id": 730233254, "nodes": [6841080047, 6841080050, 6841080049, 6841080048, 6841080047], "tags": {"amenity": "bank", "building": "yes"}}, {"type": "way", "id": 852582686, "nodes": [7953164133, 7953164134, 7953164135, 7953164136, 7953164133], "tags": {"addr:city": "San Marcos", "addr:street": "Avenida 3", "amenity": "bank", "atm": "yes", "building": "yes", "drive_through": "no", "name": "Banco Popular", "operator": "Banco Popular"}}, {"type": "way", "id": 921573187, "nodes": [8555944906, 8555944907, 8555944908, 8555944909, 8555944906], "tags": {"amenity": "bank", "brand": "Banco Nacional de Costa Rica", "brand:en": "National Bank of Costa Rica", "brand:es": "Banco Nacional de Costa Rica", "brand:wikidata": "Q2917708", "brand:wikipedia": "es:Banco Nacional de Costa Rica", "building": "yes", "name": "Banco Nacional Concep", "name:en": "National Bank", "name:es": "Banco Nacional", "official_name": "Banco Nacional de Costa Rica", "official_name:en": "National Bank of Costa Rica", "official_name:es": "Banco Nacional de Costa Rica", "short_name": "BNCR"}}, {"type": "way", "id": 934775751, "nodes": [8662862820, 8662862821, 8662862822, 8662862823, 8662862820], "tags": {"amenity": "bank", "brand": "BCR", "brand:wikidata": "Q6951632", "brand:wikipedia": "es:Banco de Costa Rica", "building": "yes", "name": "BCR San Sebasti\u00e1n", "name:it": "Banca di Costa Rica San Sebasti\u00e1n", "official_name": "Banco de Costa Rica", "official_name:en": "Bank of Costa Rica", "official_name:es": "Banco de Costa Rica"}}, {"type": "way", "id": 992073409, "nodes": [9166103211, 9166103212, 9166103213, 9166103214, 9166103215, 9166103216, 9166115517, 9166115518, 9166115519, 9166115520, 9166103211], "tags": {"amenity": "bank", "atm": "yes", "brand": "Banco Nacional de Costa Rica", "brand:wikidata": "Q2917708", "brand:wikipedia": "es:Banco Nacional de Costa Rica", "building": "yes", "drive_through": "no", "layer": "1", "name": "Banco Nacional", "official_name": "Banco Nacional de Costa Rica", "operator": "Banco Nacional", "short_name": "BNCR"}}]}