{"version": 0.6, "generator": "Overpass API 0.7.57.1 74a55df1", "osm3s": {"timestamp_osm_base": "2021-12-08T18:08:55Z", "copyright": "The data included in this document is from www.openstreetmap.org. The data is made available under ODbL."}, "elements": [{"type": "node", "id": 1431339135, "lat": 9.9035181, "lon": -83.6844751}, {"type": "node", "id": 1431339144, "lat": 9.9036238, "lon": -83.6843006}, {"type": "node", "id": 1431339147, "lat": 9.9037521, "lon": -83.6846988}, {"type": "node", "id": 1431339157, "lat": 9.9038919, "lon": -83.684468}, {"type": "node", "id": 1431339260, "lat": 9.9047178, "lon": -83.682539}, {"type": "node", "id": 1431339288, "lat": 9.9048531, "lon": -83.6823355}, {"type": "node", "id": 1431339303, "lat": 9.904877, "lon": -83.682648}, {"type": "node", "id": 1431339340, "lat": 9.9050562, "lon": -83.6824746}, {"type": "node", "id": 1431339348, "lat": 9.9050881, "lon": -83.6819703}, {"type": "node", "id": 1431339368, "lat": 9.9051569, "lon": -83.6818449}, {"type": "node", "id": 1431339377, "lat": 9.9053806, "lon": -83.6821505}, {"type": "node", "id": 1431339392, "lat": 9.9053955, "lon": -83.6819875}, {"type": "node", "id": 1431339394, "lat": 9.9053358, "lon": -83.6856922}, {"type": "node", "id": 1431339427, "lat": 9.9061796, "lon": -83.6834921}, {"type": "node", "id": 1431339438, "lat": 9.9063869, "lon": -83.6835755}, {"type": "node", "id": 1431339442, "lat": 9.9062795, "lon": -83.6833227}, {"type": "node", "id": 1431339451, "lat": 9.9064683, "lon": -83.6834375}, {"type": "node", "id": 1441527190, "lat": 9.9053141, "lon": -83.6849907, "tags": {"amenity": "bank", "atm": "yes", "name": "Instacredit", "source": "KG Ground Survey 2015"}}, {"type": "node", "id": 1718466575, "lat": 9.8499702, "lon": -83.6111165, "tags": {"addr:city": "La Suiza", "addr:street": "V\u00eda 414", "alt_name": "Banco Nacional de Costa Rica, La Suiza", "amenity": "bank", "atm": "yes", "brand": "Banco Nacional de Costa Rica", "brand:en": "National Bank of Costa Rica", "brand:es": "Banco Nacional de Costa Rica", "brand:wikidata": "Q2917708", "brand:wikipedia": "es:Banco Nacional de Costa Rica", "name": "Banco Nacional", "name:en": "National Bank", "name:es": "Banco Nacional", "official_name": "Banco Nacional de Costa Rica", "official_name:en": "National Bank of Costa Rica", "official_name:es": "Banco Nacional de Costa Rica", "short_name": "BNCR", "source": "Sitio web del banco"}}, {"type": "node", "id": 3954355065, "lat": 9.9007771, "lon": -83.6745696}, {"type": "node", "id": 3954355066, "lat": 9.9005122, "lon": -83.6746064}, {"type": "node", "id": 3954355067, "lat": 9.9004807, "lon": -83.6743729}, {"type": "node", "id": 3954355068, "lat": 9.9007456, "lon": -83.6743361}, {"type": "node", "id": 3960297705, "lat": 9.903607, "lon": -83.6846082}, {"type": "node", "id": 3960297706, "lat": 9.9036411, "lon": -83.6845518}, {"type": "node", "id": 3960540464, "lat": 9.9054051, "lon": -83.6853989}, {"type": "node", "id": 3960540465, "lat": 9.9052532, "lon": -83.6856385}, {"type": "node", "id": 3960540466, "lat": 9.9054874, "lon": -83.6854527}, {"type": "node", "id": 3960540467, "lat": 9.9057186, "lon": -83.6855366}, {"type": "node", "id": 3960540468, "lat": 9.9056584, "lon": -83.6854971}, {"type": "node", "id": 3960540469, "lat": 9.905578, "lon": -83.6856331}, {"type": "node", "id": 3960540470, "lat": 9.9056364, "lon": -83.6856698}, {"type": "node", "id": 3960540537, "lat": 9.9036037, "lon": -83.6845285}, {"type": "node", "id": 3960540570, "lat": 9.9038811, "lon": -83.6844859}, {"type": "node", "id": 3960685271, "lat": 9.9049532, "lon": -83.6825334}, {"type": "node", "id": 3960685272, "lat": 9.9049972, "lon": -83.6825635}, {"type": "node", "id": 3966909709, "lat": 9.9062035, "lon": -83.6835067}, {"type": "node", "id": 3966909711, "lat": 9.906222, "lon": -83.6834753}, {"type": "node", "id": 5499619867, "lat": 9.9037912, "lon": -83.6846342}, {"type": "node", "id": 5499619874, "lat": 9.9053803, "lon": -83.6820111}, {"type": "node", "id": 5499619875, "lat": 9.9053974, "lon": -83.6820198}, {"type": "node", "id": 5499619876, "lat": 9.9053643, "lon": -83.6820851}, {"type": "node", "id": 5499619877, "lat": 9.9054094, "lon": -83.6821069}, {"type": "way", "id": 129800734, "nodes": [1431339157, 1431339144, 1431339135, 3960540537, 3960297706, 3960297705, 1431339147, 5499619867, 3960540570, 1431339157], "tags": {"addr:city": "Turrialba", "addr:street": "Calle 2", "amenity": "bank", "atm": "yes", "building": "yes", "source": "KG Ground Survey 2015"}}, {"type": "way", "id": 129800735, "nodes": [1431339260, 1431339303, 3960685271, 3960685272, 1431339340, 1431339288, 1431339260], "tags": {"addr:city": "Turrialba", "addr:street": "Avenida Monge Dumani", "amenity": "bank", "atm": "yes", "brand": "Banco Nacional de Costa Rica", "brand:en": "National Bank of Costa Rica", "brand:es": "Banco Nacional de Costa Rica", "brand:wikidata": "Q2917708", "brand:wikipedia": "es:Banco Nacional de Costa Rica", "building": "yes", "name": "Banco Nacional", "name:en": "National Bank", "name:es": "Banco Nacional", "official_name": "Banco Nacional de Costa Rica", "official_name:en": "National Bank of Costa Rica", "official_name:es": "Banco Nacional de Costa Rica", "short_name": "BNCR", "source": "KG Ground Survey 2015"}}, {"type": "way", "id": 129800736, "nodes": [1431339427, 3966909709, 3966909711, 1431339438, 1431339451, 1431339442, 1431339427], "tags": {"addr:city": "Turrialba", "addr:street": "Avenida 4", "amenity": "bank", "atm": "yes", "building": "yes", "name": "Banco Popular", "opening_hours": "Mo-Sa 09:00-16:00; Sa 09:00-12:00", "source": "KG Ground Survey 2015"}}, {"type": "way", "id": 129800737, "nodes": [1431339348, 1431339368, 1431339392, 5499619874, 5499619875, 5499619876, 5499619877, 1431339377, 1431339348], "tags": {"addr:city": "Turrialba", "addr:street": "Calle Mariano Cort\u00e9s", "amenity": "bank", "atm": "yes", "building": "yes", "name": "Banco de Costa Rica"}}, {"type": "way", "id": 392174505, "nodes": [3954355065, 3954355066, 3954355067, 3954355068, 3954355065], "tags": {"addr:city": "Turrialba", "addr:street": "Ruta 10", "amenity": "bank", "atm": "yes", "building": "yes", "name": "Coopenae", "source": "KG Ground Survey 2015"}}, {"type": "way", "id": 392864310, "nodes": [3960540464, 3960540465, 1431339394, 3960540466, 3960540464], "tags": {"addr:street": "Calle 2", "amenity": "bank", "amenity_1": "atm", "building": "yes", "name": "Mucap", "source": "KG Ground Survey 2015"}}, {"type": "way", "id": 392864311, "nodes": [3960540467, 3960540468, 3960540469, 3960540470, 3960540467], "tags": {"addr:street": "Avenida 6", "amenity": "bank", "building": "yes", "name": "Coopeservidores", "source": "KG Ground Survey 2015"}}]}